{
"type": "FeatureCollection",
"name": "geo_24_特定施設入居者生活介護（有料老人ホーム）",
"crs": { "type": "name", "properties": { "name": "urn:ogc:def:crs:OGC:1.3:CRS84" } },
"features": [
{ "type": "Feature", "properties": { "内容": "介護付有料老人ホーム昭和ろまん【特定施設入居者生活介護（有料老人ホーム）】三重県津市芸濃町椋本6177-1", "url": "https://www.kaigokensaku.mhlw.go.jp/24/index.php?action_kouhyou_detail_004_kani=true&JigyosyoCd=2472400411-00&ServiceCd=331&Type=search", "url2": "http://www.showa-roman.jp/" }, "geometry": { "type": "Point", "coordinates": [ 136.441244900000044, 34.810784699999978 ] } },
{ "type": "Feature", "properties": { "内容": "特定施設入居者生活介護　有料老人ホーム　わが家【特定施設入居者生活介護（有料老人ホーム）】三重県津市河芸町上野1902番地有料老人ホームわが家", "url": "https://www.kaigokensaku.mhlw.go.jp/24/index.php?action_kouhyou_detail_004_kani=true&JigyosyoCd=2470502416-00&ServiceCd=331&Type=search", "url2": "home_wagaya@ceres.ocn.ne.jp" }, "geometry": { "type": "Point", "coordinates": [ 136.538370100000066, 34.7870339 ] } },
{ "type": "Feature", "properties": { "内容": "特定施設入居者生活介護　虹の夢津【特定施設入居者生活介護（有料老人ホーム）】三重県津市観音寺町152番地特定施設入居者生活介護　虹の夢津", "url": "https://www.kaigokensaku.mhlw.go.jp/24/index.php?action_kouhyou_detail_004_kani=true&JigyosyoCd=2470504941-00&ServiceCd=331&Type=search", "url2": "http://nijinoyume-z.com/" }, "geometry": { "type": "Point", "coordinates": [ 136.495782499722253, 34.725946823360168 ] } },
{ "type": "Feature", "properties": { "内容": "介護付有料老人ホーム夢眠よっかいち【特定施設入居者生活介護（有料老人ホーム）】三重県四日市市滝川町13-3", "url": "https://www.kaigokensaku.mhlw.go.jp/24/index.php?action_kouhyou_detail_004_kani=true&JigyosyoCd=2470201423-00&ServiceCd=331&Type=search", "url2": "http://muminhome.jp/" }, "geometry": { "type": "Point", "coordinates": [ 136.624525899999981, 34.9762915 ] } },
{ "type": "Feature", "properties": { "内容": "介護付有料老人ホーム夢眠よっかいち【特定施設入居者生活介護（有料老人ホーム）】滝川町13番3号", "url": "https://www.kaigokensaku.mhlw.go.jp/24/index.php?action_kouhyou_detail_004_kani=true&JigyosyoCd=2470206562-00&ServiceCd=331&Type=search", "url2": "http://muminhome.jp/yokkaichi/" }, "geometry": { "type": "Point", "coordinates": [ 136.624081600000011, 34.9753786 ] } },
{ "type": "Feature", "properties": { "内容": "和みの里【特定施設入居者生活介護（有料老人ホーム）】三重県伊勢市上地町5019-1", "url": "https://www.kaigokensaku.mhlw.go.jp/24/index.php?action_kouhyou_detail_004_kani=true&JigyosyoCd=2470800653-00&ServiceCd=331&Type=search", "url2": null }, "geometry": { "type": "Point", "coordinates": [ 136.648376899999988, 34.4880092 ] } },
{ "type": "Feature", "properties": { "内容": "介護付き有料老人ホーム　わが家　伊勢【特定施設入居者生活介護（有料老人ホーム）】三重県伊勢市馬瀬町850介護付き有料老人ホーム　　わが家　伊勢", "url": "https://www.kaigokensaku.mhlw.go.jp/24/index.php?action_kouhyou_detail_004_kani=true&JigyosyoCd=2470802329-00&ServiceCd=331&Type=search", "url2": null }, "geometry": { "type": "Point", "coordinates": [ 136.725522895462063, 34.516174633182203 ] } },
{ "type": "Feature", "properties": { "内容": "介護付有料老人ホーム　くらたやま【特定施設入居者生活介護（有料老人ホーム）】三重県伊勢市黒瀬町８６５－１", "url": "https://www.kaigokensaku.mhlw.go.jp/24/index.php?action_kouhyou_detail_004_kani=true&JigyosyoCd=2470800752-00&ServiceCd=331&Type=search", "url2": "http://www.welfare-mie.jp/" }, "geometry": { "type": "Point", "coordinates": [ 136.736355799999956, 34.4928256 ] } },
{ "type": "Feature", "properties": { "内容": "介護付有料老人ホーム　ウェルガーデンみその【特定施設入居者生活介護（有料老人ホーム）】三重県伊勢市御薗町長屋3043介護付有料老人ホーム　ウェルガーデンみその", "url": "https://www.kaigokensaku.mhlw.go.jp/24/index.php?action_kouhyou_detail_004_kani=true&JigyosyoCd=2470802345-00&ServiceCd=331&Type=search", "url2": "http://www.welfare-mie.jp" }, "geometry": { "type": "Point", "coordinates": [ 136.70689440000001, 34.5048564 ] } },
{ "type": "Feature", "properties": { "内容": "介護付き有料老人ホーム「シルバーハウス松阪」【特定施設入居者生活介護（有料老人ホーム）】三重県松阪市田村町452番地", "url": "https://www.kaigokensaku.mhlw.go.jp/24/index.php?action_kouhyou_detail_004_kani=true&JigyosyoCd=2470704186-00&ServiceCd=331&Type=search", "url2": "http://mieoyakhoko.net/" }, "geometry": { "type": "Point", "coordinates": [ 136.512025264418071, 34.558236849901903 ] } },
{ "type": "Feature", "properties": { "内容": "介護付有料老人ホーム　わが家松阪【特定施設入居者生活介護（有料老人ホーム）】三重県松阪市伊勢寺町字北田590-2", "url": "https://www.kaigokensaku.mhlw.go.jp/24/index.php?action_kouhyou_detail_004_kani=true&JigyosyoCd=2470702156-00&ServiceCd=331&Type=search", "url2": null }, "geometry": { "type": "Point", "coordinates": [ 136.472517899999957, 34.5679923 ] } },
{ "type": "Feature", "properties": { "内容": "介護付有料老人ホーム　エクセレントまつさか【特定施設入居者生活介護（有料老人ホーム）】松阪市久保町字東1855番1703地", "url": "https://www.kaigokensaku.mhlw.go.jp/24/index.php?action_kouhyou_detail_004_kani=true&JigyosyoCd=2470702404-00&ServiceCd=331&Type=search", "url2": "http://www.fukujima.jp/" }, "geometry": { "type": "Point", "coordinates": [ 136.533507099999952, 34.5444109 ] } },
{ "type": "Feature", "properties": { "内容": "ふぁみーゆ　松阪【特定施設入居者生活介護（有料老人ホーム）】松阪市白粉町463-1", "url": "https://www.kaigokensaku.mhlw.go.jp/24/index.php?action_kouhyou_detail_004_kani=true&JigyosyoCd=2470700705-00&ServiceCd=331&Type=search", "url2": "https://fami-yu-matsusaka.com/" }, "geometry": { "type": "Point", "coordinates": [ 136.530276, 34.5708106 ] } },
{ "type": "Feature", "properties": { "内容": "介護付有料老人ホームエクセレントくわな【特定施設入居者生活介護（有料老人ホーム）】三重県桑名市大字福島1000番地1", "url": "https://www.kaigokensaku.mhlw.go.jp/24/index.php?action_kouhyou_detail_004_kani=true&JigyosyoCd=2470101326-00&ServiceCd=331&Type=search", "url2": "http://www.fukujima.jp" }, "geometry": { "type": "Point", "coordinates": [ 136.688102500000014, 35.0730846 ] } },
{ "type": "Feature", "properties": { "内容": "ベストライフ長島【特定施設入居者生活介護（有料老人ホーム）】三重県桑名市長島町西外面下島1718-1", "url": "https://www.kaigokensaku.mhlw.go.jp/24/index.php?action_kouhyou_detail_004_kani=true&JigyosyoCd=2470102605-00&ServiceCd=331&Type=search", "url2": null }, "geometry": { "type": "Point", "coordinates": [ 136.697888, 35.0986319 ] } },
{ "type": "Feature", "properties": { "内容": "介護付き有料老人ホーム夢眠すずか【特定施設入居者生活介護（有料老人ホーム）】三重県鈴鹿市南玉垣町6507-1", "url": "https://www.kaigokensaku.mhlw.go.jp/24/index.php?action_kouhyou_detail_004_kani=true&JigyosyoCd=2470302338-00&ServiceCd=331&Type=search", "url2": "http://muminhome.jp/" }, "geometry": { "type": "Point", "coordinates": [ 136.567646500000023, 34.862631 ] } },
{ "type": "Feature", "properties": { "内容": "介護付有料老人ホーム夢眠すずか【特定施設入居者生活介護（有料老人ホーム）】南玉垣町6507-1", "url": "https://www.kaigokensaku.mhlw.go.jp/24/index.php?action_kouhyou_detail_004_kani=true&JigyosyoCd=2470303914-00&ServiceCd=331&Type=search", "url2": "http://muminhome.jp/suzuka/" }, "geometry": { "type": "Point", "coordinates": [ 136.5677181, 34.8625907 ] } },
{ "type": "Feature", "properties": { "内容": "介護付有料老人ホーム　メディカルヴィラはなみずき【特定施設入居者生活介護（有料老人ホーム）】三重県鈴鹿市平田一丁目2番22号", "url": "https://www.kaigokensaku.mhlw.go.jp/24/index.php?action_kouhyou_detail_004_kani=true&JigyosyoCd=2470303088-00&ServiceCd=331&Type=search", "url2": null }, "geometry": { "type": "Point", "coordinates": [ 136.540509909787033, 34.874985583424042 ] } },
{ "type": "Feature", "properties": { "内容": "介護付老人ホーム　えがお【特定施設入居者生活介護（有料老人ホーム）】三重県名張市松崎町１３３９番地1", "url": "https://www.kaigokensaku.mhlw.go.jp/24/index.php?action_kouhyou_detail_004_kani=true&JigyosyoCd=2471300745-00&ServiceCd=331&Type=search", "url2": "https://www.egao-kaigo.co.jp/" }, "geometry": { "type": "Point", "coordinates": [ 136.08828496931153, 34.623912752772725 ] } },
{ "type": "Feature", "properties": { "内容": "ファミニュー亀山【特定施設入居者生活介護（有料老人ホーム）】三重県亀山市川崎町1586-1", "url": "https://www.kaigokensaku.mhlw.go.jp/24/index.php?action_kouhyou_detail_004_kani=true&JigyosyoCd=2470400140-00&ServiceCd=331&Type=search", "url2": "http://www.mcsg.co.jp" }, "geometry": { "type": "Point", "coordinates": [ 136.478300869911664, 34.903863616098725 ] } },
{ "type": "Feature", "properties": { "内容": "さわやかシーサイド鳥羽【特定施設入居者生活介護（有料老人ホーム）】鳥羽市小浜町字浜辺300-73", "url": "https://www.kaigokensaku.mhlw.go.jp/24/index.php?action_kouhyou_detail_004_kani=true&JigyosyoCd=2470900347-00&ServiceCd=331&Type=search", "url2": "http://www.sawayakaclub.jp" }, "geometry": { "type": "Point", "coordinates": [ 136.835596, 34.49068 ] } },
{ "type": "Feature", "properties": { "内容": "介護付有料老人ホーム　虹の夢とば【特定施設入居者生活介護（有料老人ホーム）】三重県鳥羽市鳥羽1丁目20番1号", "url": "https://www.kaigokensaku.mhlw.go.jp/24/index.php?action_kouhyou_detail_004_kani=true&JigyosyoCd=2470900313-00&ServiceCd=331&Type=search", "url2": "https://nijino-yume.com/" }, "geometry": { "type": "Point", "coordinates": [ 136.835445199999981, 34.487198 ] } },
{ "type": "Feature", "properties": { "内容": "ハーモニーハウスいなべ【特定施設入居者生活介護（有料老人ホーム）】三重県いなべ市北勢町阿下喜3698", "url": "https://www.kaigokensaku.mhlw.go.jp/24/index.php?action_kouhyou_detail_004_kani=true&JigyosyoCd=2471400446-00&ServiceCd=331&Type=search", "url2": "https://www.h-ikkou.co.jp/harmony_inabe/index.html" }, "geometry": { "type": "Point", "coordinates": [ 136.5162186, 35.1455968 ] } },
{ "type": "Feature", "properties": { "内容": "介護付有料老人ホームふれあいの森【特定施設入居者生活介護（有料老人ホーム）】三重県志摩市阿児町鵜方2555番地1在宅総合センター豊和", "url": "https://www.kaigokensaku.mhlw.go.jp/24/index.php?action_kouhyou_detail_004_kani=true&JigyosyoCd=2472900956-00&ServiceCd=331&Type=search", "url2": "http://www.houwakai.or.jp/" }, "geometry": { "type": "Point", "coordinates": [ 136.834801, 34.3324396 ] } },
{ "type": "Feature", "properties": { "内容": "天花【特定施設入居者生活介護（有料老人ホーム）】三重県　志摩市　志摩町　和具　７０６ー１", "url": "https://www.kaigokensaku.mhlw.go.jp/24/index.php?action_kouhyou_detail_004_kani=true&JigyosyoCd=2472900543-00&ServiceCd=331&Type=search", "url2": "http://www.care-resort.co.jp" }, "geometry": { "type": "Point", "coordinates": [ 136.816919699999971, 34.2588846 ] } },
{ "type": "Feature", "properties": { "内容": "介護付有料老人ホーム　しまの憩【特定施設入居者生活介護（有料老人ホーム）】磯部町迫間375", "url": "https://www.kaigokensaku.mhlw.go.jp/24/index.php?action_kouhyou_detail_004_kani=true&JigyosyoCd=2472901491-00&ServiceCd=331&Type=search", "url2": "http://www.frontiernokaigo.jp/detail/shima.html" }, "geometry": { "type": "Point", "coordinates": [ 136.802008801991263, 34.372691703033702 ] } },
{ "type": "Feature", "properties": { "内容": "ハーモニーハウス伊賀大山田【特定施設入居者生活介護（有料老人ホーム）】三重県伊賀市畑村1860番地", "url": "https://www.kaigokensaku.mhlw.go.jp/24/index.php?action_kouhyou_detail_004_kani=true&JigyosyoCd=2471200929-00&ServiceCd=331&Type=search", "url2": "https://www.h-ikkou.co.jp/harmony_iga/index.html" }, "geometry": { "type": "Point", "coordinates": [ 136.207596185766533, 34.771473430938755 ] } },
{ "type": "Feature", "properties": { "内容": "介護付有料老人ホーム　あおい【特定施設入居者生活介護（有料老人ホーム）】三重県員弁郡東員町長深2126-1", "url": "https://www.kaigokensaku.mhlw.go.jp/24/index.php?action_kouhyou_detail_004_kani=true&JigyosyoCd=2472100789-00&ServiceCd=331&Type=search", "url2": null }, "geometry": { "type": "Point", "coordinates": [ 136.578892799999949, 35.0577807 ] } },
{ "type": "Feature", "properties": { "内容": "介護付有料老人ホーム　エクセレントあさひ【特定施設入居者生活介護（有料老人ホーム）】三重県三重郡朝日町大字小向2064番地1", "url": "https://www.kaigokensaku.mhlw.go.jp/24/index.php?action_kouhyou_detail_004_kani=true&JigyosyoCd=2472200480-00&ServiceCd=331&Type=search", "url2": "http://www.fukujima.jp" }, "geometry": { "type": "Point", "coordinates": [ 136.667565599999989, 35.033729399999984 ] } },
{ "type": "Feature", "properties": { "内容": "介護付有料老人ホーム　煌【特定施設入居者生活介護（有料老人ホーム）】明和町大淀2229-1", "url": "https://www.kaigokensaku.mhlw.go.jp/24/index.php?action_kouhyou_detail_004_kani=true&JigyosyoCd=2472700703-00&ServiceCd=331&Type=search", "url2": "http://www.home-kagayaki.com/" }, "geometry": { "type": "Point", "coordinates": [ 136.649885, 34.5581479 ] } },
{ "type": "Feature", "properties": { "内容": "介護付有料老人ホーム桜の里【特定施設入居者生活介護（有料老人ホーム）】三重県度会郡玉城町矢野133-1介護付有料老人ホーム桜の里", "url": "https://www.kaigokensaku.mhlw.go.jp/24/index.php?action_kouhyou_detail_004_kani=true&JigyosyoCd=2472801824-00&ServiceCd=331&Type=search", "url2": "http://sakuranosato-tamaki.com/" }, "geometry": { "type": "Point", "coordinates": [ 136.603325500000011, 34.4812109 ] } },
{ "type": "Feature", "properties": { "内容": "虹の丘特定施設入居者生活介護事業所【特定施設入居者生活介護（有料老人ホーム）】三重県度会郡大紀町滝原873番地", "url": "https://www.kaigokensaku.mhlw.go.jp/24/index.php?action_kouhyou_detail_004_kani=true&JigyosyoCd=2472801188-00&ServiceCd=331&Type=search", "url2": "http//kissoukai.com/index.html" }, "geometry": { "type": "Point", "coordinates": [ 136.419568900000058, 34.3669353 ] } },
{ "type": "Feature", "properties": { "内容": "介護付有料老人ホームみなみいせ【特定施設入居者生活介護（有料老人ホーム）】三重県度会郡南伊勢町五ヶ所浦988-7", "url": "https://www.kaigokensaku.mhlw.go.jp/24/index.php?action_kouhyou_detail_004_kani=true&JigyosyoCd=2472800941-00&ServiceCd=331&Type=search", "url2": "http://www.welfare-mie.jp/" }, "geometry": { "type": "Point", "coordinates": [ 136.699275199999988, 34.3480291 ] } }
]
}
