{
"type": "FeatureCollection",
"name": "geo_24_幼稚園",
"crs": { "type": "name", "properties": { "name": "urn:ogc:def:crs:EPSG::6668" } },
"features": [
{ "type": "Feature", "properties": { "P29_001": "24201", "P29_002": "A124110000015", "P29_003": "16011", "P29_004": "三重大学教育学部附属幼稚園", "P29_005": "三重県津市観音寺町523", "P29_006": "1", "P29_007": "0", "P29_008": "00", "P29_009": null }, "geometry": { "type": "Point", "coordinates": [ 136.500336297935121, 34.729029564395496 ] } },
{ "type": "Feature", "properties": { "P29_001": "24201", "P29_002": "A124220100011", "P29_003": "16011", "P29_004": "津市立南立誠幼稚園", "P29_005": "三重県津市桜橋2-39", "P29_006": "3", "P29_007": "0", "P29_008": "00", "P29_009": null }, "geometry": { "type": "Point", "coordinates": [ 136.516490243799183, 34.73061054223075 ] } },
{ "type": "Feature", "properties": { "P29_001": "24201", "P29_002": "A124220100020", "P29_003": "16011", "P29_004": "津市立敬和幼稚園", "P29_005": "三重県津市中河原南浦445", "P29_006": "3", "P29_007": "0", "P29_008": "00", "P29_009": null }, "geometry": { "type": "Point", "coordinates": [ 136.519379578118077, 34.720524458208352 ] } },
{ "type": "Feature", "properties": { "P29_001": "24201", "P29_002": "A124220100048", "P29_003": "16011", "P29_004": "津市立藤水幼稚園", "P29_005": "三重県津市藤方1627", "P29_006": "3", "P29_007": "0", "P29_008": "00", "P29_009": null }, "geometry": { "type": "Point", "coordinates": [ 136.51222214356261, 34.688904554120334 ] } },
{ "type": "Feature", "properties": { "P29_001": "24201", "P29_002": "A124220100066", "P29_003": "16011", "P29_004": "津市立高茶屋幼稚園", "P29_005": "三重県津市高茶屋3-1-1", "P29_006": "3", "P29_007": "0", "P29_008": "00", "P29_009": null }, "geometry": { "type": "Point", "coordinates": [ 136.510077841692663, 34.672651297919494 ] } },
{ "type": "Feature", "properties": { "P29_001": "24201", "P29_002": "A124220100075", "P29_003": "16011", "P29_004": "津市立白塚幼稚園", "P29_005": "三重県津市白塚町4463", "P29_006": "3", "P29_007": "0", "P29_008": "00", "P29_009": null }, "geometry": { "type": "Point", "coordinates": [ 136.527807722174089, 34.760536519050596 ] } },
{ "type": "Feature", "properties": { "P29_001": "24201", "P29_002": "A124220100093", "P29_003": "16011", "P29_004": "津市立大里幼稚園", "P29_005": "三重県津市大里窪田町1870", "P29_006": "3", "P29_007": "0", "P29_008": "00", "P29_009": null }, "geometry": { "type": "Point", "coordinates": [ 136.493150964356147, 34.769978461192466 ] } },
{ "type": "Feature", "properties": { "P29_001": "24201", "P29_002": "A124220100100", "P29_003": "16011", "P29_004": "津市立巽ヶ丘幼稚園", "P29_005": "三重県津市久居東鷹跡町177-5", "P29_006": "3", "P29_007": "0", "P29_008": "00", "P29_009": null }, "geometry": { "type": "Point", "coordinates": [ 136.466234439132876, 34.6750588061089 ] } },
{ "type": "Feature", "properties": { "P29_001": "24201", "P29_002": "A124220100119", "P29_003": "16011", "P29_004": "津市立密柑山幼稚園", "P29_005": "三重県津市久居北口町554-2", "P29_006": "3", "P29_007": "0", "P29_008": "00", "P29_009": null }, "geometry": { "type": "Point", "coordinates": [ 136.474857645805884, 34.680330079308696 ] } },
{ "type": "Feature", "properties": { "P29_001": "24201", "P29_002": "A124220100128", "P29_003": "16011", "P29_004": "津市立桃園幼稚園", "P29_005": "三重県津市新家町873-1", "P29_006": "3", "P29_007": "0", "P29_008": "00", "P29_009": null }, "geometry": { "type": "Point", "coordinates": [ 136.485877289337878, 34.661324386122303 ] } },
{ "type": "Feature", "properties": { "P29_001": "24201", "P29_002": "A124220100137", "P29_003": "16011", "P29_004": "津市立戸木幼稚園", "P29_005": "三重県津市戸木町2337", "P29_006": "3", "P29_007": "0", "P29_008": "00", "P29_009": null }, "geometry": { "type": "Point", "coordinates": [ 136.449899799703388, 34.678838713573974 ] } },
{ "type": "Feature", "properties": { "P29_001": "24201", "P29_002": "A124220100146", "P29_003": "16011", "P29_004": "津市立栗葉幼稚園", "P29_005": "三重県津市森町284-1", "P29_006": "3", "P29_007": "0", "P29_008": "00", "P29_009": null }, "geometry": { "type": "Point", "coordinates": [ 136.411609711643166, 34.678266387237386 ] } },
{ "type": "Feature", "properties": { "P29_001": "24201", "P29_002": "A124220100155", "P29_003": "16011", "P29_004": "津市立榊原幼稚園", "P29_005": "三重県津市榊原町5156", "P29_006": "3", "P29_007": "0", "P29_008": "00", "P29_009": null }, "geometry": { "type": "Point", "coordinates": [ 136.368966817089017, 34.706688531470753 ] } },
{ "type": "Feature", "properties": { "P29_001": "24201", "P29_002": "A124220100164", "P29_003": "16011", "P29_004": "津市立のむら幼稚園", "P29_005": "三重県津市久居野村町542-3", "P29_006": "3", "P29_007": "0", "P29_008": "00", "P29_009": null }, "geometry": { "type": "Point", "coordinates": [ 136.488078932750057, 34.677743761558759 ] } },
{ "type": "Feature", "properties": { "P29_001": "24201", "P29_002": "A124220100182", "P29_003": "16011", "P29_004": "津市立黒田幼稚園", "P29_005": "三重県津市河芸町北黒田109-1", "P29_006": "3", "P29_007": "0", "P29_008": "00", "P29_009": null }, "geometry": { "type": "Point", "coordinates": [ 136.521203189863115, 34.789492298362646 ] } },
{ "type": "Feature", "properties": { "P29_001": "24201", "P29_002": "A124220100208", "P29_003": "16011", "P29_004": "津市立千里ヶ丘幼稚園", "P29_005": "三重県津市河芸町千里ヶ丘13", "P29_006": "3", "P29_007": "0", "P29_008": "00", "P29_009": null }, "geometry": { "type": "Point", "coordinates": [ 136.549249509072979, 34.804873983526456 ] } },
{ "type": "Feature", "properties": { "P29_001": "24201", "P29_002": "A124220100217", "P29_003": "16011", "P29_004": "津市立明幼稚園", "P29_005": "三重県津市芸濃町林325", "P29_006": "3", "P29_007": "0", "P29_008": "00", "P29_009": null }, "geometry": { "type": "Point", "coordinates": [ 136.421464542246866, 34.827708354583962 ] } },
{ "type": "Feature", "properties": { "P29_001": "24201", "P29_002": "A124220100226", "P29_003": "16011", "P29_004": "津市立安濃幼稚園", "P29_005": "三重県津市安濃町内多476", "P29_006": "3", "P29_007": "0", "P29_008": "00", "P29_009": null }, "geometry": { "type": "Point", "coordinates": [ 136.459923617806396, 34.75912015383846 ] } },
{ "type": "Feature", "properties": { "P29_001": "24201", "P29_002": "A124220100235", "P29_003": "16011", "P29_004": "津市立明合幼稚園", "P29_005": "三重県津市安濃町大塚253-2", "P29_006": "3", "P29_007": "0", "P29_008": "00", "P29_009": null }, "geometry": { "type": "Point", "coordinates": [ 136.436320928886005, 34.77725146760104 ] } },
{ "type": "Feature", "properties": { "P29_001": "24201", "P29_002": "A124220100244", "P29_003": "16011", "P29_004": "津市立村主幼稚園", "P29_005": "三重県津市安濃町連部91-5", "P29_006": "3", "P29_007": "0", "P29_008": "00", "P29_009": null }, "geometry": { "type": "Point", "coordinates": [ 136.451131605608253, 34.749358923329027 ] } },
{ "type": "Feature", "properties": { "P29_001": "24201", "P29_002": "A124220100253", "P29_003": "16011", "P29_004": "津市立みさと幼稚園", "P29_005": "三重県津市美里町家所2054", "P29_006": "3", "P29_007": "0", "P29_008": "00", "P29_009": null }, "geometry": { "type": "Point", "coordinates": [ 136.409698605040745, 34.734151311367285 ] } },
{ "type": "Feature", "properties": { "P29_001": "24201", "P29_002": "A124220100262", "P29_003": "16011", "P29_004": "津市立川合幼稚園", "P29_005": "三重県津市一志町八太1164-1", "P29_006": "3", "P29_007": "0", "P29_008": "00", "P29_009": null }, "geometry": { "type": "Point", "coordinates": [ 136.447576438529268, 34.652435999441771 ] } },
{ "type": "Feature", "properties": { "P29_001": "24202", "P29_002": "A124220200010", "P29_003": "16011", "P29_004": "四日市市立四日市幼稚園", "P29_005": "三重県四日市市元町10-4", "P29_006": "3", "P29_007": "0", "P29_008": "00", "P29_009": null }, "geometry": { "type": "Point", "coordinates": [ 136.620271929664199, 34.971383154439437 ] } },
{ "type": "Feature", "properties": { "P29_001": "24202", "P29_002": "A124220200029", "P29_003": "16011", "P29_004": "四日市市立羽津幼稚園", "P29_005": "三重県四日市市大宮西町19-22", "P29_006": "3", "P29_007": "0", "P29_008": "00", "P29_009": null }, "geometry": { "type": "Point", "coordinates": [ 136.630975250796183, 34.993721996800922 ] } },
{ "type": "Feature", "properties": { "P29_001": "24202", "P29_002": "A124220200038", "P29_003": "16011", "P29_004": "四日市市立海蔵幼稚園", "P29_005": "三重県四日市市大字東阿倉川580", "P29_006": "3", "P29_007": "0", "P29_008": "00", "P29_009": null }, "geometry": { "type": "Point", "coordinates": [ 136.620422263030719, 34.98305023217781 ] } },
{ "type": "Feature", "properties": { "P29_001": "24202", "P29_002": "A124220200047", "P29_003": "16011", "P29_004": "四日市市立富洲原幼稚園", "P29_005": "三重県四日市市富州原町31-14", "P29_006": "3", "P29_007": "0", "P29_008": "00", "P29_009": null }, "geometry": { "type": "Point", "coordinates": [ 136.66085310119206, 35.011097361911574 ] } },
{ "type": "Feature", "properties": { "P29_001": "24202", "P29_002": "A124220200056", "P29_003": "16011", "P29_004": "四日市市立富田幼稚園", "P29_005": "三重県四日市市富田1-24-26", "P29_006": "3", "P29_007": "0", "P29_008": "00", "P29_009": null }, "geometry": { "type": "Point", "coordinates": [ 136.650174487943843, 35.0061789979504 ] } },
{ "type": "Feature", "properties": { "P29_001": "24202", "P29_002": "A124220200074", "P29_003": "16011", "P29_004": "四日市市立常磐中央幼稚園", "P29_005": "三重県四日市市ときわ5-4-53", "P29_006": "3", "P29_007": "0", "P29_008": "00", "P29_009": null }, "geometry": { "type": "Point", "coordinates": [ 136.600180689523484, 34.961271156776782 ] } },
{ "type": "Feature", "properties": { "P29_001": "24202", "P29_002": "A124220200083", "P29_003": "16011", "P29_004": "四日市市立内部幼稚園", "P29_005": "三重県四日市市采女町911", "P29_006": "3", "P29_007": "0", "P29_008": "00", "P29_009": null }, "geometry": { "type": "Point", "coordinates": [ 136.576470889282007, 34.926935001570648 ] } },
{ "type": "Feature", "properties": { "P29_001": "24202", "P29_002": "A124220200092", "P29_003": "16011", "P29_004": "四日市市立川島幼稚園", "P29_005": "三重県四日市市川島町1725", "P29_006": "3", "P29_007": "0", "P29_008": "00", "P29_009": null }, "geometry": { "type": "Point", "coordinates": [ 136.562277509859314, 34.974518569901946 ] } },
{ "type": "Feature", "properties": { "P29_001": "24202", "P29_002": "A124220200127", "P29_003": "16011", "P29_004": "四日市市立三重幼稚園", "P29_005": "三重県四日市市東坂部町110-1", "P29_006": "3", "P29_007": "0", "P29_008": "00", "P29_009": null }, "geometry": { "type": "Point", "coordinates": [ 136.597802031376347, 34.993561786437624 ] } },
{ "type": "Feature", "properties": { "P29_001": "24202", "P29_002": "A124220200136", "P29_003": "16011", "P29_004": "四日市市立大矢知幼稚園", "P29_005": "三重県四日市市大矢知町3255", "P29_006": "3", "P29_007": "0", "P29_008": "00", "P29_009": null }, "geometry": { "type": "Point", "coordinates": [ 136.632584162105871, 35.021956229037457 ] } },
{ "type": "Feature", "properties": { "P29_001": "24202", "P29_002": "A124220200145", "P29_003": "16011", "P29_004": "四日市市立八郷中央幼稚園", "P29_005": "三重県四日市市千代田町265-1", "P29_006": "3", "P29_007": "0", "P29_008": "00", "P29_009": null }, "geometry": { "type": "Point", "coordinates": [ 136.62543683752105, 35.029396690083033 ] } },
{ "type": "Feature", "properties": { "P29_001": "24202", "P29_002": "A124220200154", "P29_003": "16011", "P29_004": "四日市市立下野幼稚園", "P29_005": "三重県四日市市朝明町464", "P29_006": "3", "P29_007": "0", "P29_008": "00", "P29_009": null }, "geometry": { "type": "Point", "coordinates": [ 136.589546265282507, 35.040071913964375 ] } },
{ "type": "Feature", "properties": { "P29_001": "24202", "P29_002": "A124220200163", "P29_003": "16011", "P29_004": "四日市市立泊山幼稚園", "P29_005": "三重県四日市市前田町1-19", "P29_006": "3", "P29_007": "0", "P29_008": "00", "P29_009": null }, "geometry": { "type": "Point", "coordinates": [ 136.596529004878192, 34.93918900359305 ] } },
{ "type": "Feature", "properties": { "P29_001": "24202", "P29_002": "A124220200172", "P29_003": "16011", "P29_004": "四日市市立三重西幼稚園", "P29_005": "三重県四日市市三重3-130", "P29_006": "3", "P29_007": "0", "P29_008": "00", "P29_009": null }, "geometry": { "type": "Point", "coordinates": [ 136.587405646413913, 34.990193233878422 ] } },
{ "type": "Feature", "properties": { "P29_001": "24202", "P29_002": "A124220200181", "P29_003": "16011", "P29_004": "四日市市立笹川中央幼稚園", "P29_005": "三重県四日市市笹川3-157", "P29_006": "3", "P29_007": "0", "P29_008": "00", "P29_009": null }, "geometry": { "type": "Point", "coordinates": [ 136.571422294984615, 34.950428458879017 ] } },
{ "type": "Feature", "properties": { "P29_001": "24203", "P29_002": "A124220300082", "P29_003": "16011", "P29_004": "伊勢市立小俣幼稚園", "P29_005": "三重県伊勢市小俣町本町1", "P29_006": "3", "P29_007": "0", "P29_008": "00", "P29_009": null }, "geometry": { "type": "Point", "coordinates": [ 136.671529099094982, 34.507104521112929 ] } },
{ "type": "Feature", "properties": { "P29_001": "24203", "P29_002": "A124220300091", "P29_003": "16011", "P29_004": "伊勢市立明野幼稚園", "P29_005": "三重県伊勢市小俣町明野1481", "P29_006": "3", "P29_007": "0", "P29_008": "00", "P29_009": null }, "geometry": { "type": "Point", "coordinates": [ 136.665594092483587, 34.525331432149216 ] } },
{ "type": "Feature", "properties": { "P29_001": "24204", "P29_002": "A124220400018", "P29_003": "16011", "P29_004": "松阪市立伊勢寺幼稚園", "P29_005": "三重県松阪市伊勢寺町304", "P29_006": "3", "P29_007": "0", "P29_008": "00", "P29_009": null }, "geometry": { "type": "Point", "coordinates": [ 136.482618345944928, 34.572395316671347 ] } },
{ "type": "Feature", "properties": { "P29_001": "24204", "P29_002": "A124220400027", "P29_003": "16011", "P29_004": "松阪市立阿坂幼稚園", "P29_005": "三重県松阪市小阿坂町3325", "P29_006": "3", "P29_007": "0", "P29_008": "00", "P29_009": null }, "geometry": { "type": "Point", "coordinates": [ 136.47290842563919, 34.59050753935751 ] } },
{ "type": "Feature", "properties": { "P29_001": "24204", "P29_002": "A124220400036", "P29_003": "16011", "P29_004": "松阪市立西黒部幼稚園", "P29_005": "三重県松阪市西黒部町713-1", "P29_006": "3", "P29_007": "0", "P29_008": "00", "P29_009": null }, "geometry": { "type": "Point", "coordinates": [ 136.574117980976723, 34.585750310504579 ] } },
{ "type": "Feature", "properties": { "P29_001": "24204", "P29_002": "A124220400045", "P29_003": "16011", "P29_004": "松阪市立機殿幼稚園", "P29_005": "三重県松阪市六根町19-3", "P29_006": "3", "P29_007": "0", "P29_008": "00", "P29_009": null }, "geometry": { "type": "Point", "coordinates": [ 136.600277001530088, 34.569267996443727 ] } },
{ "type": "Feature", "properties": { "P29_001": "24204", "P29_002": "A124220400054", "P29_003": "16011", "P29_004": "松阪市立朝見幼稚園", "P29_005": "三重県松阪市大宮田町195", "P29_006": "3", "P29_007": "0", "P29_008": "00", "P29_009": null }, "geometry": { "type": "Point", "coordinates": [ 136.574820801390246, 34.570945370371447 ] } },
{ "type": "Feature", "properties": { "P29_001": "24204", "P29_002": "A124220400063", "P29_003": "16011", "P29_004": "松阪市立てい水幼稚園", "P29_005": "三重県松阪市豊原町1120", "P29_006": "3", "P29_007": "0", "P29_008": "00", "P29_009": null }, "geometry": { "type": "Point", "coordinates": [ 136.582536590446324, 34.548675449634828 ] } },
{ "type": "Feature", "properties": { "P29_001": "24204", "P29_002": "A124220400072", "P29_003": "16011", "P29_004": "松阪市立漕代幼稚園", "P29_005": "三重県松阪市目田町207", "P29_006": "3", "P29_007": "0", "P29_008": "00", "P29_009": null }, "geometry": { "type": "Point", "coordinates": [ 136.588679406407635, 34.538767230510118 ] } },
{ "type": "Feature", "properties": { "P29_001": "24204", "P29_002": "A124220400081", "P29_003": "16011", "P29_004": "松阪市立松尾幼稚園", "P29_005": "三重県松阪市丹生寺633", "P29_006": "3", "P29_007": "0", "P29_008": "00", "P29_009": null }, "geometry": { "type": "Point", "coordinates": [ 136.493582606621004, 34.550221157813887 ] } },
{ "type": "Feature", "properties": { "P29_001": "24204", "P29_002": "A124220400090", "P29_003": "16011", "P29_004": "松阪市立花岡幼稚園", "P29_005": "三重県松阪市大黒田町635-1", "P29_006": "3", "P29_007": "0", "P29_008": "00", "P29_009": null }, "geometry": { "type": "Point", "coordinates": [ 136.521998267132005, 34.561671998920666 ] } },
{ "type": "Feature", "properties": { "P29_001": "24204", "P29_002": "A124220400107", "P29_003": "16011", "P29_004": "松阪市立山室幼稚園", "P29_005": "三重県松阪市山室町1807", "P29_006": "3", "P29_007": "0", "P29_008": "00", "P29_009": null }, "geometry": { "type": "Point", "coordinates": [ 136.513205313581039, 34.535911886729018 ] } },
{ "type": "Feature", "properties": { "P29_001": "24204", "P29_002": "A124220400116", "P29_003": "16011", "P29_004": "松阪市立射和幼稚園", "P29_005": "三重県松阪市庄町737", "P29_006": "3", "P29_007": "0", "P29_008": "00", "P29_009": null }, "geometry": { "type": "Point", "coordinates": [ 136.503276836829997, 34.503342675070172 ] } },
{ "type": "Feature", "properties": { "P29_001": "24204", "P29_002": "A124220400125", "P29_003": "16011", "P29_004": "松阪市立大石幼稚園", "P29_005": "三重県松阪市大石町64-1", "P29_006": "3", "P29_007": "0", "P29_008": "00", "P29_009": null }, "geometry": { "type": "Point", "coordinates": [ 136.427231997180741, 34.483492996438933 ] } },
{ "type": "Feature", "properties": { "P29_001": "24204", "P29_002": "A124220400134", "P29_003": "16011", "P29_004": "松阪市立鎌田幼稚園", "P29_005": "三重県松阪市鎌田町805", "P29_006": "3", "P29_007": "0", "P29_008": "00", "P29_009": null }, "geometry": { "type": "Point", "coordinates": [ 136.534702179453632, 34.586747147780308 ] } },
{ "type": "Feature", "properties": { "P29_001": "24204", "P29_002": "A124220400143", "P29_003": "16011", "P29_004": "松阪市立港幼稚園", "P29_005": "三重県松阪市荒木町16", "P29_006": "3", "P29_007": "0", "P29_008": "00", "P29_009": null }, "geometry": { "type": "Point", "coordinates": [ 136.537667047047023, 34.593239888895511 ] } },
{ "type": "Feature", "properties": { "P29_001": "24204", "P29_002": "A124220400152", "P29_003": "16011", "P29_004": "松阪市立松江幼稚園", "P29_005": "三重県松阪市川井町366-1", "P29_006": "3", "P29_007": "0", "P29_008": "00", "P29_009": null }, "geometry": { "type": "Point", "coordinates": [ 136.516001023937065, 34.581383528267061 ] } },
{ "type": "Feature", "properties": { "P29_001": "24204", "P29_002": "A124220400161", "P29_003": "16011", "P29_004": "松阪市立豊地幼稚園", "P29_005": "三重県松阪市嬉野下之庄町327-1", "P29_006": "3", "P29_007": "0", "P29_008": "00", "P29_009": null }, "geometry": { "type": "Point", "coordinates": [ 136.46048193385451, 34.621824001494943 ] } },
{ "type": "Feature", "properties": { "P29_001": "24204", "P29_002": "A124220400170", "P29_003": "16011", "P29_004": "松阪市立中原幼稚園", "P29_005": "三重県松阪市嬉野田村町399-2", "P29_006": "3", "P29_007": "0", "P29_008": "00", "P29_009": null }, "geometry": { "type": "Point", "coordinates": [ 136.485743004855607, 34.608846996264013 ] } },
{ "type": "Feature", "properties": { "P29_001": "24204", "P29_002": "A124220400189", "P29_003": "16011", "P29_004": "松阪市立中川こども園", "P29_005": "三重県松阪市嬉野中川町1854", "P29_006": "3", "P29_007": "0", "P29_008": "00", "P29_009": null }, "geometry": { "type": "Point", "coordinates": [ 136.471914004026331, 34.635646996275604 ] } },
{ "type": "Feature", "properties": { "P29_001": "24204", "P29_002": "A124220400198", "P29_003": "16011", "P29_004": "松阪市立豊田こども園", "P29_005": "三重県松阪市嬉野川北町1346-8", "P29_006": "3", "P29_007": "0", "P29_008": "00", "P29_009": null }, "geometry": { "type": "Point", "coordinates": [ 136.496453087442376, 34.631438608200234 ] } },
{ "type": "Feature", "properties": { "P29_001": "24205", "P29_002": "A124220500017", "P29_003": "16011", "P29_004": "桑名市立陽和幼稚園", "P29_005": "三重県桑名市吉之丸10", "P29_006": "3", "P29_007": "0", "P29_008": "00", "P29_009": null }, "geometry": { "type": "Point", "coordinates": [ 136.698234828816112, 35.062795766331789 ] } },
{ "type": "Feature", "properties": { "P29_001": "24205", "P29_002": "A124220500026", "P29_003": "16011", "P29_004": "桑名市立光風幼稚園", "P29_005": "三重県桑名市大字東方302-5", "P29_006": "3", "P29_007": "0", "P29_008": "00", "P29_009": null }, "geometry": { "type": "Point", "coordinates": [ 136.684255418255788, 35.070720079998296 ] } },
{ "type": "Feature", "properties": { "P29_001": "24205", "P29_002": "A124220500035", "P29_003": "16011", "P29_004": "桑名市立成徳南幼稚園", "P29_005": "三重県桑名市大字東方2157", "P29_006": "3", "P29_007": "0", "P29_008": "00", "P29_009": null }, "geometry": { "type": "Point", "coordinates": [ 136.676934001647567, 35.07226700119525 ] } },
{ "type": "Feature", "properties": { "P29_001": "24205", "P29_002": "A124220500044", "P29_003": "16011", "P29_004": "桑名市立明正幼稚園", "P29_005": "三重県桑名市蓮花寺129-2", "P29_006": "3", "P29_007": "0", "P29_008": "00", "P29_009": null }, "geometry": { "type": "Point", "coordinates": [ 136.653915715064983, 35.059432148807979 ] } },
{ "type": "Feature", "properties": { "P29_001": "24205", "P29_002": "A124220500053", "P29_003": "16011", "P29_004": "桑名市立正和北幼稚園", "P29_005": "三重県桑名市芳ヶ崎1232-2", "P29_006": "3", "P29_007": "0", "P29_008": "00", "P29_009": null }, "geometry": { "type": "Point", "coordinates": [ 136.618280227961179, 35.074348559802033 ] } },
{ "type": "Feature", "properties": { "P29_001": "24205", "P29_002": "A124220500062", "P29_003": "16011", "P29_004": "桑名市立成徳北幼稚園", "P29_005": "三重県桑名市下深谷部3683-1", "P29_006": "3", "P29_007": "0", "P29_008": "00", "P29_009": null }, "geometry": { "type": "Point", "coordinates": [ 136.658298618208391, 35.100506165275704 ] } },
{ "type": "Feature", "properties": { "P29_001": "24205", "P29_002": "A124220500071", "P29_003": "16011", "P29_004": "桑名市立正和南幼稚園", "P29_005": "三重県桑名市志知3846-1", "P29_006": "3", "P29_007": "0", "P29_008": "00", "P29_009": null }, "geometry": { "type": "Point", "coordinates": [ 136.615339712012769, 35.051690308894322 ] } },
{ "type": "Feature", "properties": { "P29_001": "24205", "P29_002": "A124220500080", "P29_003": "16011", "P29_004": "桑名市立光陵幼稚園", "P29_005": "三重県桑名市大山田6-8", "P29_006": "3", "P29_007": "0", "P29_008": "00", "P29_009": null }, "geometry": { "type": "Point", "coordinates": [ 136.636955443402883, 35.082821850689456 ] } },
{ "type": "Feature", "properties": { "P29_001": "24205", "P29_002": "A124220500099", "P29_003": "16011", "P29_004": "桑名市立陵成幼稚園", "P29_005": "三重県桑名市藤が丘6-109-2", "P29_006": "3", "P29_007": "0", "P29_008": "00", "P29_009": null }, "geometry": { "type": "Point", "coordinates": [ 136.649066093234808, 35.074994072639626 ] } },
{ "type": "Feature", "properties": { "P29_001": "24205", "P29_002": "A124220500106", "P29_003": "16011", "P29_004": "桑名市立多度幼稚園", "P29_005": "三重県桑名市多度町北猪飼299-1", "P29_006": "3", "P29_007": "0", "P29_008": "00", "P29_009": null }, "geometry": { "type": "Point", "coordinates": [ 136.622335633306193, 35.128460172727458 ] } },
{ "type": "Feature", "properties": { "P29_001": "24205", "P29_002": "A124220500115", "P29_003": "16011", "P29_004": "桑名市立長島幼稚園", "P29_005": "三重県桑名市長島町源部外面215", "P29_006": "3", "P29_007": "0", "P29_008": "00", "P29_009": null }, "geometry": { "type": "Point", "coordinates": [ 136.70641939696614, 35.084075993913807 ] } },
{ "type": "Feature", "properties": { "P29_001": "24207", "P29_002": "A124220700015", "P29_003": "16011", "P29_004": "鈴鹿市立国府幼稚園", "P29_005": "三重県鈴鹿市国府町3519-1", "P29_006": "3", "P29_007": "0", "P29_008": "00", "P29_009": null }, "geometry": { "type": "Point", "coordinates": [ 136.510049278977618, 34.854453176028827 ] } },
{ "type": "Feature", "properties": { "P29_001": "24207", "P29_002": "A124220700024", "P29_003": "16011", "P29_004": "鈴鹿市立加佐登幼稚園", "P29_005": "三重県鈴鹿市高塚町1087-1", "P29_006": "3", "P29_007": "0", "P29_008": "00", "P29_009": null }, "geometry": { "type": "Point", "coordinates": [ 136.514087510751779, 34.898545415961429 ] } },
{ "type": "Feature", "properties": { "P29_001": "24207", "P29_002": "A124220700033", "P29_003": "16011", "P29_004": "鈴鹿市立白子幼稚園", "P29_005": "三重県鈴鹿市白子1-12-12", "P29_006": "3", "P29_007": "0", "P29_008": "00", "P29_009": null }, "geometry": { "type": "Point", "coordinates": [ 136.587797571321175, 34.830677230294974 ] } },
{ "type": "Feature", "properties": { "P29_001": "24207", "P29_002": "A124220700042", "P29_003": "16011", "P29_004": "鈴鹿市立稲生幼稚園", "P29_005": "三重県鈴鹿市稲生3-10-1", "P29_006": "3", "P29_007": "0", "P29_008": "00", "P29_009": null }, "geometry": { "type": "Point", "coordinates": [ 136.56028577400383, 34.838736267593156 ] } },
{ "type": "Feature", "properties": { "P29_001": "24207", "P29_002": "A124220700051", "P29_003": "16011", "P29_004": "鈴鹿市立飯野幼稚園", "P29_005": "三重県鈴鹿市三日市南2-1-7", "P29_006": "3", "P29_007": "0", "P29_008": "00", "P29_009": null }, "geometry": { "type": "Point", "coordinates": [ 136.552204711243292, 34.863685079613802 ] } },
{ "type": "Feature", "properties": { "P29_001": "24207", "P29_002": "A124220700079", "P29_003": "16011", "P29_004": "鈴鹿市立玉垣幼稚園", "P29_005": "三重県鈴鹿市北玉垣町734", "P29_006": "3", "P29_007": "0", "P29_008": "00", "P29_009": null }, "geometry": { "type": "Point", "coordinates": [ 136.590234561420004, 34.865933997116208 ] } },
{ "type": "Feature", "properties": { "P29_001": "24207", "P29_002": "A124220700088", "P29_003": "16011", "P29_004": "鈴鹿市立神戸幼稚園", "P29_005": "三重県鈴鹿市神戸7-4-12", "P29_006": "3", "P29_007": "0", "P29_008": "00", "P29_009": null }, "geometry": { "type": "Point", "coordinates": [ 136.578387754595582, 34.884475538250356 ] } },
{ "type": "Feature", "properties": { "P29_001": "24207", "P29_002": "A124220700097", "P29_003": "16011", "P29_004": "鈴鹿市立栄幼稚園", "P29_005": "三重県鈴鹿市五祝町1068", "P29_006": "3", "P29_007": "0", "P29_008": "00", "P29_009": null }, "geometry": { "type": "Point", "coordinates": [ 136.55901026522875, 34.817661770654404 ] } },
{ "type": "Feature", "properties": { "P29_001": "24207", "P29_002": "A124220700113", "P29_003": "16011", "P29_004": "鈴鹿市立旭が丘幼稚園", "P29_005": "三重県鈴鹿市東旭が丘5-3-33", "P29_006": "3", "P29_007": "0", "P29_008": "00", "P29_009": null }, "geometry": { "type": "Point", "coordinates": [ 136.581081625556976, 34.847696997052054 ] } },
{ "type": "Feature", "properties": { "P29_001": "24209", "P29_002": "A124220900013", "P29_003": "16011", "P29_004": "尾鷲市立尾鷲幼稚園", "P29_005": "三重県尾鷲市中村町4-11", "P29_006": "3", "P29_007": "0", "P29_008": "00", "P29_009": null }, "geometry": { "type": "Point", "coordinates": [ 136.195021042124466, 34.073023001371467 ] } },
{ "type": "Feature", "properties": { "P29_001": "24210", "P29_002": "A124221000010", "P29_003": "16011", "P29_004": "亀山市立亀山幼稚園", "P29_005": "三重県亀山市江ヶ室1-2-10", "P29_006": "3", "P29_007": "0", "P29_008": "00", "P29_009": null }, "geometry": { "type": "Point", "coordinates": [ 136.452641005742294, 34.857734608993837 ] } },
{ "type": "Feature", "properties": { "P29_001": "24210", "P29_002": "A124221000029", "P29_003": "16011", "P29_004": "亀山市立亀山東幼稚園", "P29_005": "三重県亀山市本町1-9-17", "P29_006": "3", "P29_007": "0", "P29_008": "00", "P29_009": null }, "geometry": { "type": "Point", "coordinates": [ 136.462199643035945, 34.851570653505398 ] } },
{ "type": "Feature", "properties": { "P29_001": "24210", "P29_002": "A124221000038", "P29_003": "16011", "P29_004": "亀山市立井田川幼稚園", "P29_005": "三重県亀山市みどり町53-1", "P29_006": "3", "P29_007": "0", "P29_008": "00", "P29_009": null }, "geometry": { "type": "Point", "coordinates": [ 136.482787776415705, 34.870692998889325 ] } },
{ "type": "Feature", "properties": { "P29_001": "24210", "P29_002": "A124221000047", "P29_003": "16011", "P29_004": "亀山市立みずほ台幼稚園", "P29_005": "三重県亀山市みずほ台14-295", "P29_006": "3", "P29_007": "0", "P29_008": "00", "P29_009": null }, "geometry": { "type": "Point", "coordinates": [ 136.477522051262497, 34.871546922302144 ] } },
{ "type": "Feature", "properties": { "P29_001": "24211", "P29_002": "A124221100019", "P29_003": "16011", "P29_004": "鳥羽市立かもめ幼稚園", "P29_005": "三重県鳥羽市大明西町4-12", "P29_006": "3", "P29_007": "0", "P29_008": "00", "P29_009": null }, "geometry": { "type": "Point", "coordinates": [ 136.846910000149308, 34.468825462296856 ] } },
{ "type": "Feature", "properties": { "P29_001": "24215", "P29_002": "A124221500015", "P29_003": "16011", "P29_004": "志摩市立浜島幼稚園", "P29_005": "三重県志摩市浜島町浜島709", "P29_006": "3", "P29_007": "0", "P29_008": "00", "P29_009": null }, "geometry": { "type": "Point", "coordinates": [ 136.757198928291245, 34.29589838975123 ] } },
{ "type": "Feature", "properties": { "P29_001": "24215", "P29_002": "A124221500024", "P29_003": "16011", "P29_004": "志摩市立大王幼稚園", "P29_005": "三重県志摩市大王町波切3243-1", "P29_006": "3", "P29_007": "0", "P29_008": "00", "P29_009": null }, "geometry": { "type": "Point", "coordinates": [ 136.884720517285956, 34.282816771015604 ] } },
{ "type": "Feature", "properties": { "P29_001": "24215", "P29_002": "A124221500033", "P29_003": "16011", "P29_004": "志摩市立志摩幼稚園", "P29_005": "三重県志摩市志摩町和具660", "P29_006": "3", "P29_007": "0", "P29_008": "00", "P29_009": null }, "geometry": { "type": "Point", "coordinates": [ 136.815052471666661, 34.258833164616391 ] } },
{ "type": "Feature", "properties": { "P29_001": "24215", "P29_002": "A124221500051", "P29_003": "16011", "P29_004": "志摩市立鵜方幼稚園", "P29_005": "三重県志摩市阿児町鵜方1547", "P29_006": "3", "P29_007": "0", "P29_008": "00", "P29_009": null }, "geometry": { "type": "Point", "coordinates": [ 136.823696587851998, 34.332782249351268 ] } },
{ "type": "Feature", "properties": { "P29_001": "24215", "P29_002": "A124221500079", "P29_003": "16011", "P29_004": "志摩市立磯部幼稚園", "P29_005": "三重県志摩市磯部町恵利原1275", "P29_006": "3", "P29_007": "0", "P29_008": "00", "P29_009": null }, "geometry": { "type": "Point", "coordinates": [ 136.801650614092466, 34.373900207183269 ] } },
{ "type": "Feature", "properties": { "P29_001": "24216", "P29_002": "A124221600014", "P29_003": "16011", "P29_004": "伊賀市立桃青の丘幼稚園", "P29_005": "三重県伊賀市上野丸之内177-1", "P29_006": "3", "P29_007": "0", "P29_008": "00", "P29_009": null }, "geometry": { "type": "Point", "coordinates": [ 136.13167149872092, 34.77083916740348 ] } },
{ "type": "Feature", "properties": { "P29_001": "24324", "P29_002": "A124232400013", "P29_003": "16011", "P29_004": "東員町立三和幼稚園", "P29_005": "三重県員弁郡東員町長深690", "P29_006": "3", "P29_007": "0", "P29_008": "00", "P29_009": null }, "geometry": { "type": "Point", "coordinates": [ 136.578032824557823, 35.064014455306008 ] } },
{ "type": "Feature", "properties": { "P29_001": "24324", "P29_002": "A124232400022", "P29_003": "16011", "P29_004": "東員町立稲部幼稚園", "P29_005": "三重県員弁郡東員町大字大木1075", "P29_006": "3", "P29_007": "0", "P29_008": "00", "P29_009": null }, "geometry": { "type": "Point", "coordinates": [ 136.575370093997492, 35.082584312197483 ] } },
{ "type": "Feature", "properties": { "P29_001": "24324", "P29_002": "A124232400031", "P29_003": "16011", "P29_004": "東員町立神田幼稚園", "P29_005": "三重県員弁郡東員町六杷野新田111", "P29_006": "3", "P29_007": "0", "P29_008": "00", "P29_009": null }, "geometry": { "type": "Point", "coordinates": [ 136.59236834169792, 35.079174377819342 ] } },
{ "type": "Feature", "properties": { "P29_001": "24324", "P29_002": "A124232400040", "P29_003": "16011", "P29_004": "東員町立笹尾西幼稚園", "P29_005": "三重県員弁郡東員町笹尾西2-31-1", "P29_006": "3", "P29_007": "0", "P29_008": "00", "P29_009": null }, "geometry": { "type": "Point", "coordinates": [ 136.594984927008142, 35.100588847855278 ] } },
{ "type": "Feature", "properties": { "P29_001": "24324", "P29_002": "A124232400059", "P29_003": "16011", "P29_004": "東員町立笹尾東幼稚園", "P29_005": "三重県員弁郡東員町笹尾東4-28", "P29_006": "3", "P29_007": "0", "P29_008": "00", "P29_009": null }, "geometry": { "type": "Point", "coordinates": [ 136.602556871609806, 35.101657225522011 ] } },
{ "type": "Feature", "properties": { "P29_001": "24324", "P29_002": "A124232400068", "P29_003": "16011", "P29_004": "東員町立城山幼稚園", "P29_005": "三重県員弁郡東員町城山1-44", "P29_006": "3", "P29_007": "0", "P29_008": "00", "P29_009": null }, "geometry": { "type": "Point", "coordinates": [ 136.604998380310121, 35.091841466429045 ] } },
{ "type": "Feature", "properties": { "P29_001": "24341", "P29_002": "A124234100012", "P29_003": "16011", "P29_004": "菰野町立菰野幼稚園", "P29_005": "三重県三重郡菰野町菰野1485", "P29_006": "3", "P29_007": "0", "P29_008": "00", "P29_009": null }, "geometry": { "type": "Point", "coordinates": [ 136.510197643306782, 35.012688304300653 ] } },
{ "type": "Feature", "properties": { "P29_001": "24341", "P29_002": "A124234100021", "P29_003": "16011", "P29_004": "菰野町立千種幼稚園", "P29_005": "三重県三重郡菰野町大字音羽2240", "P29_006": "3", "P29_007": "0", "P29_008": "00", "P29_009": null }, "geometry": { "type": "Point", "coordinates": [ 136.503678126962569, 35.028310383135889 ] } },
{ "type": "Feature", "properties": { "P29_001": "24341", "P29_002": "A124234100030", "P29_003": "16011", "P29_004": "菰野町立朝上幼稚園", "P29_005": "三重県三重郡菰野町田光3306-2", "P29_006": "3", "P29_007": "0", "P29_008": "00", "P29_009": null }, "geometry": { "type": "Point", "coordinates": [ 136.51173423713081, 35.069877074419757 ] } },
{ "type": "Feature", "properties": { "P29_001": "24341", "P29_002": "A124234100049", "P29_003": "16011", "P29_004": "菰野町立鵜川原幼稚園", "P29_005": "三重県三重郡菰野町大字大強原829-1", "P29_006": "3", "P29_007": "0", "P29_008": "00", "P29_009": null }, "geometry": { "type": "Point", "coordinates": [ 136.536984440987112, 35.02648653829992 ] } },
{ "type": "Feature", "properties": { "P29_001": "24341", "P29_002": "A124234100058", "P29_003": "16011", "P29_004": "菰野町立竹永幼稚園", "P29_005": "三重県三重郡菰野町大字永井59", "P29_006": "3", "P29_007": "0", "P29_008": "00", "P29_009": null }, "geometry": { "type": "Point", "coordinates": [ 136.52474364531048, 35.051746610507927 ] } },
{ "type": "Feature", "properties": { "P29_001": "24343", "P29_002": "A124234300010", "P29_003": "16011", "P29_004": "朝日町立朝日幼稚園", "P29_005": "三重県三重郡朝日町小向2068-1", "P29_006": "3", "P29_007": "0", "P29_008": "00", "P29_009": null }, "geometry": { "type": "Point", "coordinates": [ 136.66775457616987, 35.034541302169806 ] } },
{ "type": "Feature", "properties": { "P29_001": "24344", "P29_002": "A124234400019", "P29_003": "16011", "P29_004": "川越町立川越幼稚園", "P29_005": "三重県三重郡川越町豊田一色384-1", "P29_006": "3", "P29_007": "0", "P29_008": "00", "P29_009": null }, "geometry": { "type": "Point", "coordinates": [ 136.673486598856641, 35.025527927090899 ] } },
{ "type": "Feature", "properties": { "P29_001": "24442", "P29_002": "A124244200010", "P29_003": "16011", "P29_004": "明和町立斎宮幼稚園", "P29_005": "三重県多気郡明和町大字竹川160", "P29_006": "3", "P29_007": "0", "P29_008": "00", "P29_009": null }, "geometry": { "type": "Point", "coordinates": [ 136.610536246056284, 34.533442231957231 ] } },
{ "type": "Feature", "properties": { "P29_001": "24543", "P29_002": "A124254300018", "P29_003": "16011", "P29_004": "紀北町立紀伊長島幼稚園", "P29_005": "三重県北牟婁郡紀北町長島286-3", "P29_006": "3", "P29_007": "0", "P29_008": "00", "P29_009": null }, "geometry": { "type": "Point", "coordinates": [ 136.32145951435956, 34.20956053735047 ] } },
{ "type": "Feature", "properties": { "P29_001": "24562", "P29_002": "A124256200014", "P29_003": "16011", "P29_004": "紀宝町立うどの幼稚園", "P29_005": "三重県南牟婁郡紀宝町鵜殿1232-1", "P29_006": "3", "P29_007": "0", "P29_008": "00", "P29_009": null }, "geometry": { "type": "Point", "coordinates": [ 136.010929627462275, 33.741661240331176 ] } },
{ "type": "Feature", "properties": { "P29_001": "24201", "P29_002": "A124320105014", "P29_003": "16011", "P29_004": "聖ヤコブ幼稚園", "P29_005": "三重県津市丸之内34-16", "P29_006": "4", "P29_007": "0", "P29_008": "00", "P29_009": null }, "geometry": { "type": "Point", "coordinates": [ 136.507137286542701, 34.719114076526786 ] } },
{ "type": "Feature", "properties": { "P29_001": "24201", "P29_002": "A124320105023", "P29_003": "16011", "P29_004": "高田幼稚園", "P29_005": "三重県津市一身田町746", "P29_006": "4", "P29_007": "0", "P29_008": "00", "P29_009": null }, "geometry": { "type": "Point", "coordinates": [ 136.505083542776561, 34.760842048043017 ] } },
{ "type": "Feature", "properties": { "P29_001": "24201", "P29_002": "A124320105032", "P29_003": "16011", "P29_004": "大川幼稚園", "P29_005": "三重県津市大谷町240", "P29_006": "4", "P29_007": "0", "P29_008": "00", "P29_009": null }, "geometry": { "type": "Point", "coordinates": [ 136.509826781530592, 34.733955610841612 ] } },
{ "type": "Feature", "properties": { "P29_001": "24201", "P29_002": "A124320105041", "P29_003": "16011", "P29_004": "ふたば幼稚園", "P29_005": "三重県津市白塚町3647-1", "P29_006": "4", "P29_007": "0", "P29_008": "00", "P29_009": null }, "geometry": { "type": "Point", "coordinates": [ 136.527958561869127, 34.76326476903305 ] } },
{ "type": "Feature", "properties": { "P29_001": "24201", "P29_002": "A124320105050", "P29_003": "16011", "P29_004": "のべの幼稚園", "P29_005": "三重県津市久居二ノ町1855", "P29_006": "4", "P29_007": "0", "P29_008": "00", "P29_009": null }, "geometry": { "type": "Point", "coordinates": [ 136.473106131460185, 34.676168466851408 ] } },
{ "type": "Feature", "properties": { "P29_001": "24201", "P29_002": "A124320105069", "P29_003": "16011", "P29_004": "津西幼稚園", "P29_005": "三重県津市河辺町字長2273-8", "P29_006": "4", "P29_007": "0", "P29_008": "00", "P29_009": null }, "geometry": { "type": "Point", "coordinates": [ 136.489507944297827, 34.748429529429096 ] } },
{ "type": "Feature", "properties": { "P29_001": "24201", "P29_002": "A124320105078", "P29_003": "16011", "P29_004": "日生学園附属幼稚園", "P29_005": "三重県津市白山町八対野2739", "P29_006": "4", "P29_007": "0", "P29_008": "00", "P29_009": null }, "geometry": { "type": "Point", "coordinates": [ 136.305054873024716, 34.654264036681212 ] } },
{ "type": "Feature", "properties": { "P29_001": "24202", "P29_002": "A124320205013", "P29_003": "16011", "P29_004": "暁幼稚園", "P29_005": "三重県四日市市天カ須賀5-2-5", "P29_006": "4", "P29_007": "0", "P29_008": "00", "P29_009": null }, "geometry": { "type": "Point", "coordinates": [ 136.667141309523913, 35.013449802534375 ] } },
{ "type": "Feature", "properties": { "P29_001": "24202", "P29_002": "A124320205022", "P29_003": "16011", "P29_004": "富田文化幼稚園", "P29_005": "三重県四日市市茂福905-4", "P29_006": "4", "P29_007": "0", "P29_008": "00", "P29_009": null }, "geometry": { "type": "Point", "coordinates": [ 136.64517345982469, 35.004420156976494 ] } },
{ "type": "Feature", "properties": { "P29_001": "24202", "P29_002": "A124320205031", "P29_003": "16011", "P29_004": "海の星カトリック幼稚園", "P29_005": "三重県四日市市十七軒町2-4", "P29_006": "4", "P29_007": "0", "P29_008": "00", "P29_009": null }, "geometry": { "type": "Point", "coordinates": [ 136.622159871437901, 34.96047776640367 ] } },
{ "type": "Feature", "properties": { "P29_001": "24202", "P29_002": "A124320205040", "P29_003": "16011", "P29_004": "あおい幼稚園", "P29_005": "三重県四日市市大矢知町2700", "P29_006": "4", "P29_007": "0", "P29_008": "00", "P29_009": null }, "geometry": { "type": "Point", "coordinates": [ 136.630933876511705, 35.016989311285897 ] } },
{ "type": "Feature", "properties": { "P29_001": "24202", "P29_002": "A124320205059", "P29_003": "16011", "P29_004": "ときわ幼稚園", "P29_005": "三重県四日市市西松本町15-10", "P29_006": "4", "P29_007": "0", "P29_008": "00", "P29_009": null }, "geometry": { "type": "Point", "coordinates": [ 136.585282788050307, 34.968844001786969 ] } },
{ "type": "Feature", "properties": { "P29_001": "24202", "P29_002": "A124320205068", "P29_003": "16011", "P29_004": "ひかり幼稚園", "P29_005": "三重県四日市市伊倉2-8-23", "P29_006": "4", "P29_007": "0", "P29_008": "00", "P29_009": null }, "geometry": { "type": "Point", "coordinates": [ 136.600553162184184, 34.974174768284207 ] } },
{ "type": "Feature", "properties": { "P29_001": "24202", "P29_002": "A124320205077", "P29_003": "16011", "P29_004": "エンゼル幼稚園", "P29_005": "三重県四日市市千代田町459", "P29_006": "4", "P29_007": "0", "P29_008": "00", "P29_009": null }, "geometry": { "type": "Point", "coordinates": [ 136.62773360296103, 35.027373481162577 ] } },
{ "type": "Feature", "properties": { "P29_001": "24202", "P29_002": "A124320205086", "P29_003": "16011", "P29_004": "まきば幼稚園", "P29_005": "三重県四日市市松本3-1-37", "P29_006": "4", "P29_007": "0", "P29_008": "00", "P29_009": null }, "geometry": { "type": "Point", "coordinates": [ 136.590163083631865, 34.970881613845691 ] } },
{ "type": "Feature", "properties": { "P29_001": "24202", "P29_002": "A124320205095", "P29_003": "16011", "P29_004": "羽津文化幼稚園", "P29_005": "三重県四日市市別名5-4-31", "P29_006": "4", "P29_007": "0", "P29_008": "00", "P29_009": null }, "geometry": { "type": "Point", "coordinates": [ 136.633590954100384, 34.996428256061662 ] } },
{ "type": "Feature", "properties": { "P29_001": "24202", "P29_002": "A124320205102", "P29_003": "16011", "P29_004": "津田第一幼稚園", "P29_005": "三重県四日市市笹川1-106-2", "P29_006": "4", "P29_007": "0", "P29_008": "00", "P29_009": null }, "geometry": { "type": "Point", "coordinates": [ 136.579433380325298, 34.951239781250493 ] } },
{ "type": "Feature", "properties": { "P29_001": "24202", "P29_002": "A124320205111", "P29_003": "16011", "P29_004": "津田第二幼稚園", "P29_005": "三重県四日市市笹川7-52", "P29_006": "4", "P29_007": "0", "P29_008": "00", "P29_009": null }, "geometry": { "type": "Point", "coordinates": [ 136.578267156899358, 34.947214615867331 ] } },
{ "type": "Feature", "properties": { "P29_001": "24202", "P29_002": "A124320205120", "P29_003": "16011", "P29_004": "桜あおい幼稚園", "P29_005": "三重県四日市市智積町6104", "P29_006": "4", "P29_007": "0", "P29_008": "00", "P29_009": null }, "geometry": { "type": "Point", "coordinates": [ 136.545554987385913, 34.99147764192103 ] } },
{ "type": "Feature", "properties": { "P29_001": "24202", "P29_002": "A124320205139", "P29_003": "16011", "P29_004": "津田三滝幼稚園", "P29_005": "三重県四日市市川島町6513", "P29_006": "4", "P29_007": "0", "P29_008": "00", "P29_009": null }, "geometry": { "type": "Point", "coordinates": [ 136.567295417222454, 34.978896307725634 ] } },
{ "type": "Feature", "properties": { "P29_001": "24202", "P29_002": "A124320205148", "P29_003": "16011", "P29_004": "めぐみの園幼稚園", "P29_005": "三重県四日市市室山町475-1", "P29_006": "4", "P29_007": "0", "P29_008": "00", "P29_009": null }, "geometry": { "type": "Point", "coordinates": [ 136.576295267124948, 34.95646584571729 ] } },
{ "type": "Feature", "properties": { "P29_001": "24203", "P29_002": "A124320305012", "P29_003": "16011", "P29_004": "常盤幼稚園", "P29_005": "三重県伊勢市岩渕1-6-32", "P29_006": "4", "P29_007": "0", "P29_008": "00", "P29_009": null }, "geometry": { "type": "Point", "coordinates": [ 136.709085843348674, 34.488215422795413 ] } },
{ "type": "Feature", "properties": { "P29_001": "24203", "P29_002": "A124320305021", "P29_003": "16011", "P29_004": "神宮五十鈴川幼稚園", "P29_005": "三重県伊勢市宇治中之切町38-2", "P29_006": "4", "P29_007": "0", "P29_008": "00", "P29_009": null }, "geometry": { "type": "Point", "coordinates": [ 136.721953952942272, 34.463310853759566 ] } },
{ "type": "Feature", "properties": { "P29_001": "24203", "P29_002": "A124320305030", "P29_003": "16011", "P29_004": "神宮高倉山幼稚園", "P29_005": "三重県伊勢市八日市場町17-20", "P29_006": "4", "P29_007": "0", "P29_008": "00", "P29_009": null }, "geometry": { "type": "Point", "coordinates": [ 136.701496961077567, 34.48967569933442 ] } },
{ "type": "Feature", "properties": { "P29_001": "24203", "P29_002": "A124320305049", "P29_003": "16011", "P29_004": "まるこ幼稚園", "P29_005": "三重県伊勢市一之木1-8-3", "P29_006": "4", "P29_007": "0", "P29_008": "00", "P29_009": null }, "geometry": { "type": "Point", "coordinates": [ 136.703606418906304, 34.494314767554243 ] } },
{ "type": "Feature", "properties": { "P29_001": "24203", "P29_002": "A124320305058", "P29_003": "16011", "P29_004": "双康幼稚園", "P29_005": "三重県伊勢市黒瀬町562-13", "P29_006": "4", "P29_007": "0", "P29_008": "00", "P29_009": null }, "geometry": { "type": "Point", "coordinates": [ 136.73473778087029, 34.492594406945649 ] } },
{ "type": "Feature", "properties": { "P29_001": "24203", "P29_002": "A124320305067", "P29_003": "16011", "P29_004": "和順幼稚園", "P29_005": "三重県伊勢市小俣町元町214-3", "P29_006": "4", "P29_007": "0", "P29_008": "00", "P29_009": null }, "geometry": { "type": "Point", "coordinates": [ 136.680019997354009, 34.510657313759665 ] } },
{ "type": "Feature", "properties": { "P29_001": "24204", "P29_002": "A124320405011", "P29_003": "16011", "P29_004": "梅村幼稚園", "P29_005": "三重県松阪市久保町1843-10", "P29_006": "4", "P29_007": "0", "P29_008": "00", "P29_009": null }, "geometry": { "type": "Point", "coordinates": [ 136.536699736970036, 34.54660028425991 ] } },
{ "type": "Feature", "properties": { "P29_001": "24204", "P29_002": "A124320405020", "P29_003": "16011", "P29_004": "まつさか幼稚園", "P29_005": "三重県松阪市中央町468", "P29_006": "4", "P29_007": "0", "P29_008": "00", "P29_009": null }, "geometry": { "type": "Point", "coordinates": [ 136.542273146795338, 34.581917370798067 ] } },
{ "type": "Feature", "properties": { "P29_001": "24205", "P29_002": "A124320505010", "P29_003": "16011", "P29_004": "マリア・モンテッソーリ幼稚園", "P29_005": "三重県桑名市西方笹山787", "P29_006": "4", "P29_007": "0", "P29_008": "00", "P29_009": null }, "geometry": { "type": "Point", "coordinates": [ 136.668848026950741, 35.068074382629064 ] } },
{ "type": "Feature", "properties": { "P29_001": "24205", "P29_002": "A124320505029", "P29_003": "16011", "P29_004": "津田桑名幼稚園", "P29_005": "三重県桑名市清竹の丘9", "P29_006": "4", "P29_007": "0", "P29_008": "00", "P29_009": null }, "geometry": { "type": "Point", "coordinates": [ 136.669235459144033, 35.073461218261464 ] } },
{ "type": "Feature", "properties": { "P29_001": "24205", "P29_002": "A124320505038", "P29_003": "16011", "P29_004": "くわな幼稚園", "P29_005": "三重県桑名市大字西汰上656", "P29_006": "4", "P29_007": "0", "P29_008": "00", "P29_009": null }, "geometry": { "type": "Point", "coordinates": [ 136.674315867251011, 35.08807140143341 ] } },
{ "type": "Feature", "properties": { "P29_001": "24205", "P29_002": "A124320505047", "P29_003": "16011", "P29_004": "津田大山田幼稚園", "P29_005": "三重県桑名市野田5-3-12", "P29_006": "4", "P29_007": "0", "P29_008": "00", "P29_009": null }, "geometry": { "type": "Point", "coordinates": [ 136.626973865666145, 35.082029364834142 ] } },
{ "type": "Feature", "properties": { "P29_001": "24205", "P29_002": "A124320505056", "P29_003": "16011", "P29_004": "コスモス幼稚園", "P29_005": "三重県桑名市大字桑部字矢間2068", "P29_006": "4", "P29_007": "0", "P29_008": "00", "P29_009": null }, "geometry": { "type": "Point", "coordinates": [ 136.652722736424266, 35.04477415307867 ] } },
{ "type": "Feature", "properties": { "P29_001": "24207", "P29_002": "A124320705027", "P29_003": "16011", "P29_004": "すずか幼稚園", "P29_005": "三重県鈴鹿市神戸2-20-18", "P29_006": "4", "P29_007": "0", "P29_008": "00", "P29_009": null }, "geometry": { "type": "Point", "coordinates": [ 136.578204518763584, 34.881285765466139 ] } },
{ "type": "Feature", "properties": { "P29_001": "24207", "P29_002": "A124320705036", "P29_003": "16011", "P29_004": "白子ひかり幼稚園", "P29_005": "三重県鈴鹿市白子本町2-38", "P29_006": "4", "P29_007": "0", "P29_008": "00", "P29_009": null }, "geometry": { "type": "Point", "coordinates": [ 136.59136447274463, 34.835128531795959 ] } },
{ "type": "Feature", "properties": { "P29_001": "24207", "P29_002": "A124320705054", "P29_003": "16011", "P29_004": "第２すずか（きしおか）幼稚園", "P29_005": "三重県鈴鹿市岸岡町2815", "P29_006": "4", "P29_007": "0", "P29_008": "00", "P29_009": null }, "geometry": { "type": "Point", "coordinates": [ 136.605525009411451, 34.854162523203719 ] } },
{ "type": "Feature", "properties": { "P29_001": "24207", "P29_002": "A124320705063", "P29_003": "16011", "P29_004": "道伯幼稚園", "P29_005": "三重県鈴鹿市道伯1-12-27", "P29_006": "4", "P29_007": "0", "P29_008": "00", "P29_009": null }, "geometry": { "type": "Point", "coordinates": [ 136.542391578258389, 34.862611392864451 ] } },
{ "type": "Feature", "properties": { "P29_001": "24207", "P29_002": "A124320705072", "P29_003": "16011", "P29_004": "さくら幼稚園", "P29_005": "三重県鈴鹿市鈴鹿ハイツ5-45", "P29_006": "4", "P29_007": "0", "P29_008": "00", "P29_009": null }, "geometry": { "type": "Point", "coordinates": [ 136.557577531897294, 34.854739072533782 ] } },
{ "type": "Feature", "properties": { "P29_001": "24208", "P29_002": "A124320805017", "P29_003": "16011", "P29_004": "桔梗が丘幼稚園", "P29_005": "三重県名張市桔梗が丘1番町2街区6", "P29_006": "4", "P29_007": "0", "P29_008": "00", "P29_009": null }, "geometry": { "type": "Point", "coordinates": [ 136.115163590888187, 34.643062045205781 ] } },
{ "type": "Feature", "properties": { "P29_001": "24208", "P29_002": "A124320805026", "P29_003": "16011", "P29_004": "梅が丘幼稚園", "P29_005": "三重県名張市梅が丘南2番町278", "P29_006": "4", "P29_007": "0", "P29_008": "00", "P29_009": null }, "geometry": { "type": "Point", "coordinates": [ 136.089209714090316, 34.636309080370353 ] } },
{ "type": "Feature", "properties": { "P29_001": "24210", "P29_002": "A124321005013", "P29_003": "16011", "P29_004": "みずきが丘道伯幼稚園", "P29_005": "三重県亀山市みずきが丘81", "P29_006": "4", "P29_007": "0", "P29_008": "00", "P29_009": null }, "geometry": { "type": "Point", "coordinates": [ 136.468245584397607, 34.875925374272072 ] } },
{ "type": "Feature", "properties": { "P29_001": "24212", "P29_002": "A124321205011", "P29_003": "16011", "P29_004": "有馬幼稚園", "P29_005": "三重県熊野市有馬町650", "P29_006": "4", "P29_007": "0", "P29_008": "00", "P29_009": null }, "geometry": { "type": "Point", "coordinates": [ 136.087176767124731, 33.877984678648289 ] } },
{ "type": "Feature", "properties": { "P29_001": "24216", "P29_002": "A124321605017", "P29_003": "16011", "P29_004": "白鳳幼稚園", "P29_005": "三重県伊賀市上野伊予町1067-1", "P29_006": "4", "P29_007": "0", "P29_008": "00", "P29_009": null }, "geometry": { "type": "Point", "coordinates": [ 136.136315004117051, 34.765109997695482 ] } }
]
}
