{
"type": "FeatureCollection",
"name": "geo_24_短期大学",
"crs": { "type": "name", "properties": { "name": "urn:ogc:def:crs:EPSG::6668" } },
"features": [
{ "type": "Feature", "properties": { "P29_001": "24201", "P29_002": "F224210107219", "P29_003": "16006", "P29_004": "三重短期大学", "P29_005": "三重県津市一身田中野157", "P29_006": "3", "P29_007": "0", "P29_008": "00", "P29_009": null }, "geometry": { "type": "Point", "coordinates": [ 136.511495972817045, 34.748721921686986 ] } },
{ "type": "Feature", "properties": { "P29_001": "24207", "P29_002": "F224310107226", "P29_003": "16006", "P29_004": "鈴鹿大学短期大学部", "P29_005": "三重県鈴鹿市郡山町663-222", "P29_006": "4", "P29_007": "0", "P29_008": "00", "P29_009": null }, "geometry": { "type": "Point", "coordinates": [ 136.539072143089129, 34.808547914183393 ] } },
{ "type": "Feature", "properties": { "P29_001": "24201", "P29_002": "F224310107235", "P29_003": "16006", "P29_004": "高田短期大学", "P29_005": "三重県津市一身田豊野195", "P29_006": "4", "P29_007": "0", "P29_008": "00", "P29_009": null }, "geometry": { "type": "Point", "coordinates": [ 136.509795668915558, 34.770318921690688 ] } },
{ "type": "Feature", "properties": { "P29_001": "24202", "P29_002": "F224310107244", "P29_003": "16006", "P29_004": "ユマニテク短期大学", "P29_005": "三重県四日市市南浜田町4-21", "P29_006": "4", "P29_007": "0", "P29_008": "00", "P29_009": null }, "geometry": { "type": "Point", "coordinates": [ 136.616032171970943, 34.961436195430075 ] } }
]
}
