{
"type": "FeatureCollection",
"name": "geo_24_短期入所療養介護（介護老人保健施設）",
"crs": { "type": "name", "properties": { "name": "urn:ogc:def:crs:OGC:1.3:CRS84" } },
"features": [
{ "type": "Feature", "properties": { "内容": "地域総合ケアセンター短期入所療養介護事業シルバーケア豊壽園【短期入所療養介護（介護老人保健施設）】三重県津市高茶屋小森上野町野田737", "url": "https://www.kaigokensaku.mhlw.go.jp/24/index.php?action_kouhyou_detail_004_kani=true&JigyosyoCd=2450580036-00&ServiceCd=220&Type=search", "url2": "http：//www.sensin.or.jp" }, "geometry": { "type": "Point", "coordinates": [ 136.520079099999947, 34.6784784 ] } },
{ "type": "Feature", "properties": { "内容": "介護老人保健施設　いこいの森【短期入所療養介護（介護老人保健施設）】三重県津市河芸町東千里3番地の１", "url": "https://www.kaigokensaku.mhlw.go.jp/24/index.php?action_kouhyou_detail_004_kani=true&JigyosyoCd=2452480029-00&ServiceCd=220&Type=search", "url2": "https://www.mie-ikoinomori.or.jp" }, "geometry": { "type": "Point", "coordinates": [ 136.552071500000011, 34.8031044 ] } },
{ "type": "Feature", "properties": { "内容": "介護老人保健施設　第二さくら苑【短期入所療養介護（介護老人保健施設）】三重県津市榊原町5599番地", "url": "https://www.kaigokensaku.mhlw.go.jp/24/index.php?action_kouhyou_detail_004_kani=true&JigyosyoCd=2450580051-00&ServiceCd=220&Type=search", "url2": "http://ohrin-mc.jp/sakuraen_dai2/index.html" }, "geometry": { "type": "Point", "coordinates": [ 136.371747, 34.7068402 ] } },
{ "type": "Feature", "properties": { "内容": "介護老人保健施設つつじの里【短期入所療養介護（介護老人保健施設）】三重県津市白山町二本木1163", "url": "https://www.kaigokensaku.mhlw.go.jp/24/index.php?action_kouhyou_detail_004_kani=true&JigyosyoCd=2450580044-00&ServiceCd=220&Type=search", "url2": "http://www.akeai.or.jp/" }, "geometry": { "type": "Point", "coordinates": [ 136.371187700000064, 34.6680964 ] } },
{ "type": "Feature", "properties": { "内容": "介護老人保健施設　万葉の里【短期入所療養介護（介護老人保健施設）】三重県津市一志町高野２３６－５", "url": "https://www.kaigokensaku.mhlw.go.jp/24/index.php?action_kouhyou_detail_004_kani=true&JigyosyoCd=2452580034-00&ServiceCd=220&Type=search", "url2": null }, "geometry": { "type": "Point", "coordinates": [ 136.43258620000006, 34.6596328 ] } },
{ "type": "Feature", "properties": { "内容": "介護老人保健施設　あのう【短期入所療養介護（介護老人保健施設）】三重県津市安濃町東観音寺３５３番地", "url": "https://www.kaigokensaku.mhlw.go.jp/24/index.php?action_kouhyou_detail_004_kani=true&JigyosyoCd=2452480037-00&ServiceCd=220&Type=search", "url2": "http://www.akeai.or.jp" }, "geometry": { "type": "Point", "coordinates": [ 136.4409935, 34.7642044 ] } },
{ "type": "Feature", "properties": { "内容": "介護老人保健施設さくら苑【短期入所療養介護（介護老人保健施設）】三重県津市榊原町5630番地", "url": "https://www.kaigokensaku.mhlw.go.jp/24/index.php?action_kouhyou_detail_004_kani=true&JigyosyoCd=2450680059-00&ServiceCd=220&Type=search", "url2": "http://www.ohrin-mc.jp/sakuraen/" }, "geometry": { "type": "Point", "coordinates": [ 136.3689435, 34.7005613 ] } },
{ "type": "Feature", "properties": { "内容": "津老人保健施設アルカディア【短期入所療養介護（介護老人保健施設）】津市乙部１１－５", "url": "https://www.kaigokensaku.mhlw.go.jp/24/index.php?action_kouhyou_detail_004_kani=true&JigyosyoCd=2450580028-00&ServiceCd=220&Type=search", "url2": "https://www.arcadia-mie.jp/" }, "geometry": { "type": "Point", "coordinates": [ 136.520026199999961, 34.7173659 ] } },
{ "type": "Feature", "properties": { "内容": "介護老人保健施設トマト【短期入所療養介護（介護老人保健施設）】三重県津市殿村８６０番地２", "url": "https://www.kaigokensaku.mhlw.go.jp/24/index.php?action_kouhyou_detail_004_kani=true&JigyosyoCd=2450580010-00&ServiceCd=220&Type=search", "url2": "http://www.tomato.or.jp/" }, "geometry": { "type": "Point", "coordinates": [ 136.46376137249149, 34.726483645907571 ] } },
{ "type": "Feature", "properties": { "内容": "芹の里介護老人保健施設【短期入所療養介護（介護老人保健施設）】三重県津市久居井戸山町７５９－７", "url": "https://www.kaigokensaku.mhlw.go.jp/24/index.php?action_kouhyou_detail_004_kani=true&JigyosyoCd=2450680018-00&ServiceCd=220&Type=search", "url2": "https://www.seri-roken.or.jp" }, "geometry": { "type": "Point", "coordinates": [ 136.4834396, 34.6691251 ] } },
{ "type": "Feature", "properties": { "内容": "介護老人保健施設ロマン【短期入所療養介護（介護老人保健施設）】津市芸濃町椋本6176", "url": "https://www.kaigokensaku.mhlw.go.jp/24/index.php?action_kouhyou_detail_004_kani=true&JigyosyoCd=2452480011-00&ServiceCd=220&Type=search", "url2": "http://www.roman.or.jp" }, "geometry": { "type": "Point", "coordinates": [ 136.44266970000001, 34.8105153 ] } },
{ "type": "Feature", "properties": { "内容": "介護老人保健施設みえの郷【短期入所療養介護（介護老人保健施設）】三重県四日市市山田町5538番地の1", "url": "https://www.kaigokensaku.mhlw.go.jp/24/index.php?action_kouhyou_detail_004_kani=true&JigyosyoCd=2450280025-00&ServiceCd=220&Type=search", "url2": "http://www.syutaikai.jp/n-mie/" }, "geometry": { "type": "Point", "coordinates": [ 136.527192199999945, 34.945271 ] } },
{ "type": "Feature", "properties": { "内容": "介護老人保健施設　みえ川村老健【短期入所療養介護（介護老人保健施設）】四日市市城東町３番２１号介護老人保健施設みえ川村老健", "url": "https://www.kaigokensaku.mhlw.go.jp/24/index.php?action_kouhyou_detail_004_kani=true&JigyosyoCd=2450280033-00&ServiceCd=220&Type=search", "url2": "http://www.syutaikai.jp" }, "geometry": { "type": "Point", "coordinates": [ 136.609597300000019, 34.9646841 ] } },
{ "type": "Feature", "properties": { "内容": "小山田老人保健施設【短期入所療養介護（介護老人保健施設）】四日市市山田町5501-1", "url": "https://www.kaigokensaku.mhlw.go.jp/24/index.php?action_kouhyou_detail_004_kani=true&JigyosyoCd=2450280017-00&ServiceCd=220&Type=search", "url2": "http://www.normari.jp/" }, "geometry": { "type": "Point", "coordinates": [ 136.527800500000012, 34.9461681 ] } },
{ "type": "Feature", "properties": { "内容": "介護老人保健施設ちゅうぶ【短期入所療養介護（介護老人保健施設）】三重県四日市市中部８－１５", "url": "https://www.kaigokensaku.mhlw.go.jp/24/index.php?action_kouhyou_detail_004_kani=true&JigyosyoCd=2450280058-00&ServiceCd=220&Type=search", "url2": "http://www.rijinkai.jp/" }, "geometry": { "type": "Point", "coordinates": [ 136.62532842883607, 34.968628645663294 ] } },
{ "type": "Feature", "properties": { "内容": "四日市羽津医療センター附属介護老人保健施設【短期入所療養介護（介護老人保健施設）】四日市市羽津山町10-8", "url": "https://www.kaigokensaku.mhlw.go.jp/24/index.php?action_kouhyou_detail_004_kani=true&JigyosyoCd=2450280041-00&ServiceCd=220&Type=search", "url2": "http://yokkaichi.jcho.go.jp/rouken/" }, "geometry": { "type": "Point", "coordinates": [ 136.626350399999978, 34.9896899 ] } },
{ "type": "Feature", "properties": { "内容": "富田浜老人保健施設【短期入所療養介護（介護老人保健施設）】三重県四日市市富田浜町２６－１４", "url": "https://www.kaigokensaku.mhlw.go.jp/24/index.php?action_kouhyou_detail_004_kani=true&JigyosyoCd=2450280066-00&ServiceCd=220&Type=search", "url2": "http://www.tomidahama.jp/roukentop.htm" }, "geometry": { "type": "Point", "coordinates": [ 136.6517569, 34.9981112 ] } },
{ "type": "Feature", "properties": { "内容": "介護老人保健施設　老健クローバー【短期入所療養介護（介護老人保健施設）】三重県四日市市小古曽町2717-1", "url": "https://www.kaigokensaku.mhlw.go.jp/24/index.php?action_kouhyou_detail_004_kani=true&JigyosyoCd=2450280074-00&ServiceCd=220&Type=search", "url2": "http://shouwa-cl.or.jp" }, "geometry": { "type": "Point", "coordinates": [ 136.594725609787019, 34.919382390199189 ] } },
{ "type": "Feature", "properties": { "内容": "富田浜老人保健施設（ユニット型）【短期入所療養介護（介護老人保健施設）】三重県四日市市富田浜町26-14", "url": "https://www.kaigokensaku.mhlw.go.jp/24/index.php?action_kouhyou_detail_004_kani=true&JigyosyoCd=2450280082-00&ServiceCd=220&Type=search", "url2": "http://tomidahama.jp" }, "geometry": { "type": "Point", "coordinates": [ 136.652416723417673, 34.99784753704968 ] } },
{ "type": "Feature", "properties": { "内容": "小規模介護老人保健施設　浜っこサテライト【短期入所療養介護（介護老人保健施設）】三重県四日市市富田浜町29-20", "url": "https://www.kaigokensaku.mhlw.go.jp/24/index.php?action_kouhyou_detail_004_kani=true&JigyosyoCd=2450280090-00&ServiceCd=220&Type=search", "url2": "https://www.tomidahama.jp" }, "geometry": { "type": "Point", "coordinates": [ 136.652878063368235, 34.998893395087393 ] } },
{ "type": "Feature", "properties": { "内容": "ふたみ介護老人保健施設シルバーケア豊壽園【短期入所療養介護（介護老人保健施設）】三重県伊勢市二見町三津字池田855番地", "url": "https://www.kaigokensaku.mhlw.go.jp/24/index.php?action_kouhyou_detail_004_kani=true&JigyosyoCd=2452880061-00&ServiceCd=220&Type=search", "url2": "https://www.sensin.or.jp/" }, "geometry": { "type": "Point", "coordinates": [ 136.773046900000054, 34.500200200000016 ] } },
{ "type": "Feature", "properties": { "内容": "医療法人全心会　伊勢老健ひかり　短期入所療養介護【短期入所療養介護（介護老人保健施設）】三重県伊勢市御薗町高向775番地1", "url": "https://www.kaigokensaku.mhlw.go.jp/24/index.php?action_kouhyou_detail_004_kani=true&JigyosyoCd=2450880030-00&ServiceCd=220&Type=search", "url2": "https://ise-rouken-hikari.com/about/" }, "geometry": { "type": "Point", "coordinates": [ 136.6972204, 34.5010574 ] } },
{ "type": "Feature", "properties": { "内容": "介護老人保健施設山咲苑【短期入所療養介護（介護老人保健施設）】三重県伊勢市楠部町若ノ山2605-13", "url": "https://www.kaigokensaku.mhlw.go.jp/24/index.php?action_kouhyou_detail_004_kani=true&JigyosyoCd=2450880014-00&ServiceCd=220&Type=search", "url2": "http://www.yamasakien.biz/" }, "geometry": { "type": "Point", "coordinates": [ 136.747397314030394, 34.48021299130194 ] } },
{ "type": "Feature", "properties": { "内容": "介護老人保健施設　上野の郷　短期入所療養介護【短期入所療養介護（介護老人保健施設）】三重県伊勢市上野町２８５５－１", "url": "https://www.kaigokensaku.mhlw.go.jp/24/index.php?action_kouhyou_detail_004_kani=true&JigyosyoCd=2450880022-00&ServiceCd=220&Type=search", "url2": "www.uenonosato.jp" }, "geometry": { "type": "Point", "coordinates": [ 136.653430800000024, 34.4350997 ] } },
{ "type": "Feature", "properties": { "内容": "介護老人保健施設　やまゆりの里【短期入所療養介護（介護老人保健施設）】三重県松阪市嬉野中川町１５２９－１", "url": "https://www.kaigokensaku.mhlw.go.jp/24/index.php?action_kouhyou_detail_004_kani=true&JigyosyoCd=2450780040-00&ServiceCd=220&Type=search", "url2": "http://www.akeai.or.jp" }, "geometry": { "type": "Point", "coordinates": [ 136.475372099999959, 34.6341892 ] } },
{ "type": "Feature", "properties": { "内容": "介護老人保健施設嘉祥苑【短期入所療養介護（介護老人保健施設）】三重県松阪市鎌田町２３４番地の１０", "url": "https://www.kaigokensaku.mhlw.go.jp/24/index.php?action_kouhyou_detail_004_kani=true&JigyosyoCd=2450780016-00&ServiceCd=220&Type=search", "url2": "http://www/kashouen.or.jp" }, "geometry": { "type": "Point", "coordinates": [ 136.5357519, 34.5820108 ] } },
{ "type": "Feature", "properties": { "内容": "老人保健施設さくらんぼ【短期入所療養介護（介護老人保健施設）】三重県松阪市飯南町粥見5471-18", "url": "https://www.kaigokensaku.mhlw.go.jp/24/index.php?action_kouhyou_detail_004_kani=true&JigyosyoCd=2450780057-00&ServiceCd=220&Type=search", "url2": "http://www.sakuraen.com/sakuranbo/" }, "geometry": { "type": "Point", "coordinates": [ 136.375915099999929, 34.4456662 ] } },
{ "type": "Feature", "properties": { "内容": "医療法人　松徳会　介護老人保健施設　カトレア【短期入所療養介護（介護老人保健施設）】松阪市山室町６９０番地１", "url": "https://www.kaigokensaku.mhlw.go.jp/24/index.php?action_kouhyou_detail_004_kani=true&JigyosyoCd=2450780032-00&ServiceCd=220&Type=search", "url2": "http://www.shoutoku.or.jp/" }, "geometry": { "type": "Point", "coordinates": [ 136.502296500000057, 34.5299505 ] } },
{ "type": "Feature", "properties": { "内容": "介護老人保健施設　緑風苑【短期入所療養介護（介護老人保健施設）】三重県松阪市久保町1927－6", "url": "https://www.kaigokensaku.mhlw.go.jp/24/index.php?action_kouhyou_detail_004_kani=true&JigyosyoCd=2450780024-00&ServiceCd=220&Type=search", "url2": "https://aikeikai.or.jp/elderly/servise/ryokuhuen" }, "geometry": { "type": "Point", "coordinates": [ 136.526604600000013, 34.5373832 ] } },
{ "type": "Feature", "properties": { "内容": "介護老人保健施設まとかた【短期入所療養介護（介護老人保健施設）】三重県松阪市東黒部町835", "url": "https://www.kaigokensaku.mhlw.go.jp/24/index.php?action_kouhyou_detail_004_kani=true&JigyosyoCd=2450780065-00&ServiceCd=220&Type=search", "url2": "https://www.matokata.com/" }, "geometry": { "type": "Point", "coordinates": [ 136.5912667, 34.5915311 ] } },
{ "type": "Feature", "properties": { "内容": "ヨナハ介護老人保健施設【短期入所療養介護（介護老人保健施設）】三重県桑名市大字大福字雀塚４７１番地2", "url": "https://www.kaigokensaku.mhlw.go.jp/24/index.php?action_kouhyou_detail_004_kani=true&JigyosyoCd=2450180035-00&ServiceCd=220&Type=search", "url2": "http://yonaha.jp/yonarou/yonarou-top.html" }, "geometry": { "type": "Point", "coordinates": [ 136.685492791679394, 35.04577041012535 ] } },
{ "type": "Feature", "properties": { "内容": "介護老人保健施設ハート【短期入所療養介護（介護老人保健施設）】桑名市大字西方字斧峠1306-10", "url": "https://www.kaigokensaku.mhlw.go.jp/24/index.php?action_kouhyou_detail_004_kani=true&JigyosyoCd=2450180027-00&ServiceCd=220&Type=search", "url2": "https://www.aoki-naika.jp/heart/index.html" }, "geometry": { "type": "Point", "coordinates": [ 136.669154299999946, 35.0661209 ] } },
{ "type": "Feature", "properties": { "内容": "介護老人保健施設ことぶき【短期入所療養介護（介護老人保健施設）】三重県桑名市大央町21番地15", "url": "https://www.kaigokensaku.mhlw.go.jp/24/index.php?action_kouhyou_detail_004_kani=true&JigyosyoCd=2450180043-00&ServiceCd=220&Type=search", "url2": "http://www.sato-group.jp/kotobuki.html" }, "geometry": { "type": "Point", "coordinates": [ 136.689533, 35.0620774 ] } },
{ "type": "Feature", "properties": { "内容": "ケアセンター　ビオトープ【短期入所療養介護（介護老人保健施設）】三重県桑名市内堀28番地の1", "url": "https://www.kaigokensaku.mhlw.go.jp/24/index.php?action_kouhyou_detail_004_kani=true&JigyosyoCd=2450180068-00&ServiceCd=220&Type=search", "url2": "http://www.moriei.jp" }, "geometry": { "type": "Point", "coordinates": [ 136.693607499999985, 35.0625442 ] } },
{ "type": "Feature", "properties": { "内容": "介護老人保健施設　アルテハイム鈴鹿【短期入所療養介護（介護老人保健施設）】三重県鈴鹿市平田１丁目3番５号", "url": "https://www.kaigokensaku.mhlw.go.jp/24/index.php?action_kouhyou_detail_004_kani=true&JigyosyoCd=2450380015-00&ServiceCd=220&Type=search", "url2": null }, "geometry": { "type": "Point", "coordinates": [ 136.539811900000018, 34.8745216 ] } },
{ "type": "Feature", "properties": { "内容": "介護老人保健施設　鈴の丘【短期入所療養介護（介護老人保健施設）】三重県鈴鹿市庄野町2550番地", "url": "https://www.kaigokensaku.mhlw.go.jp/24/index.php?action_kouhyou_detail_004_kani=true&JigyosyoCd=2450380031-00&ServiceCd=220&Type=search", "url2": "http://www.mecha.ne.jp/~suzu-oka/" }, "geometry": { "type": "Point", "coordinates": [ 136.508813420901447, 34.887891282175275 ] } },
{ "type": "Feature", "properties": { "内容": "介護老人保健施設　鈴の丘（ユニット型）【短期入所療養介護（介護老人保健施設）】三重県鈴鹿市庄野町2550番地", "url": "https://www.kaigokensaku.mhlw.go.jp/24/index.php?action_kouhyou_detail_004_kani=true&JigyosyoCd=2450380056-00&ServiceCd=220&Type=search", "url2": "http://www.mecha.ne.jp/~suzu-oka/" }, "geometry": { "type": "Point", "coordinates": [ 136.508845165606658, 34.887889788466595 ] } },
{ "type": "Feature", "properties": { "内容": "介護老人保健施設パークヒルズ高塚【短期入所療養介護（介護老人保健施設）】三重県鈴鹿市高塚町字北新地2036", "url": "https://www.kaigokensaku.mhlw.go.jp/24/index.php?action_kouhyou_detail_004_kani=true&JigyosyoCd=2450380049-00&ServiceCd=220&Type=search", "url2": "www.shiokawa-hp-jp" }, "geometry": { "type": "Point", "coordinates": [ 136.50904220000001, 34.901256899999979 ] } },
{ "type": "Feature", "properties": { "内容": "介護老人保健施設　憩いの街　短期入所療養介護【短期入所療養介護（介護老人保健施設）】名張市鴻之台1番町72番地", "url": "https://www.kaigokensaku.mhlw.go.jp/24/index.php?action_kouhyou_detail_004_kani=true&JigyosyoCd=2451380030-00&ServiceCd=220&Type=search", "url2": "http://www.keihoukai.net" }, "geometry": { "type": "Point", "coordinates": [ 136.111409299999963, 34.6302647 ] } },
{ "type": "Feature", "properties": { "内容": "亀山老人保健施設【短期入所療養介護（介護老人保健施設）】亀山市羽若町松本645-14", "url": "https://www.kaigokensaku.mhlw.go.jp/24/index.php?action_kouhyou_detail_004_kani=true&JigyosyoCd=2450480013-00&ServiceCd=220&Type=search", "url2": "http://www.normari.jp" }, "geometry": { "type": "Point", "coordinates": [ 136.452744700000039, 34.8646211 ] } },
{ "type": "Feature", "properties": { "内容": "介護老人保健施設　鳥羽豊和苑【短期入所療養介護（介護老人保健施設）】三重県鳥羽市安楽島町字腰掛1045-77", "url": "https://www.kaigokensaku.mhlw.go.jp/24/index.php?action_kouhyou_detail_004_kani=true&JigyosyoCd=2450980012-00&ServiceCd=220&Type=search", "url2": "http://www.houwakai.or.jp" }, "geometry": { "type": "Point", "coordinates": [ 136.862113063029483, 34.474512876168674 ] } },
{ "type": "Feature", "properties": { "内容": "介護老人保健施設　鳥羽豊和苑　ユニット【短期入所療養介護（介護老人保健施設）】三重県鳥羽市安楽島町字腰掛1045－77", "url": "https://www.kaigokensaku.mhlw.go.jp/24/index.php?action_kouhyou_detail_004_kani=true&JigyosyoCd=2450980020-00&ServiceCd=220&Type=search", "url2": "http://www.houwakai.or.jp" }, "geometry": { "type": "Point", "coordinates": [ 136.8708517, 34.4633458 ] } },
{ "type": "Feature", "properties": { "内容": "医療法人紀南会介護老人保健施設オレンジロードむつみ苑【短期入所療養介護（介護老人保健施設）】三重県熊野市久生屋町847番地２", "url": "https://www.kaigokensaku.mhlw.go.jp/24/index.php?action_kouhyou_detail_004_kani=true&JigyosyoCd=2451180018-00&ServiceCd=220&Type=search", "url2": "https://www.mutsumien-kumano.jp/" }, "geometry": { "type": "Point", "coordinates": [ 136.074300200000039, 33.8651833 ] } },
{ "type": "Feature", "properties": { "内容": "志摩市介護老人保健施設　志摩の里【短期入所療養介護（介護老人保健施設）】三重県志摩市志摩町片田4807番地1", "url": "https://www.kaigokensaku.mhlw.go.jp/24/index.php?action_kouhyou_detail_004_kani=true&JigyosyoCd=2472900899-00&ServiceCd=220&Type=search", "url2": "https://www.jadecom.or.jp/jadecomhp/shimanosato/html/" }, "geometry": { "type": "Point", "coordinates": [ 136.832087399999978, 34.2612293 ] } },
{ "type": "Feature", "properties": { "内容": "介護老人保健施設志摩豊和苑【短期入所療養介護（介護老人保健施設）】三重県志摩市阿児町国府1061-152", "url": "https://www.kaigokensaku.mhlw.go.jp/24/index.php?action_kouhyou_detail_004_kani=true&JigyosyoCd=2452980010-00&ServiceCd=220&Type=search", "url2": "http://www.houwakai.or.jp/m-shimahou.html" }, "geometry": { "type": "Point", "coordinates": [ 136.856367214944498, 34.330800934525953 ] } },
{ "type": "Feature", "properties": { "内容": "介護老人保健施設おかなみ【短期入所療養介護（介護老人保健施設）】三重県伊賀市上之庄2711番地1", "url": "https://www.kaigokensaku.mhlw.go.jp/24/index.php?action_kouhyou_detail_004_kani=true&JigyosyoCd=2451280016-00&ServiceCd=220&Type=search", "url2": "http://www.okanami.com/" }, "geometry": { "type": "Point", "coordinates": [ 136.114229900000026, 34.7297095 ] } },
{ "type": "Feature", "properties": { "内容": "介護老人保健施設第２おかなみ【短期入所療養介護（介護老人保健施設）】三重県伊賀市下友生字鳥ヶ峯2916番地", "url": "https://www.kaigokensaku.mhlw.go.jp/24/index.php?action_kouhyou_detail_004_kani=true&JigyosyoCd=2451280024-00&ServiceCd=220&Type=search", "url2": "http://www.okanami.com" }, "geometry": { "type": "Point", "coordinates": [ 136.15727956078797, 34.753990320141995 ] } },
{ "type": "Feature", "properties": { "内容": "介護老人保健施設伊賀ゆめが丘【短期入所療養介護（介護老人保健施設）】三重県伊賀市ゆめが丘4丁目１－５", "url": "https://www.kaigokensaku.mhlw.go.jp/24/index.php?action_kouhyou_detail_004_kani=true&JigyosyoCd=2451280032-00&ServiceCd=220&Type=search", "url2": "http://www.okanami.com" }, "geometry": { "type": "Point", "coordinates": [ 136.1569541, 34.736976700000014 ] } },
{ "type": "Feature", "properties": { "内容": "介護老人保健施設　伊賀さくら苑【短期入所療養介護（介護老人保健施設）】三重県伊賀市円徳院324番地1", "url": "https://www.kaigokensaku.mhlw.go.jp/24/index.php?action_kouhyou_detail_004_kani=true&JigyosyoCd=2451280040-00&ServiceCd=220&Type=search", "url2": "http://www.ohrin-mc.jp/iga/" }, "geometry": { "type": "Point", "coordinates": [ 136.1838755, 34.811718 ] } },
{ "type": "Feature", "properties": { "内容": "ビオトープさくら【短期入所療養介護（介護老人保健施設）】三重県桑名郡木曽岬町大字和富10番17", "url": "https://www.kaigokensaku.mhlw.go.jp/24/index.php?action_kouhyou_detail_004_kani=true&JigyosyoCd=2452080027-00&ServiceCd=220&Type=search", "url2": "http://www.wangansakuraclinic.jp/" }, "geometry": { "type": "Point", "coordinates": [ 136.751201900000012, 35.0671922 ] } },
{ "type": "Feature", "properties": { "内容": "介護老人保健施設友愛トピア【短期入所療養介護（介護老人保健施設）】三重県三重郡菰野町大字宿野字神明田371", "url": "https://www.kaigokensaku.mhlw.go.jp/24/index.php?action_kouhyou_detail_004_kani=true&JigyosyoCd=2452280031-00&ServiceCd=220&Type=search", "url2": "http://www.yuuaitopia.com" }, "geometry": { "type": "Point", "coordinates": [ 136.5282973, 35.0039681 ] } },
{ "type": "Feature", "properties": { "内容": "湯の山介護老人保健施設【短期入所療養介護（介護老人保健施設）】三重県三重郡菰野町千草字東江野7045-73", "url": "https://www.kaigokensaku.mhlw.go.jp/24/index.php?action_kouhyou_detail_004_kani=true&JigyosyoCd=2452280015-00&ServiceCd=220&Type=search", "url2": "http://www2.ocn.ne.jp/~yonaha/" }, "geometry": { "type": "Point", "coordinates": [ 136.48972040000001, 35.0339631 ] } },
{ "type": "Feature", "properties": { "内容": "介護老人保健施設　聖十字ハイツ【短期入所療養介護（介護老人保健施設）】三重県三重郡菰野町宿野1641-10", "url": "https://www.kaigokensaku.mhlw.go.jp/24/index.php?action_kouhyou_detail_004_kani=true&JigyosyoCd=2452280023-00&ServiceCd=220&Type=search", "url2": "http://suzukaseijujikai.jp/" }, "geometry": { "type": "Point", "coordinates": [ 136.518523400000049, 35.003937 ] } },
{ "type": "Feature", "properties": { "内容": "介護老人保健施設　みずほの里【短期入所療養介護（介護老人保健施設）】三重県多気郡多気町仁田706番7号", "url": "https://www.kaigokensaku.mhlw.go.jp/24/index.php?action_kouhyou_detail_004_kani=true&JigyosyoCd=2452780014-00&ServiceCd=220&Type=search", "url2": "http://www.mizuhonosato.or.jp" }, "geometry": { "type": "Point", "coordinates": [ 136.545707200000038, 34.4922008 ] } },
{ "type": "Feature", "properties": { "内容": "介護老人保健施設　なごみの里【短期入所療養介護（介護老人保健施設）】三重県多気郡多気町古江大字東山1512-1", "url": "https://www.kaigokensaku.mhlw.go.jp/24/index.php?action_kouhyou_detail_004_kani=true&JigyosyoCd=2452780022-00&ServiceCd=220&Type=search", "url2": "http://www.pmc.or.jp/nagomi/" }, "geometry": { "type": "Point", "coordinates": [ 136.480439100000012, 34.4610221 ] } },
{ "type": "Feature", "properties": { "内容": "介護老人保健施設第二嘉祥苑「アコラス」【短期入所療養介護（介護老人保健施設）】三重県多気郡明和町大字南藤原字一水口７５１番地", "url": "https://www.kaigokensaku.mhlw.go.jp/24/index.php?action_kouhyou_detail_004_kani=true&JigyosyoCd=2452780030-00&ServiceCd=220&Type=search", "url2": "http://www.kashouen.or.jp" }, "geometry": { "type": "Point", "coordinates": [ 136.620270897084652, 34.583777447602728 ] } },
{ "type": "Feature", "properties": { "内容": "大台町介護老人保健施設みやがわ　短期入所療養介護（従来型）【短期入所療養介護（介護老人保健施設）】三重県多気郡大台町江馬114", "url": "https://www.kaigokensaku.mhlw.go.jp/24/index.php?action_kouhyou_detail_004_kani=true&JigyosyoCd=2472700976-00&ServiceCd=220&Type=search", "url2": "http.//www.akeai.or.jp/" }, "geometry": { "type": "Point", "coordinates": [ 136.338999635720654, 34.36405267599384 ] } },
{ "type": "Feature", "properties": { "内容": "大台町介護老人保健施設みやがわ短期入所療養介護（ユニット型）【短期入所療養介護（介護老人保健施設）】三重県多気郡大台町江馬114", "url": "https://www.kaigokensaku.mhlw.go.jp/24/index.php?action_kouhyou_detail_004_kani=true&JigyosyoCd=2472701024-00&ServiceCd=220&Type=search", "url2": "http://www.akeai.or.jp/" }, "geometry": { "type": "Point", "coordinates": [ 136.339036405587763, 34.364018865917451 ] } },
{ "type": "Feature", "properties": { "内容": "玉城町介護老人保健施設ケアハイツ玉城【短期入所療養介護（介護老人保健施設）】三重県度会郡玉城町佐田８８１", "url": "https://www.kaigokensaku.mhlw.go.jp/24/index.php?action_kouhyou_detail_004_kani=true&JigyosyoCd=2452880012-00&ServiceCd=220&Type=search", "url2": "http://www.tamaki-hsp.jp/care/index.html" }, "geometry": { "type": "Point", "coordinates": [ 136.639641799999907, 34.489512 ] } },
{ "type": "Feature", "properties": { "内容": "介護老人保健施設　輝【短期入所療養介護（介護老人保健施設）】三重県北牟婁郡紀北町東長島2482", "url": "https://www.kaigokensaku.mhlw.go.jp/24/index.php?action_kouhyou_detail_004_kani=true&JigyosyoCd=2453080026-00&ServiceCd=220&Type=search", "url2": "http://www.kaiseihp.com/kirari/index.html" }, "geometry": { "type": "Point", "coordinates": [ 136.339835200000039, 34.2082228 ] } },
{ "type": "Feature", "properties": { "内容": "介護老人保健施設　菖蒲園【短期入所療養介護（介護老人保健施設）】三重県北牟婁郡紀北町上里239-8", "url": "https://www.kaigokensaku.mhlw.go.jp/24/index.php?action_kouhyou_detail_004_kani=true&JigyosyoCd=2453080034-00&ServiceCd=220&Type=search", "url2": null }, "geometry": { "type": "Point", "coordinates": [ 136.233377, 34.1444799 ] } },
{ "type": "Feature", "properties": { "内容": "老人保健施設きなん苑【短期入所療養介護（介護老人保健施設）】三重県南牟婁郡御浜町阿田和１７７", "url": "https://www.kaigokensaku.mhlw.go.jp/24/index.php?action_kouhyou_detail_004_kani=true&JigyosyoCd=2453180016-00&ServiceCd=220&Type=search", "url2": "http;//www.kinan-hp-mie.jp/" }, "geometry": { "type": "Point", "coordinates": [ 136.035325300000068, 33.8017149 ] } }
]
}
