{
"type": "FeatureCollection",
"name": "geo_24_訪問看護",
"crs": { "type": "name", "properties": { "name": "urn:ogc:def:crs:OGC:1.3:CRS84" } },
"features": [
{ "type": "Feature", "properties": { "内容": "訪問看護　ここよ【訪問看護】三重県津市垂水522-1", "url": "https://www.kaigokensaku.mhlw.go.jp/24/index.php?action_kouhyou_detail_004_kani=true&JigyosyoCd=2460590256-00&ServiceCd=130&Type=search", "url2": null }, "geometry": { "type": "Point", "coordinates": [ 136.509556605516053, 34.693344215477715 ] } },
{ "type": "Feature", "properties": { "内容": "ゴールドエイジ訪問看護ステーション　津営業所【訪問看護】三重県津市白塚町白池357番地18", "url": "https://www.kaigokensaku.mhlw.go.jp/24/index.php?action_kouhyou_detail_004_kani=true&JigyosyoCd=2460590595-00&ServiceCd=130&Type=search", "url2": null }, "geometry": { "type": "Point", "coordinates": [ 136.530733204972336, 34.77267731231322 ] } },
{ "type": "Feature", "properties": { "内容": "くうねる訪問看護ステーション【訪問看護】三重県津市上浜町1丁目92-19", "url": "https://www.kaigokensaku.mhlw.go.jp/24/index.php?action_kouhyou_detail_004_kani=true&JigyosyoCd=2460590462-00&ServiceCd=130&Type=search", "url2": null }, "geometry": { "type": "Point", "coordinates": [ 136.5119939, 34.7389292 ] } },
{ "type": "Feature", "properties": { "内容": "訪問看護ステーション悠ライフ津新町【訪問看護】三重県津市新町2丁目5番31号", "url": "https://www.kaigokensaku.mhlw.go.jp/24/index.php?action_kouhyou_detail_004_kani=true&JigyosyoCd=2460590587-00&ServiceCd=130&Type=search", "url2": "https://www.kaigo.kind-life-japan.com/" }, "geometry": { "type": "Point", "coordinates": [ 136.494634, 34.7177481 ] } },
{ "type": "Feature", "properties": { "内容": "muku訪問看護ステーション【訪問看護】三重県津市寿町12-19", "url": "https://www.kaigokensaku.mhlw.go.jp/24/index.php?action_kouhyou_detail_004_kani=true&JigyosyoCd=2460590603-00&ServiceCd=130&Type=search", "url2": "ftp.alive-grp.co.jp" }, "geometry": { "type": "Point", "coordinates": [ 136.5159799, 34.7145129 ] } },
{ "type": "Feature", "properties": { "内容": "アクアみえ津訪問看護【訪問看護】三重県津市一身田平野405番地", "url": "https://www.kaigokensaku.mhlw.go.jp/24/index.php?action_kouhyou_detail_004_kani=true&JigyosyoCd=2460590637-00&ServiceCd=130&Type=search", "url2": null }, "geometry": { "type": "Point", "coordinates": [ 136.516893230966161, 34.753815613902624 ] } },
{ "type": "Feature", "properties": { "内容": "訪問看護ステーション安濃津ろまん【訪問看護】津市神戸154番9", "url": "https://www.kaigokensaku.mhlw.go.jp/24/index.php?action_kouhyou_detail_004_kani=true&JigyosyoCd=2460590181-00&ServiceCd=130&Type=search", "url2": "http://www.anotsu-roman.jp" }, "geometry": { "type": "Point", "coordinates": [ 136.489341599999989, 34.7147879 ] } },
{ "type": "Feature", "properties": { "内容": "ナースカンパニー【訪問看護】三重県津市一志町大仰５８番地総合支援ファシリティおおのき", "url": "https://www.kaigokensaku.mhlw.go.jp/24/index.php?action_kouhyou_detail_004_kani=true&JigyosyoCd=2460590090-00&ServiceCd=130&Type=search", "url2": "http://www.nurse-jp.com" }, "geometry": { "type": "Point", "coordinates": [ 136.413516763056919, 34.648023509899325 ] } },
{ "type": "Feature", "properties": { "内容": "訪問看護ステーション　みのり【訪問看護】津市高茶屋６丁目11-24-105", "url": "https://www.kaigokensaku.mhlw.go.jp/24/index.php?action_kouhyou_detail_004_kani=true&JigyosyoCd=2460590140-00&ServiceCd=130&Type=search", "url2": null }, "geometry": { "type": "Point", "coordinates": [ 136.50105828162819, 34.673519786563695 ] } },
{ "type": "Feature", "properties": { "内容": "実践訪問看護ステーション【訪問看護】津市大倉９－４", "url": "https://www.kaigokensaku.mhlw.go.jp/24/index.php?action_kouhyou_detail_004_kani=true&JigyosyoCd=2460590082-00&ServiceCd=130&Type=search", "url2": "www.kaigo-kango.or.jp" }, "geometry": { "type": "Point", "coordinates": [ 136.506650900000068, 34.7029708 ] } },
{ "type": "Feature", "properties": { "内容": "みえ医療福祉生協　つ訪問看護ステーション【訪問看護】寿町16番24", "url": "https://www.kaigokensaku.mhlw.go.jp/24/index.php?action_kouhyou_detail_004_kani=true&JigyosyoCd=2460590165-00&ServiceCd=130&Type=search", "url2": null }, "geometry": { "type": "Point", "coordinates": [ 136.514730932610291, 34.710420368200865 ] } },
{ "type": "Feature", "properties": { "内容": "訪問看護リハビリステーション鶴寿【訪問看護】三重県津市藤方1535番地2", "url": "https://www.kaigokensaku.mhlw.go.jp/24/index.php?action_kouhyou_detail_004_kani=true&JigyosyoCd=2460590348-00&ServiceCd=130&Type=search", "url2": "https://kakujyu-mie.com" }, "geometry": { "type": "Point", "coordinates": [ 136.510647578295931, 34.688222098626611 ] } },
{ "type": "Feature", "properties": { "内容": "訪問看護ステーション　みかづき【訪問看護】三重県津市殿村332番地1", "url": "https://www.kaigokensaku.mhlw.go.jp/24/index.php?action_kouhyou_detail_004_kani=true&JigyosyoCd=2460590454-00&ServiceCd=130&Type=search", "url2": "https://kango-mikazuki.com" }, "geometry": { "type": "Point", "coordinates": [ 136.466628500000013, 34.7205197 ] } },
{ "type": "Feature", "properties": { "内容": "訪問看護ステーション　ここな【訪問看護】三重県津市垂水1393番地2クローバー102", "url": "https://www.kaigokensaku.mhlw.go.jp/24/index.php?action_kouhyou_detail_004_kani=true&JigyosyoCd=2460590470-00&ServiceCd=130&Type=search", "url2": null }, "geometry": { "type": "Point", "coordinates": [ 136.506356932838145, 34.684782928986323 ] } },
{ "type": "Feature", "properties": { "内容": "藤田医科大学訪問看護ななくり【訪問看護】津市東丸之内4-21", "url": "https://www.kaigokensaku.mhlw.go.jp/24/index.php?action_kouhyou_detail_004_kani=true&JigyosyoCd=2460590355-00&ServiceCd=130&Type=search", "url2": "https://nanakuri.fujita-hu.ac.jp" }, "geometry": { "type": "Point", "coordinates": [ 136.51030472432862, 34.716035529205875 ] } },
{ "type": "Feature", "properties": { "内容": "津中央訪問看護ステーションシルバーケア豊壽園【訪問看護】三重県津市本町26番地13号", "url": "https://www.kaigokensaku.mhlw.go.jp/24/index.php?action_kouhyou_detail_004_kani=true&JigyosyoCd=2460590280-00&ServiceCd=130&Type=search", "url2": "https://www.sensin.or.jp" }, "geometry": { "type": "Point", "coordinates": [ 136.508850199999983, 34.7120249 ] } },
{ "type": "Feature", "properties": { "内容": "三重県看護協会訪問看護ステーション　なでしこ津【訪問看護】三重県津市森町2019番地7", "url": "https://www.kaigokensaku.mhlw.go.jp/24/index.php?action_kouhyou_detail_004_kani=true&JigyosyoCd=2460590033-00&ServiceCd=130&Type=search", "url2": "http://www.mie-nurse.or.jp" }, "geometry": { "type": "Point", "coordinates": [ 136.423941499999955, 34.6846099 ] } },
{ "type": "Feature", "properties": { "内容": "訪問看護リハビリステーション桜Tsu【訪問看護】三重県津市柳山津興630-3", "url": "https://www.kaigokensaku.mhlw.go.jp/24/index.php?action_kouhyou_detail_004_kani=true&JigyosyoCd=2460590389-00&ServiceCd=130&Type=search", "url2": "http://www.redglove.co.jp/" }, "geometry": { "type": "Point", "coordinates": [ 136.5178706, 34.7074964 ] } },
{ "type": "Feature", "properties": { "内容": "芹の里訪問看護ステーション【訪問看護】三重県津市久居井戸山町707-3芹の里クリニック", "url": "https://www.kaigokensaku.mhlw.go.jp/24/index.php?action_kouhyou_detail_004_kani=true&JigyosyoCd=2460690031-00&ServiceCd=130&Type=search", "url2": "https://seri-clinic.jp" }, "geometry": { "type": "Point", "coordinates": [ 136.482963585180642, 34.668566036077166 ] } },
{ "type": "Feature", "properties": { "内容": "看護クラーク津【訪問看護】三重県津市上弁財町19-3", "url": "https://www.kaigokensaku.mhlw.go.jp/24/index.php?action_kouhyou_detail_004_kani=true&JigyosyoCd=2460590678-00&ServiceCd=130&Type=search", "url2": "https://cuc-hospice.com/" }, "geometry": { "type": "Point", "coordinates": [ 136.5084406, 34.7017739 ] } },
{ "type": "Feature", "properties": { "内容": "みんなのかかりつけ訪問看護ステーション津（こころ専門）【訪問看護】三重県津市久居本町1458ダイヤモンドマンション久居本町303号室", "url": "https://www.kaigokensaku.mhlw.go.jp/24/index.php?action_kouhyou_detail_004_kani=true&JigyosyoCd=2460590611-00&ServiceCd=130&Type=search", "url2": "https://kakaritsuke.co.jp/" }, "geometry": { "type": "Point", "coordinates": [ 136.470949099999984, 34.6723222 ] } },
{ "type": "Feature", "properties": { "内容": "訪問看護ステーション福寿草【訪問看護】津市あのつ台４丁目６番地１", "url": "https://www.kaigokensaku.mhlw.go.jp/24/index.php?action_kouhyou_detail_004_kani=true&JigyosyoCd=2460590116-00&ServiceCd=130&Type=search", "url2": null }, "geometry": { "type": "Point", "coordinates": [ 136.4976739, 34.7899438 ] } },
{ "type": "Feature", "properties": { "内容": "訪問看護・リハビリステーション　サンヒルズ【訪問看護】三重県津市一身田上津部田1424Annex31", "url": "https://www.kaigokensaku.mhlw.go.jp/24/index.php?action_kouhyou_detail_004_kani=true&JigyosyoCd=2460590546-00&ServiceCd=130&Type=search", "url2": "https://www.sunhills-garden.jp/" }, "geometry": { "type": "Point", "coordinates": [ 136.498852800000037, 34.7427826 ] } },
{ "type": "Feature", "properties": { "内容": "訪問看護ステーション「ワークス」【訪問看護】三重県津市久居中町281番地の２", "url": "https://www.kaigokensaku.mhlw.go.jp/24/index.php?action_kouhyou_detail_004_kani=true&JigyosyoCd=2460590272-00&ServiceCd=130&Type=search", "url2": null }, "geometry": { "type": "Point", "coordinates": [ 136.4705957, 34.67742 ] } },
{ "type": "Feature", "properties": { "内容": "P5訪問看護リハビリセンター【訪問看護】三重県津市片田新町54-102D", "url": "https://www.kaigokensaku.mhlw.go.jp/24/index.php?action_kouhyou_detail_004_kani=true&JigyosyoCd=2460590660-00&ServiceCd=130&Type=search", "url2": "https://p5-inc.jimdofree.com/" }, "geometry": { "type": "Point", "coordinates": [ 136.440674, 34.7021363 ] } },
{ "type": "Feature", "properties": { "内容": "訪問看護・リハビリステーション　三つ葉【訪問看護】三重県津市高茶屋七丁目8-19", "url": "https://www.kaigokensaku.mhlw.go.jp/24/index.php?action_kouhyou_detail_004_kani=true&JigyosyoCd=2460590447-00&ServiceCd=130&Type=search", "url2": null }, "geometry": { "type": "Point", "coordinates": [ 136.498969314334062, 34.674741767309939 ] } },
{ "type": "Feature", "properties": { "内容": "株式会社N・フィールド　訪問看護ステーションデューン津【訪問看護】三重県津市大谷町276-5ネクストビル4階", "url": "https://www.kaigokensaku.mhlw.go.jp/24/index.php?action_kouhyou_detail_004_kani=true&JigyosyoCd=2460590397-00&ServiceCd=130&Type=search", "url2": "tsu@nfield.co.jp" }, "geometry": { "type": "Point", "coordinates": [ 136.5097226, 34.7351626 ] } },
{ "type": "Feature", "properties": { "内容": "訪問看護ステーションこころの杜【訪問看護】三重県津市藤方2138番地24", "url": "https://www.kaigokensaku.mhlw.go.jp/24/index.php?action_kouhyou_detail_004_kani=true&JigyosyoCd=2460590686-00&ServiceCd=130&Type=search", "url2": null }, "geometry": { "type": "Point", "coordinates": [ 136.5152278, 34.6943061 ] } },
{ "type": "Feature", "properties": { "内容": "訪問看護のスウィートナース津【訪問看護】中河原西興2051", "url": "https://www.kaigokensaku.mhlw.go.jp/24/index.php?action_kouhyou_detail_004_kani=true&JigyosyoCd=2460590371-00&ServiceCd=130&Type=search", "url2": "https://www.sweet-nurse.ne.jp" }, "geometry": { "type": "Point", "coordinates": [ 136.5181713, 34.7248682 ] } },
{ "type": "Feature", "properties": { "内容": "Resora訪問看護リハビリステーション津【訪問看護】豊が丘3丁目25番1号ネオポリスビル2階", "url": "https://www.kaigokensaku.mhlw.go.jp/24/index.php?action_kouhyou_detail_004_kani=true&JigyosyoCd=2460590439-00&ServiceCd=130&Type=search", "url2": "http://www.resora-net.com" }, "geometry": { "type": "Point", "coordinates": [ 136.468752646618611, 34.805564895696222 ] } },
{ "type": "Feature", "properties": { "内容": "訪問看護ステーション　スマイル津【訪問看護】三重県津市柳山津興369-66", "url": "https://www.kaigokensaku.mhlw.go.jp/24/index.php?action_kouhyou_detail_004_kani=true&JigyosyoCd=2460590645-00&ServiceCd=130&Type=search", "url2": "https://smiletsu.com/" }, "geometry": { "type": "Point", "coordinates": [ 136.5207991, 34.7073941 ] } },
{ "type": "Feature", "properties": { "内容": "津地区医師会訪問看護ステーション【訪問看護】津市島崎町97番1津地区医師会館2階", "url": "https://www.kaigokensaku.mhlw.go.jp/24/index.php?action_kouhyou_detail_004_kani=true&JigyosyoCd=2460590017-00&ServiceCd=130&Type=search", "url2": "http://www.tsu-med.jp/" }, "geometry": { "type": "Point", "coordinates": [ 136.522008562565588, 34.731110750571887 ] } },
{ "type": "Feature", "properties": { "内容": "笑みたす　訪問看護ステーション【訪問看護】三重県津市大倉4-23", "url": "https://www.kaigokensaku.mhlw.go.jp/24/index.php?action_kouhyou_detail_004_kani=true&JigyosyoCd=2460590322-00&ServiceCd=130&Type=search", "url2": "https://emitas.net" }, "geometry": { "type": "Point", "coordinates": [ 136.5074059, 34.7010728 ] } },
{ "type": "Feature", "properties": { "内容": "三重県立一志病院【訪問看護】三重県津市白山町南家城616", "url": "https://www.kaigokensaku.mhlw.go.jp/24/index.php?action_kouhyou_detail_004_kani=true&JigyosyoCd=2410515106-00&ServiceCd=130&Type=search", "url2": "http://www.pref.mie.lg.jp/IHOS/HP/" }, "geometry": { "type": "Point", "coordinates": [ 136.31406590000006, 34.6256934 ] } },
{ "type": "Feature", "properties": { "内容": "訪問看護ステーションtetote【訪問看護】三重県津市久居新町2812ウィズハピネス新町101", "url": "https://www.kaigokensaku.mhlw.go.jp/24/index.php?action_kouhyou_detail_004_kani=true&JigyosyoCd=2460590561-00&ServiceCd=130&Type=search", "url2": "https://www.tsuhoukan-tetote.com" }, "geometry": { "type": "Point", "coordinates": [ 136.482410499999986, 34.6844254 ] } },
{ "type": "Feature", "properties": { "内容": "訪問看護ステーション　ほたるみえ【訪問看護】三重県津市乙部2112-1メッセウ常2F", "url": "https://www.kaigokensaku.mhlw.go.jp/24/index.php?action_kouhyou_detail_004_kani=true&JigyosyoCd=2460590074-00&ServiceCd=130&Type=search", "url2": "http://www.generous.co.jp" }, "geometry": { "type": "Point", "coordinates": [ 136.515796928645841, 34.721625936152037 ] } },
{ "type": "Feature", "properties": { "内容": "ハピナス訪問看護ステーション【訪問看護】ときわ５丁目４－５０", "url": "https://www.kaigokensaku.mhlw.go.jp/24/index.php?action_kouhyou_detail_004_kani=true&JigyosyoCd=2460290246-00&ServiceCd=130&Type=search", "url2": "https://www．happylife7788.com" }, "geometry": { "type": "Point", "coordinates": [ 136.5998485, 34.9615257 ] } },
{ "type": "Feature", "properties": { "内容": "訪問看護　浜っこステーション【訪問看護】三重県四日市市富田浜町26番14号", "url": "https://www.kaigokensaku.mhlw.go.jp/24/index.php?action_kouhyou_detail_004_kani=true&JigyosyoCd=2460290048-00&ServiceCd=130&Type=search", "url2": "http://www.tomidahama.jp" }, "geometry": { "type": "Point", "coordinates": [ 136.6517569, 34.9981112 ] } },
{ "type": "Feature", "properties": { "内容": "訪問看護ステーション　プロケア【訪問看護】三重県四日市市天カ須賀４丁目7-28２F", "url": "https://www.kaigokensaku.mhlw.go.jp/24/index.php?action_kouhyou_detail_004_kani=true&JigyosyoCd=2460290667-00&ServiceCd=130&Type=search", "url2": "htttp://ｗｗｗ.procere-kangoc.om" }, "geometry": { "type": "Point", "coordinates": [ 136.669745699999964, 35.015062200000024 ] } },
{ "type": "Feature", "properties": { "内容": "アクア大治田訪問看護【訪問看護】三重県四日市市大治田3丁目1番32号", "url": "https://www.kaigokensaku.mhlw.go.jp/24/index.php?action_kouhyou_detail_004_kani=true&JigyosyoCd=2460290675-00&ServiceCd=130&Type=search", "url2": null }, "geometry": { "type": "Point", "coordinates": [ 136.5990635, 34.9280971 ] } },
{ "type": "Feature", "properties": { "内容": "訪問看護ステーション夢眠よっかいち【訪問看護】滝川町13番3号", "url": "https://www.kaigokensaku.mhlw.go.jp/24/index.php?action_kouhyou_detail_004_kani=true&JigyosyoCd=2460290709-00&ServiceCd=130&Type=search", "url2": "http://muminhome.jp/yokkaichi/" }, "geometry": { "type": "Point", "coordinates": [ 136.624081600000011, 34.9753786 ] } },
{ "type": "Feature", "properties": { "内容": "訪問看護ステーションホワイトエイト【訪問看護】三重県四日市市高花平2丁目29-10", "url": "https://www.kaigokensaku.mhlw.go.jp/24/index.php?action_kouhyou_detail_004_kani=true&JigyosyoCd=2460290741-00&ServiceCd=130&Type=search", "url2": null }, "geometry": { "type": "Point", "coordinates": [ 136.5522449, 34.9549729 ] } },
{ "type": "Feature", "properties": { "内容": "訪問看護ステーションしらゆりケア【訪問看護】三重県四日市市日永西2-9-11", "url": "https://www.kaigokensaku.mhlw.go.jp/24/index.php?action_kouhyou_detail_004_kani=true&JigyosyoCd=2460290287-00&ServiceCd=130&Type=search", "url2": "http://planb-shirayuri.com/" }, "geometry": { "type": "Point", "coordinates": [ 136.598727104744739, 34.95348914741809 ] } },
{ "type": "Feature", "properties": { "内容": "訪問看護ステーションしらゆりケア四日市北【訪問看護】あかつき台3丁目1-197", "url": "https://www.kaigokensaku.mhlw.go.jp/24/index.php?action_kouhyou_detail_004_kani=true&JigyosyoCd=2460290600-00&ServiceCd=130&Type=search", "url2": "https://planb-shirayuri.com/" }, "geometry": { "type": "Point", "coordinates": [ 136.60194519999996, 35.029192 ] } },
{ "type": "Feature", "properties": { "内容": "訪問看護リハステーション春【訪問看護】三重県四日市市尾平町1580-1ロイヤルコート211F", "url": "https://www.kaigokensaku.mhlw.go.jp/24/index.php?action_kouhyou_detail_004_kani=true&JigyosyoCd=2460290501-00&ServiceCd=130&Type=search", "url2": "https://www.homon-haru.jp/" }, "geometry": { "type": "Point", "coordinates": [ 136.584000229471258, 34.978442408019149 ] } },
{ "type": "Feature", "properties": { "内容": "訪問看護ステーション　プロセスケア【訪問看護】三重県四日市市室山町1655番地17", "url": "https://www.kaigokensaku.mhlw.go.jp/24/index.php?action_kouhyou_detail_004_kani=true&JigyosyoCd=2460290105-00&ServiceCd=130&Type=search", "url2": "http://process-care.co.jp" }, "geometry": { "type": "Point", "coordinates": [ 136.58754621972426, 34.97454875524592 ] } },
{ "type": "Feature", "properties": { "内容": "訪問看護リベル　四日市【訪問看護】三重県四日市市赤堀南町2-25", "url": "https://www.kaigokensaku.mhlw.go.jp/24/index.php?action_kouhyou_detail_004_kani=true&JigyosyoCd=2460290758-00&ServiceCd=130&Type=search", "url2": "https://www.libercare.jp/location/hospice/yokkaichi/" }, "geometry": { "type": "Point", "coordinates": [ 136.611380350262493, 34.957092576044651 ] } },
{ "type": "Feature", "properties": { "内容": "訪問看護リベル　四日市あさけ【訪問看護】三重県四日市市下さざらい町11-8", "url": "https://www.kaigokensaku.mhlw.go.jp/24/index.php?action_kouhyou_detail_004_kani=true&JigyosyoCd=2460290766-00&ServiceCd=130&Type=search", "url2": "https://www.libercare.jp/location/hospice/yokkaichi-asake/" }, "geometry": { "type": "Point", "coordinates": [ 136.641500689549247, 35.019984920399594 ] } },
{ "type": "Feature", "properties": { "内容": "ナースカンパニー【訪問看護】三重県四日市市楠町北五味塚２３５０２階", "url": "https://www.kaigokensaku.mhlw.go.jp/24/index.php?action_kouhyou_detail_004_kani=true&JigyosyoCd=2460290154-00&ServiceCd=130&Type=search", "url2": "http://hp.kaipoke.biz/g2d/" }, "geometry": { "type": "Point", "coordinates": [ 136.638953509487692, 34.914018025096638 ] } },
{ "type": "Feature", "properties": { "内容": "サンライズ訪問看護ステーション【訪問看護】三重県四日市市小杉町30番地サンヴィレッジ小杉B-102", "url": "https://www.kaigokensaku.mhlw.go.jp/24/index.php?action_kouhyou_detail_004_kani=true&JigyosyoCd=2460290428-00&ServiceCd=130&Type=search", "url2": "https://sunrise-kango.com" }, "geometry": { "type": "Point", "coordinates": [ 136.606982799999969, 34.9953557 ] } },
{ "type": "Feature", "properties": { "内容": "訪問看護ステーション　シェルホーム【訪問看護】泊山崎町10-1", "url": "https://www.kaigokensaku.mhlw.go.jp/24/index.php?action_kouhyou_detail_004_kani=true&JigyosyoCd=2460290642-00&ServiceCd=130&Type=search", "url2": null }, "geometry": { "type": "Point", "coordinates": [ 136.593643715205388, 34.942289406309506 ] } },
{ "type": "Feature", "properties": { "内容": "訪問看護リハビリステーションはぁちゃん四日市【訪問看護】三重県四日市市ときわ3丁目6-1ときわ事務所103", "url": "https://www.kaigokensaku.mhlw.go.jp/24/index.php?action_kouhyou_detail_004_kani=true&JigyosyoCd=2460290683-00&ServiceCd=130&Type=search", "url2": "https://fjstar-kuwana.studio.site/" }, "geometry": { "type": "Point", "coordinates": [ 136.5948765, 34.964464300000024 ] } },
{ "type": "Feature", "properties": { "内容": "よいかん四日市【訪問看護】三重県四日市市松寺二丁目5番18号", "url": "https://www.kaigokensaku.mhlw.go.jp/24/index.php?action_kouhyou_detail_004_kani=true&JigyosyoCd=2460290394-00&ServiceCd=130&Type=search", "url2": "bond-ym.co" }, "geometry": { "type": "Point", "coordinates": [ 136.659079902328671, 35.021953999397603 ] } },
{ "type": "Feature", "properties": { "内容": "指定訪問看護事業所ぶどうの家【訪問看護】三重県四日市市あかつき台二丁目1-15", "url": "https://www.kaigokensaku.mhlw.go.jp/24/index.php?action_kouhyou_detail_004_kani=true&JigyosyoCd=2460290121-00&ServiceCd=130&Type=search", "url2": "https://www.budouno-ie.com" }, "geometry": { "type": "Point", "coordinates": [ 136.60215740000001, 35.0276126 ] } },
{ "type": "Feature", "properties": { "内容": "ときわ訪問看護ステーション【訪問看護】四日市市城北町8番1号ウェルリハキッズ主体会　2階", "url": "https://www.kaigokensaku.mhlw.go.jp/24/index.php?action_kouhyou_detail_004_kani=true&JigyosyoCd=2460290022-00&ServiceCd=130&Type=search", "url2": "http://www.syutaikai.jp" }, "geometry": { "type": "Point", "coordinates": [ 136.611767905032366, 34.965059688622851 ] } },
{ "type": "Feature", "properties": { "内容": "リウォーク新正　訪問看護リハビリステーション【訪問看護】新正２丁目４－２８", "url": "https://www.kaigokensaku.mhlw.go.jp/24/index.php?action_kouhyou_detail_004_kani=true&JigyosyoCd=2460290238-00&ServiceCd=130&Type=search", "url2": "http://rewalk-nrs.jimdo.com/" }, "geometry": { "type": "Point", "coordinates": [ 136.620329800000036, 34.9591018 ] } },
{ "type": "Feature", "properties": { "内容": "ナーシングホームもも四日市【訪問看護】三重県四日市市朝明町441番地の1", "url": "https://www.kaigokensaku.mhlw.go.jp/24/index.php?action_kouhyou_detail_004_kani=true&JigyosyoCd=2460290139-00&ServiceCd=130&Type=search", "url2": "https://www.momo3.net/" }, "geometry": { "type": "Point", "coordinates": [ 136.589617, 35.0394746 ] } },
{ "type": "Feature", "properties": { "内容": "セントケア訪問看護ステーション四日市【訪問看護】三重県四日市市新正4丁目7番5", "url": "https://www.kaigokensaku.mhlw.go.jp/24/index.php?action_kouhyou_detail_004_kani=true&JigyosyoCd=2460290469-00&ServiceCd=130&Type=search", "url2": null }, "geometry": { "type": "Point", "coordinates": [ 136.616714300000012, 34.9556164 ] } },
{ "type": "Feature", "properties": { "内容": "ゴールドエイジ訪問看護ステーション【訪問看護】三重県四日市市城西町6－13ゴールドエイジ城西", "url": "https://www.kaigokensaku.mhlw.go.jp/24/index.php?action_kouhyou_detail_004_kani=true&JigyosyoCd=2460290147-00&ServiceCd=130&Type=search", "url2": "http://goldage.co.jp" }, "geometry": { "type": "Point", "coordinates": [ 136.603391227230873, 34.964054958101833 ] } },
{ "type": "Feature", "properties": { "内容": "みえ医療福祉生協　訪問看護ステーションいくわ【訪問看護】四日市市生桑町１４５５", "url": "https://www.kaigokensaku.mhlw.go.jp/24/index.php?action_kouhyou_detail_004_kani=true&JigyosyoCd=2460290170-00&ServiceCd=130&Type=search", "url2": "http://www.y-medico.com" }, "geometry": { "type": "Point", "coordinates": [ 136.596395700000016, 34.9797794 ] } },
{ "type": "Feature", "properties": { "内容": "一燈訪問看護ステーション【訪問看護】笹川3丁目141-3", "url": "https://www.kaigokensaku.mhlw.go.jp/24/index.php?action_kouhyou_detail_004_kani=true&JigyosyoCd=2460290527-00&ServiceCd=130&Type=search", "url2": "https://www.hitoakari0401.com/" }, "geometry": { "type": "Point", "coordinates": [ 136.5705696, 34.9514325 ] } },
{ "type": "Feature", "properties": { "内容": "みたき在宅ケアセンター【訪問看護】三重県四日市市生桑町菰池４５８－１", "url": "https://www.kaigokensaku.mhlw.go.jp/24/index.php?action_kouhyou_detail_004_kani=true&JigyosyoCd=2460290089-00&ServiceCd=130&Type=search", "url2": "https://mitaki.or.jp" }, "geometry": { "type": "Point", "coordinates": [ 136.603479367381226, 34.980644166218724 ] } },
{ "type": "Feature", "properties": { "内容": "訪問看護ステーションむうぎわら家【訪問看護】三重県四日市市松寺1丁目5番29号むぎわら整体２階", "url": "https://www.kaigokensaku.mhlw.go.jp/24/index.php?action_kouhyou_detail_004_kani=true&JigyosyoCd=2460290717-00&ServiceCd=130&Type=search", "url2": "https://mugiwaraya-homecare.com/" }, "geometry": { "type": "Point", "coordinates": [ 136.656124225794997, 35.020892700704614 ] } },
{ "type": "Feature", "properties": { "内容": "訪問看護リハビリステーションGreen【訪問看護】三重県四日市市釆女町2997-122", "url": "https://www.kaigokensaku.mhlw.go.jp/24/index.php?action_kouhyou_detail_004_kani=true&JigyosyoCd=2460290584-00&ServiceCd=130&Type=search", "url2": "https://www.houkangreen.com/" }, "geometry": { "type": "Point", "coordinates": [ 136.5651923, 34.9146835 ] } },
{ "type": "Feature", "properties": { "内容": "訪問看護ステーションオリーブ【訪問看護】三重県四日市市小林町3018-23", "url": "https://www.kaigokensaku.mhlw.go.jp/24/index.php?action_kouhyou_detail_004_kani=true&JigyosyoCd=2460290212-00&ServiceCd=130&Type=search", "url2": "kaigo-olive@ray.ocn.ne.jp" }, "geometry": { "type": "Point", "coordinates": [ 136.544970799999987, 34.957423438104406 ] } },
{ "type": "Feature", "properties": { "内容": "訪問看護ステーション　にっこり山城【訪問看護】三重県四日市市山城町1014", "url": "https://www.kaigokensaku.mhlw.go.jp/24/index.php?action_kouhyou_detail_004_kani=true&JigyosyoCd=2460290626-00&ServiceCd=130&Type=search", "url2": "nikkoriyamajou.com" }, "geometry": { "type": "Point", "coordinates": [ 136.585862699999979, 35.0352233 ] } },
{ "type": "Feature", "properties": { "内容": "あるふぁ訪問看護ST【訪問看護】三重県四日市市楠町南五味塚160番地４", "url": "https://www.kaigokensaku.mhlw.go.jp/24/index.php?action_kouhyou_detail_004_kani=true&JigyosyoCd=2460290592-00&ServiceCd=130&Type=search", "url2": "https://www.alfahoukanst.jp" }, "geometry": { "type": "Point", "coordinates": [ 136.634484, 34.9052283 ] } },
{ "type": "Feature", "properties": { "内容": "ケアヒルズ訪問看護ステーション【訪問看護】日永西３丁目３－２０田中ビル１０１", "url": "https://www.kaigokensaku.mhlw.go.jp/24/index.php?action_kouhyou_detail_004_kani=true&JigyosyoCd=2460290733-00&ServiceCd=130&Type=search", "url2": "https://care-hills.com" }, "geometry": { "type": "Point", "coordinates": [ 136.596935300000013, 34.9515678 ] } },
{ "type": "Feature", "properties": { "内容": "訪問看護ステーションえいむ【訪問看護】南松本町2番地1", "url": "https://www.kaigokensaku.mhlw.go.jp/24/index.php?action_kouhyou_detail_004_kani=true&JigyosyoCd=2460290493-00&ServiceCd=130&Type=search", "url2": "http://aim-mie.com/" }, "geometry": { "type": "Point", "coordinates": [ 136.5802423, 34.9687612 ] } },
{ "type": "Feature", "properties": { "内容": "みんなのかかりつけ訪問看護ステーション四日市【訪問看護】芝田一丁目5番8号シバタコーポラス303", "url": "https://www.kaigokensaku.mhlw.go.jp/24/index.php?action_kouhyou_detail_004_kani=true&JigyosyoCd=2460290550-00&ServiceCd=130&Type=search", "url2": "https://kakaritsuke.co.jp/" }, "geometry": { "type": "Point", "coordinates": [ 135.4974276, 34.7064092 ] } },
{ "type": "Feature", "properties": { "内容": "訪問看護ＳＮ’Ｕｐ（スナップ）【訪問看護】三重県四日市市安島二丁目11-8荒木ハイツ１階", "url": "https://www.kaigokensaku.mhlw.go.jp/24/index.php?action_kouhyou_detail_004_kani=true&JigyosyoCd=2460290451-00&ServiceCd=130&Type=search", "url2": "www.kureha.group" }, "geometry": { "type": "Point", "coordinates": [ 136.614319262565601, 34.970314575209734 ] } },
{ "type": "Feature", "properties": { "内容": "訪問看護リハビリステーション　あすか【訪問看護】三重県四日市市赤堀南町6-7", "url": "https://www.kaigokensaku.mhlw.go.jp/24/index.php?action_kouhyou_detail_004_kani=true&JigyosyoCd=2460290113-00&ServiceCd=130&Type=search", "url2": "http://aska-kaigo.jp" }, "geometry": { "type": "Point", "coordinates": [ 136.610550342930537, 34.957994225735739 ] } },
{ "type": "Feature", "properties": { "内容": "医心館訪問看護ステーション四日市Ⅱ【訪問看護】三重県四日市市芝田一丁目1番20号", "url": "https://www.kaigokensaku.mhlw.go.jp/24/index.php?action_kouhyou_detail_004_kani=true&JigyosyoCd=2460290519-00&ServiceCd=130&Type=search", "url2": null }, "geometry": { "type": "Point", "coordinates": [ 136.6085568, 34.9675058 ] } },
{ "type": "Feature", "properties": { "内容": "訪問看護ステーション　ベル・ティアラ【訪問看護】三重県四日市市九の城町4-23", "url": "https://www.kaigokensaku.mhlw.go.jp/24/index.php?action_kouhyou_detail_004_kani=true&JigyosyoCd=2460290725-00&ServiceCd=130&Type=search", "url2": "https://belltiara.com/" }, "geometry": { "type": "Point", "coordinates": [ 136.6145655, 34.9644024 ] } },
{ "type": "Feature", "properties": { "内容": "訪問看護ステーションくす【訪問看護】三重県四日市市楠町北五味塚2173番地１", "url": "https://www.kaigokensaku.mhlw.go.jp/24/index.php?action_kouhyou_detail_004_kani=true&JigyosyoCd=2460290352-00&ServiceCd=130&Type=search", "url2": null }, "geometry": { "type": "Point", "coordinates": [ 136.626227597053941, 34.911572054404431 ] } },
{ "type": "Feature", "properties": { "内容": "四日市医師会訪問看護ステーション【訪問看護】三重県四日市市西新地14-20", "url": "https://www.kaigokensaku.mhlw.go.jp/24/index.php?action_kouhyou_detail_004_kani=true&JigyosyoCd=2460290014-00&ServiceCd=130&Type=search", "url2": "http://www.yokkaichi-med.com" }, "geometry": { "type": "Point", "coordinates": [ 136.62052360000007, 34.9706226 ] } },
{ "type": "Feature", "properties": { "内容": "ケアーズ訪問看護リハビリステーションあやめ【訪問看護】三重県四日市市新正2丁目8-7-101ハープハイツカトウ１０１", "url": "https://www.kaigokensaku.mhlw.go.jp/24/index.php?action_kouhyou_detail_004_kani=true&JigyosyoCd=2460290303-00&ServiceCd=130&Type=search", "url2": null }, "geometry": { "type": "Point", "coordinates": [ 136.618546566270453, 34.958541761505906 ] } },
{ "type": "Feature", "properties": { "内容": "訪問看護ステーション想桜【訪問看護】三重県四日市市笹川三丁目48番地", "url": "https://www.kaigokensaku.mhlw.go.jp/24/index.php?action_kouhyou_detail_004_kani=true&JigyosyoCd=2460290543-00&ServiceCd=130&Type=search", "url2": "https://www.kohbun.com" }, "geometry": { "type": "Point", "coordinates": [ 136.574503099999987, 34.9518903 ] } },
{ "type": "Feature", "properties": { "内容": "訪問看護ステーションこころ【訪問看護】三重県四日市市東坂部町53番地1", "url": "https://www.kaigokensaku.mhlw.go.jp/24/index.php?action_kouhyou_detail_004_kani=true&JigyosyoCd=2460290576-00&ServiceCd=130&Type=search", "url2": "https://cocoro-hs-group.com" }, "geometry": { "type": "Point", "coordinates": [ 136.5949013, 34.993205100000011 ] } },
{ "type": "Feature", "properties": { "内容": "独立行政法人地域医療機能推進機構　四日市羽津医療センター附属訪問看護ステーション【訪問看護】四日市市羽津山町１０番８号", "url": "https://www.kaigokensaku.mhlw.go.jp/24/index.php?action_kouhyou_detail_004_kani=true&JigyosyoCd=2460290196-00&ServiceCd=130&Type=search", "url2": "http://www.hazu-yokkaichihp.jp/about/bumon/kizuna.html" }, "geometry": { "type": "Point", "coordinates": [ 136.622595307379129, 34.989795375795502 ] } },
{ "type": "Feature", "properties": { "内容": "訪問看護ステーションひだか【訪問看護】三重県伊勢市桜木町５５-１", "url": "https://www.kaigokensaku.mhlw.go.jp/24/index.php?action_kouhyou_detail_004_kani=true&JigyosyoCd=2460890243-00&ServiceCd=130&Type=search", "url2": "https://hidaka-kango.jimdofree.com/" }, "geometry": { "type": "Point", "coordinates": [ 136.717529514120855, 34.473058831354429 ] } },
{ "type": "Feature", "properties": { "内容": "訪問看護事業所はだし【訪問看護】三重県伊勢市常磐2丁目3-18　エステートステーションビルⅡ3階", "url": "https://www.kaigokensaku.mhlw.go.jp/24/index.php?action_kouhyou_detail_004_kani=true&JigyosyoCd=2460890250-00&ServiceCd=130&Type=search", "url2": null }, "geometry": { "type": "Point", "coordinates": [ 136.696444316090037, 34.49387874973079 ] } },
{ "type": "Feature", "properties": { "内容": "訪問看護ステーションあやめ伊勢【訪問看護】三重県伊勢市御薗町王中島738-20コーポリヨム　2B号室", "url": "https://www.kaigokensaku.mhlw.go.jp/24/index.php?action_kouhyou_detail_004_kani=true&JigyosyoCd=2460890268-00&ServiceCd=130&Type=search", "url2": "https://firstnurse.co.jp/" }, "geometry": { "type": "Point", "coordinates": [ 136.719177800000011, 34.5163139 ] } },
{ "type": "Feature", "properties": { "内容": "スマイルホーム伊勢訪問看護事業所【訪問看護】三重県伊勢市本町16-5", "url": "https://www.kaigokensaku.mhlw.go.jp/24/index.php?action_kouhyou_detail_004_kani=true&JigyosyoCd=2460890185-00&ServiceCd=130&Type=search", "url2": "ftp.alive-grp.co.jp" }, "geometry": { "type": "Point", "coordinates": [ 136.7048685, 34.4891202 ] } },
{ "type": "Feature", "properties": { "内容": "訪問看護ステーションなごみ【訪問看護】三重県伊勢市宮町2丁目4-14", "url": "https://www.kaigokensaku.mhlw.go.jp/24/index.php?action_kouhyou_detail_004_kani=true&JigyosyoCd=2460890193-00&ServiceCd=130&Type=search", "url2": "http://npo-nagomi.com" }, "geometry": { "type": "Point", "coordinates": [ 136.698550800000021, 34.495704 ] } },
{ "type": "Feature", "properties": { "内容": "nano訪問看護ステーション【訪問看護】三重県伊勢市小俣町湯田44番地", "url": "https://www.kaigokensaku.mhlw.go.jp/24/index.php?action_kouhyou_detail_004_kani=true&JigyosyoCd=2460890276-00&ServiceCd=130&Type=search", "url2": null }, "geometry": { "type": "Point", "coordinates": [ 136.6566875, 34.5107558 ] } },
{ "type": "Feature", "properties": { "内容": "一般社団法人　伊勢地区医師会訪問看護ステーション【訪問看護】三重県伊勢市勢田町６１３－１２", "url": "https://www.kaigokensaku.mhlw.go.jp/24/index.php?action_kouhyou_detail_004_kani=true&JigyosyoCd=2460890011-00&ServiceCd=130&Type=search", "url2": "http://www.ise-med.or.jp" }, "geometry": { "type": "Point", "coordinates": [ 136.710238600000025, 34.4810292 ] } },
{ "type": "Feature", "properties": { "内容": "訪問看護ステーションかがせお【訪問看護】三重県伊勢市藤里町338-1", "url": "https://www.kaigokensaku.mhlw.go.jp/24/index.php?action_kouhyou_detail_004_kani=true&JigyosyoCd=2460890102-00&ServiceCd=130&Type=search", "url2": null }, "geometry": { "type": "Point", "coordinates": [ 136.701626976105871, 34.472857186671504 ] } },
{ "type": "Feature", "properties": { "内容": "リハビリ訪問看護ステーション　あした葉【訪問看護】三重県伊勢市村松町4000番地", "url": "https://www.kaigokensaku.mhlw.go.jp/24/index.php?action_kouhyou_detail_004_kani=true&JigyosyoCd=2460890060-00&ServiceCd=130&Type=search", "url2": null }, "geometry": { "type": "Point", "coordinates": [ 136.685520900000029, 34.551196900000015 ] } },
{ "type": "Feature", "properties": { "内容": "訪問看護ステーション　まごのて【訪問看護】三重県伊勢市常磐2丁目9番21号", "url": "https://www.kaigokensaku.mhlw.go.jp/24/index.php?action_kouhyou_detail_004_kani=true&JigyosyoCd=2460890086-00&ServiceCd=130&Type=search", "url2": "http://www.mie-hewcoop.jp/" }, "geometry": { "type": "Point", "coordinates": [ 136.698304841660132, 34.491814566179535 ] } },
{ "type": "Feature", "properties": { "内容": "訪問看護リハビリステーション森伸【訪問看護】三重県伊勢市磯町1835-1", "url": "https://www.kaigokensaku.mhlw.go.jp/24/index.php?action_kouhyou_detail_004_kani=true&JigyosyoCd=2460890128-00&ServiceCd=130&Type=search", "url2": "http://www.morisin.co.jp/" }, "geometry": { "type": "Point", "coordinates": [ 136.685865799999988, 34.5129043 ] } },
{ "type": "Feature", "properties": { "内容": "医療法人社団愛敬会　山崎外科内科【訪問看護】伊勢市楠部町乙　77番地", "url": "https://www.kaigokensaku.mhlw.go.jp/24/index.php?action_kouhyou_detail_004_kani=true&JigyosyoCd=2410805630-00&ServiceCd=130&Type=search", "url2": "http//yamazaki-gekanaika.com" }, "geometry": { "type": "Point", "coordinates": [ 136.7293565, 34.4761665 ] } },
{ "type": "Feature", "properties": { "内容": "医療法人全心会伊勢ひかり病院訪問看護ステーション【訪問看護】三重県伊勢市御薗町高向810-1", "url": "https://www.kaigokensaku.mhlw.go.jp/24/index.php?action_kouhyou_detail_004_kani=true&JigyosyoCd=2460890136-00&ServiceCd=130&Type=search", "url2": "https://ise-hikari.com" }, "geometry": { "type": "Point", "coordinates": [ 136.698111295770332, 34.500325530247714 ] } },
{ "type": "Feature", "properties": { "内容": "髙見訪問看護ステーション【訪問看護】三重県伊勢市岡本1丁目16番31号", "url": "https://www.kaigokensaku.mhlw.go.jp/24/index.php?action_kouhyou_detail_004_kani=true&JigyosyoCd=2460890052-00&ServiceCd=130&Type=search", "url2": null }, "geometry": { "type": "Point", "coordinates": [ 136.711190863229405, 34.484450432971968 ] } },
{ "type": "Feature", "properties": { "内容": "海野訪問看護ステーション【訪問看護】三重県伊勢市常磐2丁目3-14ケアステーション海野", "url": "https://www.kaigokensaku.mhlw.go.jp/24/index.php?action_kouhyou_detail_004_kani=true&JigyosyoCd=2460890235-00&ServiceCd=130&Type=search", "url2": "https://unno-naika.com/" }, "geometry": { "type": "Point", "coordinates": [ 136.69585330000001, 34.493725800000021 ] } },
{ "type": "Feature", "properties": { "内容": "ナーシング伊勢【訪問看護】三重県伊勢市藤里町166-10", "url": "https://www.kaigokensaku.mhlw.go.jp/24/index.php?action_kouhyou_detail_004_kani=true&JigyosyoCd=2460890151-00&ServiceCd=130&Type=search", "url2": "http://www.technocare-mie.com/index.html" }, "geometry": { "type": "Point", "coordinates": [ 136.70123, 34.47071 ] } },
{ "type": "Feature", "properties": { "内容": "訪問看護リハビリステーション手のひら【訪問看護】三重県伊勢市上地町5112-4", "url": "https://www.kaigokensaku.mhlw.go.jp/24/index.php?action_kouhyou_detail_004_kani=true&JigyosyoCd=2462890076-00&ServiceCd=130&Type=search", "url2": "http://allchiiki.com/" }, "geometry": { "type": "Point", "coordinates": [ 136.6542485, 34.48128 ] } },
{ "type": "Feature", "properties": { "内容": "らしく訪問看護ステーション【訪問看護】三重県伊勢市岡本1丁目19番38号岡本テナント２F-A", "url": "https://www.kaigokensaku.mhlw.go.jp/24/index.php?action_kouhyou_detail_004_kani=true&JigyosyoCd=2460890227-00&ServiceCd=130&Type=search", "url2": "rashiku@rashiku-kango.jp" }, "geometry": { "type": "Point", "coordinates": [ 136.709966799999989, 34.4830962 ] } },
{ "type": "Feature", "properties": { "内容": "訪問看護リハビリステーション「ゆう」【訪問看護】三重県伊勢市上地町3102-6", "url": "https://www.kaigokensaku.mhlw.go.jp/24/index.php?action_kouhyou_detail_004_kani=true&JigyosyoCd=2460890078-00&ServiceCd=130&Type=search", "url2": "https://kaigo-yu.co.jp/" }, "geometry": { "type": "Point", "coordinates": [ 136.658573895154149, 34.503299162720033 ] } },
{ "type": "Feature", "properties": { "内容": "みなみ訪問看護リハビリステーション【訪問看護】三重県伊勢市御薗町長屋2161-1", "url": "https://www.kaigokensaku.mhlw.go.jp/24/index.php?action_kouhyou_detail_004_kani=true&JigyosyoCd=2460890169-00&ServiceCd=130&Type=search", "url2": "http://minamikango.com" }, "geometry": { "type": "Point", "coordinates": [ 136.71519248650813, 34.507969272361024 ] } },
{ "type": "Feature", "properties": { "内容": "訪問看護ステーション　ほたるいせ【訪問看護】伊勢市小俣町相合1271-1NursingHomeMARIMO", "url": "https://www.kaigokensaku.mhlw.go.jp/24/index.php?action_kouhyou_detail_004_kani=true&JigyosyoCd=2460890094-00&ServiceCd=130&Type=search", "url2": "https://www.generous.co.jp" }, "geometry": { "type": "Point", "coordinates": [ 136.659579729212879, 34.508483934125749 ] } },
{ "type": "Feature", "properties": { "内容": "田中訪問看護ステーション【訪問看護】伊勢市曽祢1丁目7-9", "url": "https://www.kaigokensaku.mhlw.go.jp/24/index.php?action_kouhyou_detail_004_kani=true&JigyosyoCd=2460890029-00&ServiceCd=130&Type=search", "url2": "https://www.isetanaka.jp/houmon.php" }, "geometry": { "type": "Point", "coordinates": [ 136.701504323032168, 34.492659876029741 ] } },
{ "type": "Feature", "properties": { "内容": "医療法人　西井医院【訪問看護】三重県松阪市曽原町811-1", "url": "https://www.kaigokensaku.mhlw.go.jp/24/index.php?action_kouhyou_detail_004_kani=true&JigyosyoCd=2410705988-00&ServiceCd=130&Type=search", "url2": "http://nishii-iin.com/" }, "geometry": { "type": "Point", "coordinates": [ 136.5173949, 34.6312518 ] } },
{ "type": "Feature", "properties": { "内容": "こども訪問看護ステーションmugi【訪問看護】伊勢寺町2800‐1", "url": "https://www.kaigokensaku.mhlw.go.jp/24/index.php?action_kouhyou_detail_004_kani=true&JigyosyoCd=2460790260-00&ServiceCd=130&Type=search", "url2": "https://mugi.life/houmon/" }, "geometry": { "type": "Point", "coordinates": [ 136.4576882, 34.5577909 ] } },
{ "type": "Feature", "properties": { "内容": "訪問看護ステーションあやめ松阪【訪問看護】高町465-5高町テナントB", "url": "https://www.kaigokensaku.mhlw.go.jp/24/index.php?action_kouhyou_detail_004_kani=true&JigyosyoCd=2460790302-00&ServiceCd=130&Type=search", "url2": "https://firstnurse.co.jp/" }, "geometry": { "type": "Point", "coordinates": [ 136.5515675, 34.5807052 ] } },
{ "type": "Feature", "properties": { "内容": "アクア松阪訪問看護【訪問看護】三重県松阪市駅部田町319アクアホーム松阪山室", "url": "https://www.kaigokensaku.mhlw.go.jp/24/index.php?action_kouhyou_detail_004_kani=true&JigyosyoCd=2460790351-00&ServiceCd=130&Type=search", "url2": null }, "geometry": { "type": "Point", "coordinates": [ 136.522911099999988, 34.5526314 ] } },
{ "type": "Feature", "properties": { "内容": "花はな訪問看護ステーション【訪問看護】小黒田町523-2ユーロハイツ102号", "url": "https://www.kaigokensaku.mhlw.go.jp/24/index.php?action_kouhyou_detail_004_kani=true&JigyosyoCd=2460790336-00&ServiceCd=130&Type=search", "url2": "https://smile-house.jp" }, "geometry": { "type": "Point", "coordinates": [ 136.5206393, 34.5577947 ] } },
{ "type": "Feature", "properties": { "内容": "ケアーズ訪問看護リハビリステーション松阪【訪問看護】駅部田町945番地", "url": "https://www.kaigokensaku.mhlw.go.jp/24/index.php?action_kouhyou_detail_004_kani=true&JigyosyoCd=2460790104-00&ServiceCd=130&Type=search", "url2": "http://kango-rihabiri.com/" }, "geometry": { "type": "Point", "coordinates": [ 136.52800179999997, 34.5510711 ] } },
{ "type": "Feature", "properties": { "内容": "ケアリー松阪垣鼻【訪問看護】垣鼻町573", "url": "https://www.kaigokensaku.mhlw.go.jp/24/index.php?action_kouhyou_detail_004_kani=true&JigyosyoCd=2460790385-00&ServiceCd=130&Type=search", "url2": "https://matsusaka-kaibana.carely-home.com" }, "geometry": { "type": "Point", "coordinates": [ 136.540231205696131, 34.56558245892348 ] } },
{ "type": "Feature", "properties": { "内容": "訪問看護ステーション「ハイジ」【訪問看護】三重県松阪市嬉野中川町832-1　ベルリード嬉野105号", "url": "https://www.kaigokensaku.mhlw.go.jp/24/index.php?action_kouhyou_detail_004_kani=true&JigyosyoCd=2460790146-00&ServiceCd=130&Type=search", "url2": null }, "geometry": { "type": "Point", "coordinates": [ 136.474165356932446, 34.635881608235337 ] } },
{ "type": "Feature", "properties": { "内容": "済生会松阪訪問看護ステーション【訪問看護】三重県松阪市朝日町一区15番地6済生会松阪総合病院内", "url": "https://www.kaigokensaku.mhlw.go.jp/24/index.php?action_kouhyou_detail_004_kani=true&JigyosyoCd=2460790153-00&ServiceCd=130&Type=search", "url2": "https://www.matsusaka.saiseikai.or.jp" }, "geometry": { "type": "Point", "coordinates": [ 136.537028272491369, 34.579843494180722 ] } },
{ "type": "Feature", "properties": { "内容": "松阪市民病院訪問看護ステーション【訪問看護】三重県松阪市殿町　1550番地", "url": "https://www.kaigokensaku.mhlw.go.jp/24/index.php?action_kouhyou_detail_004_kani=true&JigyosyoCd=2460790088-00&ServiceCd=130&Type=search", "url2": "http://www/city.matsusaka.mie.jp/site/hosannai/" }, "geometry": { "type": "Point", "coordinates": [ 136.526159092590291, 34.577471148472604 ] } },
{ "type": "Feature", "properties": { "内容": "アクア訪問看護ステーション【訪問看護】三重県松阪市西之庄町５１－２", "url": "https://www.kaigokensaku.mhlw.go.jp/24/index.php?action_kouhyou_detail_004_kani=true&JigyosyoCd=2460790252-00&ServiceCd=130&Type=search", "url2": "https://aqua-nurse.com" }, "geometry": { "type": "Point", "coordinates": [ 136.523398804800991, 34.577522201566516 ] } },
{ "type": "Feature", "properties": { "内容": "メディケア・リハビリ訪問看護ステーション松阪【訪問看護】三重県松阪市新町810-1　３階", "url": "https://www.kaigokensaku.mhlw.go.jp/24/index.php?action_kouhyou_detail_004_kani=true&JigyosyoCd=2460790278-00&ServiceCd=130&Type=search", "url2": "https://kango.medi-care.co.jp/" }, "geometry": { "type": "Point", "coordinates": [ 136.5309713, 34.5739044 ] } },
{ "type": "Feature", "properties": { "内容": "訪問看護ステーション　松本クリニック【訪問看護】三重県松阪市駅部田町1619番地45", "url": "https://www.kaigokensaku.mhlw.go.jp/24/index.php?action_kouhyou_detail_004_kani=true&JigyosyoCd=2460790294-00&ServiceCd=130&Type=search", "url2": null }, "geometry": { "type": "Point", "coordinates": [ 136.524818, 34.5513822 ] } },
{ "type": "Feature", "properties": { "内容": "嘉祥苑訪問看護ステーション【訪問看護】三重県松阪市鎌田町244番地の3", "url": "https://www.kaigokensaku.mhlw.go.jp/24/index.php?action_kouhyou_detail_004_kani=true&JigyosyoCd=2460790054-00&ServiceCd=130&Type=search", "url2": "http://www.kashouen.or.jp" }, "geometry": { "type": "Point", "coordinates": [ 136.536150099999986, 34.5820793 ] } },
{ "type": "Feature", "properties": { "内容": "桜木記念病院訪問看護ステーション【訪問看護】三重県松阪市南町443-4", "url": "https://www.kaigokensaku.mhlw.go.jp/24/index.php?action_kouhyou_detail_004_kani=true&JigyosyoCd=2460790021-00&ServiceCd=130&Type=search", "url2": "http://www.sakuragi-hp.com" }, "geometry": { "type": "Point", "coordinates": [ 136.535050700000056, 34.5667697 ] } },
{ "type": "Feature", "properties": { "内容": "松阪地区医師会訪問看護ステーション【訪問看護】三重県松阪市白粉町３６３番地", "url": "https://www.kaigokensaku.mhlw.go.jp/24/index.php?action_kouhyou_detail_004_kani=true&JigyosyoCd=2460790013-00&ServiceCd=130&Type=search", "url2": "http://med.matsusaka.or.jp/" }, "geometry": { "type": "Point", "coordinates": [ 136.53130336508184, 34.570300711149997 ] } },
{ "type": "Feature", "properties": { "内容": "グリーンケア訪問看護ステーション【訪問看護】下村町1963-2", "url": "https://www.kaigokensaku.mhlw.go.jp/24/index.php?action_kouhyou_detail_004_kani=true&JigyosyoCd=2460790203-00&ServiceCd=130&Type=search", "url2": "https://www.midori-nomori.com/" }, "geometry": { "type": "Point", "coordinates": [ 136.54690431785761, 34.547013112231959 ] } },
{ "type": "Feature", "properties": { "内容": "虹が丘訪問看護ステーション【訪問看護】三重県松阪市上川町215番地1", "url": "https://www.kaigokensaku.mhlw.go.jp/24/index.php?action_kouhyou_detail_004_kani=true&JigyosyoCd=2460790286-00&ServiceCd=130&Type=search", "url2": "https://www.niji-houmonn-kango.com" }, "geometry": { "type": "Point", "coordinates": [ 136.553134400000033, 34.5461703 ] } },
{ "type": "Feature", "properties": { "内容": "訪問看護ステーションかふう【訪問看護】三重県松阪市市場庄町1373", "url": "https://www.kaigokensaku.mhlw.go.jp/24/index.php?action_kouhyou_detail_004_kani=true&JigyosyoCd=2460790245-00&ServiceCd=130&Type=search", "url2": "https://iitomokai.jp/visiting_care/" }, "geometry": { "type": "Point", "coordinates": [ 136.517530599999958, 34.601941799999985 ] } },
{ "type": "Feature", "properties": { "内容": "みえ親孝行訪問看護事業所【訪問看護】三重県松阪市田村町447-1番地シルバーハウス松阪Ⅱ", "url": "https://www.kaigokensaku.mhlw.go.jp/24/index.php?action_kouhyou_detail_004_kani=true&JigyosyoCd=2460790120-00&ServiceCd=130&Type=search", "url2": "http://mieoyakhoko.net/" }, "geometry": { "type": "Point", "coordinates": [ 136.51257540000006, 34.5512288 ] } },
{ "type": "Feature", "properties": { "内容": "医療法人　おかの医院【訪問看護】松阪市嬉野中川新町一丁目6番地おかの医院", "url": "https://www.kaigokensaku.mhlw.go.jp/24/index.php?action_kouhyou_detail_004_kani=true&JigyosyoCd=2410705707-00&ServiceCd=130&Type=search", "url2": "http://www.za.ztv.ne.jp/okano-clinic/" }, "geometry": { "type": "Point", "coordinates": [ 136.476036, 34.632831 ] } },
{ "type": "Feature", "properties": { "内容": "笑顔の街訪問看護ステーション【訪問看護】三重県松阪市鎌田町403番地9松相ハイツ102号室", "url": "https://www.kaigokensaku.mhlw.go.jp/24/index.php?action_kouhyou_detail_004_kani=true&JigyosyoCd=2460790229-00&ServiceCd=130&Type=search", "url2": "https://ioji.org/" }, "geometry": { "type": "Point", "coordinates": [ 136.537822958488277, 34.583664188435669 ] } },
{ "type": "Feature", "properties": { "内容": "訪問看護ステーションポトス【訪問看護】三重県松阪市本町2218", "url": "https://www.kaigokensaku.mhlw.go.jp/24/index.php?action_kouhyou_detail_004_kani=true&JigyosyoCd=2460790377-00&ServiceCd=130&Type=search", "url2": null }, "geometry": { "type": "Point", "coordinates": [ 136.5302132, 34.5787328 ] } },
{ "type": "Feature", "properties": { "内容": "訪問看護　西井【訪問看護】三重県松阪市曽原町８１１－１", "url": "https://www.kaigokensaku.mhlw.go.jp/24/index.php?action_kouhyou_detail_004_kani=true&JigyosyoCd=2460790393-00&ServiceCd=130&Type=search", "url2": null }, "geometry": { "type": "Point", "coordinates": [ 136.5180479, 34.6310103 ] } },
{ "type": "Feature", "properties": { "内容": "アクティブ訪問看護ステーション【訪問看護】三重県桑名市増田５９５番地", "url": "https://www.kaigokensaku.mhlw.go.jp/24/index.php?action_kouhyou_detail_004_kani=true&JigyosyoCd=2460190255-00&ServiceCd=130&Type=search", "url2": "https://active4165.com/" }, "geometry": { "type": "Point", "coordinates": [ 136.650317050617247, 35.058384253939955 ] } },
{ "type": "Feature", "properties": { "内容": "三重県桑名市柳原121－1【訪問看護】三重県桑名市柳原121－1NOZAWAビル2階", "url": "https://www.kaigokensaku.mhlw.go.jp/24/index.php?action_kouhyou_detail_004_kani=true&JigyosyoCd=2460190362-00&ServiceCd=130&Type=search", "url2": "https://www.instagram.com/hikari_nurse_yoko/" }, "geometry": { "type": "Point", "coordinates": [ 136.6952573, 35.0573134 ] } },
{ "type": "Feature", "properties": { "内容": "医療法人　　桑名病院【訪問看護】三重県桑名市京橋町３０番地", "url": "https://www.kaigokensaku.mhlw.go.jp/24/index.php?action_kouhyou_detail_004_kani=true&JigyosyoCd=2410105080-00&ServiceCd=130&Type=search", "url2": "http//www.kuwana-hosp.or.jp" }, "geometry": { "type": "Point", "coordinates": [ 136.691455, 35.0632468 ] } },
{ "type": "Feature", "properties": { "内容": "訪問看護ステーションしらゆりケア桑名能部【訪問看護】三重県桑名市大字能部字北貝戸602番4", "url": "https://www.kaigokensaku.mhlw.go.jp/24/index.php?action_kouhyou_detail_004_kani=true&JigyosyoCd=2460190404-00&ServiceCd=130&Type=search", "url2": "https://planb-shirayuri.com/" }, "geometry": { "type": "Point", "coordinates": [ 136.635539899999969, 35.05278510000003 ] } },
{ "type": "Feature", "properties": { "内容": "訪問看護ステーションゆあん【訪問看護】三重県桑名市長島町福吉154番地", "url": "https://www.kaigokensaku.mhlw.go.jp/24/index.php?action_kouhyou_detail_004_kani=true&JigyosyoCd=2460190388-00&ServiceCd=130&Type=search", "url2": null }, "geometry": { "type": "Point", "coordinates": [ 136.716394401637558, 35.059130790378831 ] } },
{ "type": "Feature", "properties": { "内容": "桑名医師会立訪問看護ステーションえがお【訪問看護】桑名市大字東方尾弓田3038番地", "url": "https://www.kaigokensaku.mhlw.go.jp/24/index.php?action_kouhyou_detail_004_kani=true&JigyosyoCd=2460190040-00&ServiceCd=130&Type=search", "url2": "Ｅーｍａｉｌ；ｅｇａｏ＠ｐｏｐｌａｒ.ｏｃｎ.ｎｅ.ｊｐ" }, "geometry": { "type": "Point", "coordinates": [ 136.677513882525687, 35.075943959016008 ] } },
{ "type": "Feature", "properties": { "内容": "介護ネットグリーン訪問看護リハビリステーション【訪問看護】三重県桑名市大字繁松新田61-1", "url": "https://www.kaigokensaku.mhlw.go.jp/24/index.php?action_kouhyou_detail_004_kani=true&JigyosyoCd=2460190123-00&ServiceCd=130&Type=search", "url2": null }, "geometry": { "type": "Point", "coordinates": [ 136.673115100000018, 35.0564274 ] } },
{ "type": "Feature", "properties": { "内容": "さとうクリニック訪問看護ステーション【訪問看護】三重県桑名市長島町福吉268-1", "url": "https://www.kaigokensaku.mhlw.go.jp/24/index.php?action_kouhyou_detail_004_kani=true&JigyosyoCd=2460190206-00&ServiceCd=130&Type=search", "url2": "https://www.sato-group.jp/clinic/" }, "geometry": { "type": "Point", "coordinates": [ 136.717066634157959, 35.057313621347795 ] } },
{ "type": "Feature", "properties": { "内容": "指定訪問看護事業所　訪問看護リハビリステーションはぁちゃん【訪問看護】三重県桑名市大字江場718-1", "url": "https://www.kaigokensaku.mhlw.go.jp/24/index.php?action_kouhyou_detail_004_kani=true&JigyosyoCd=2460190115-00&ServiceCd=130&Type=search", "url2": "haachan-kango@com" }, "geometry": { "type": "Point", "coordinates": [ 136.686886, 35.0457982 ] } },
{ "type": "Feature", "properties": { "内容": "ナーシングホームもも桑名【訪問看護】桑名市筒尾1丁目13番地1", "url": "https://www.kaigokensaku.mhlw.go.jp/24/index.php?action_kouhyou_detail_004_kani=true&JigyosyoCd=2460190099-00&ServiceCd=130&Type=search", "url2": "https://www.momo3.net" }, "geometry": { "type": "Point", "coordinates": [ 136.648491899999954, 35.0782497 ] } },
{ "type": "Feature", "properties": { "内容": "訪問看護スィート【訪問看護】三重県桑名市西方1538番地1", "url": "https://www.kaigokensaku.mhlw.go.jp/24/index.php?action_kouhyou_detail_004_kani=true&JigyosyoCd=2460190248-00&ServiceCd=130&Type=search", "url2": "http://care-sweet.com" }, "geometry": { "type": "Point", "coordinates": [ 136.66641312999829, 35.077669692961955 ] } },
{ "type": "Feature", "properties": { "内容": "ナーシング桑名【訪問看護】三重県桑名市大仲新田252番25", "url": "https://www.kaigokensaku.mhlw.go.jp/24/index.php?action_kouhyou_detail_004_kani=true&JigyosyoCd=2460190305-00&ServiceCd=130&Type=search", "url2": null }, "geometry": { "type": "Point", "coordinates": [ 136.6101016, 35.0831859 ] } },
{ "type": "Feature", "properties": { "内容": "ケアリール訪問看護ステーション　額田【訪問看護】額田546ザ・クイーンヴィクトリア　E号室", "url": "https://www.kaigokensaku.mhlw.go.jp/24/index.php?action_kouhyou_detail_004_kani=true&JigyosyoCd=2460190420-00&ServiceCd=130&Type=search", "url2": "https://www.niceman-care.com" }, "geometry": { "type": "Point", "coordinates": [ 135.6497406, 34.6771883 ] } },
{ "type": "Feature", "properties": { "内容": "ねむの花訪問ナースステーション【訪問看護】三重県桑名市星見ヶ丘三丁目805番地", "url": "https://www.kaigokensaku.mhlw.go.jp/24/index.php?action_kouhyou_detail_004_kani=true&JigyosyoCd=2460190263-00&ServiceCd=130&Type=search", "url2": null }, "geometry": { "type": "Point", "coordinates": [ 136.631670686508187, 35.075519517280043 ] } },
{ "type": "Feature", "properties": { "内容": "訪問看護ステーションライブリー【訪問看護】三重県桑名市星川十二842番地１星川貸店舗201号室", "url": "https://www.kaigokensaku.mhlw.go.jp/24/index.php?action_kouhyou_detail_004_kani=true&JigyosyoCd=2460190321-00&ServiceCd=130&Type=search", "url2": "https://venti-lively.com" }, "geometry": { "type": "Point", "coordinates": [ 136.6276997, 35.0677944 ] } },
{ "type": "Feature", "properties": { "内容": "訪問看護ステーションふるさと【訪問看護】三重県桑名市北別所字流１５９０番地４ふるさとタウン", "url": "https://www.kaigokensaku.mhlw.go.jp/24/index.php?action_kouhyou_detail_004_kani=true&JigyosyoCd=2460190156-00&ServiceCd=130&Type=search", "url2": "http://www.takurousho-furusato.com/" }, "geometry": { "type": "Point", "coordinates": [ 136.673330470208327, 35.077900220027082 ] } },
{ "type": "Feature", "properties": { "内容": "訪問看護ステーションわかば【訪問看護】桑名市星見ヶ丘9丁目807", "url": "https://www.kaigokensaku.mhlw.go.jp/24/index.php?action_kouhyou_detail_004_kani=true&JigyosyoCd=2460190164-00&ServiceCd=130&Type=search", "url2": "http://wakaba.hp4u.jp/" }, "geometry": { "type": "Point", "coordinates": [ 136.635465, 35.0723276 ] } },
{ "type": "Feature", "properties": { "内容": "れんか訪問看護ステーション【訪問看護】三重県桑名市中央町二丁目２７あづまビル２F", "url": "https://www.kaigokensaku.mhlw.go.jp/24/index.php?action_kouhyou_detail_004_kani=true&JigyosyoCd=2460190297-00&ServiceCd=130&Type=search", "url2": "https://renkavns.com/" }, "geometry": { "type": "Point", "coordinates": [ 136.684957450875572, 35.062606903821411 ] } },
{ "type": "Feature", "properties": { "内容": "訪問看護ステーション　れんげの里【訪問看護】桑名市新西方2丁目１番地", "url": "https://www.kaigokensaku.mhlw.go.jp/24/index.php?action_kouhyou_detail_004_kani=true&JigyosyoCd=2460190180-00&ServiceCd=130&Type=search", "url2": "http://renge-sato.com" }, "geometry": { "type": "Point", "coordinates": [ 136.65821632894415, 35.075291498763832 ] } },
{ "type": "Feature", "properties": { "内容": "訪問看護　あんじゅ【訪問看護】三重県桑名市福島936コンフォート小畑マンション３E", "url": "https://www.kaigokensaku.mhlw.go.jp/24/index.php?action_kouhyou_detail_004_kani=true&JigyosyoCd=2460190370-00&ServiceCd=130&Type=search", "url2": null }, "geometry": { "type": "Point", "coordinates": [ 136.684792743036809, 35.074958824423305 ] } },
{ "type": "Feature", "properties": { "内容": "ヨナハ訪問看護ステーション【訪問看護】三重県桑名市さくらの丘1番地", "url": "https://www.kaigokensaku.mhlw.go.jp/24/index.php?action_kouhyou_detail_004_kani=true&JigyosyoCd=2460190016-00&ServiceCd=130&Type=search", "url2": "https://yonaha.or.jp/zc/houkan.html" }, "geometry": { "type": "Point", "coordinates": [ 136.655407693295246, 35.067401891220541 ] } },
{ "type": "Feature", "properties": { "内容": "アクア鈴鹿訪問看護【訪問看護】三重県鈴鹿市末広北3丁目2-16", "url": "https://www.kaigokensaku.mhlw.go.jp/24/index.php?action_kouhyou_detail_004_kani=true&JigyosyoCd=2460390368-00&ServiceCd=130&Type=search", "url2": null }, "geometry": { "type": "Point", "coordinates": [ 136.5600543, 34.8615449 ] } },
{ "type": "Feature", "properties": { "内容": "訪問看護ステーションanchor【訪問看護】三重県鈴鹿市三宅町1700番地", "url": "https://www.kaigokensaku.mhlw.go.jp/24/index.php?action_kouhyou_detail_004_kani=true&JigyosyoCd=2460390376-00&ServiceCd=130&Type=search", "url2": "https://www.magocoro.group" }, "geometry": { "type": "Point", "coordinates": [ 136.5066171, 34.8184203 ] } },
{ "type": "Feature", "properties": { "内容": "訪問看護ステーション夢眠すずか【訪問看護】南玉垣町6507-1", "url": "https://www.kaigokensaku.mhlw.go.jp/24/index.php?action_kouhyou_detail_004_kani=true&JigyosyoCd=2460390384-00&ServiceCd=130&Type=search", "url2": "http://muminhome.jp/suzuka/" }, "geometry": { "type": "Point", "coordinates": [ 136.5677181, 34.8625907 ] } },
{ "type": "Feature", "properties": { "内容": "訪問看護ステーションよつ葉　すずか【訪問看護】三重県鈴鹿市野町西１丁目４－１２", "url": "https://www.kaigokensaku.mhlw.go.jp/24/index.php?action_kouhyou_detail_004_kani=true&JigyosyoCd=2460390178-00&ServiceCd=130&Type=search", "url2": "www.mcare.co.jp/yotsuba/" }, "geometry": { "type": "Point", "coordinates": [ 136.564443416394056, 34.853855826898105 ] } },
{ "type": "Feature", "properties": { "内容": "訪問看護ステーション　しあわせ【訪問看護】神戸二丁目５番１号", "url": "https://www.kaigokensaku.mhlw.go.jp/24/index.php?action_kouhyou_detail_004_kani=true&JigyosyoCd=2460390426-00&ServiceCd=130&Type=search", "url2": null }, "geometry": { "type": "Point", "coordinates": [ 135.127453499999973, 34.7162407 ] } },
{ "type": "Feature", "properties": { "内容": "訪問看護ステーション　サニー【訪問看護】三重県鈴鹿市稲生四丁目4878番2", "url": "https://www.kaigokensaku.mhlw.go.jp/24/index.php?action_kouhyou_detail_004_kani=true&JigyosyoCd=2460390293-00&ServiceCd=130&Type=search", "url2": "https://tamada-group.jp/" }, "geometry": { "type": "Point", "coordinates": [ 136.5614093, 34.840962 ] } },
{ "type": "Feature", "properties": { "内容": "訪問看護ステーション桜の森【訪問看護】三重県鈴鹿市南玉垣町7300番地1鈴鹿医療科学大学附属桜の森病院内", "url": "https://www.kaigokensaku.mhlw.go.jp/24/index.php?action_kouhyou_detail_004_kani=true&JigyosyoCd=2460390251-00&ServiceCd=130&Type=search", "url2": "https://www.suzuka-u.ac.jp/facilities/kanwa_hosp" }, "geometry": { "type": "Point", "coordinates": [ 136.583886330935655, 34.849456761737663 ] } },
{ "type": "Feature", "properties": { "内容": "訪問看護ステーションつなぐ【訪問看護】三重県鈴鹿市神戸七丁目8番1号", "url": "https://www.kaigokensaku.mhlw.go.jp/24/index.php?action_kouhyou_detail_004_kani=true&JigyosyoCd=2460390335-00&ServiceCd=130&Type=search", "url2": "https://atom-tsunagu.com/" }, "geometry": { "type": "Point", "coordinates": [ 136.5773524, 34.8854458 ] } },
{ "type": "Feature", "properties": { "内容": "訪問看護ステーション　アルテハイム鈴鹿【訪問看護】三重県鈴鹿市平田１丁目2番8号", "url": "https://www.kaigokensaku.mhlw.go.jp/24/index.php?action_kouhyou_detail_004_kani=true&JigyosyoCd=2460390012-00&ServiceCd=130&Type=search", "url2": "https://seijinkai.shiokawa-hp.jp" }, "geometry": { "type": "Point", "coordinates": [ 136.540922899999941, 34.8746687 ] } },
{ "type": "Feature", "properties": { "内容": "鈴鹿中央病院訪問看護ステーション【訪問看護】三重県鈴鹿市安塚町山之花1275番地184", "url": "https://www.kaigokensaku.mhlw.go.jp/24/index.php?action_kouhyou_detail_004_kani=true&JigyosyoCd=2460390046-00&ServiceCd=130&Type=search", "url2": "http://www.miekosei.or.jp/2_sch/kanjya/b-houkan.html" }, "geometry": { "type": "Point", "coordinates": [ 136.569044290954594, 34.866288013243192 ] } },
{ "type": "Feature", "properties": { "内容": "村瀬病院訪問看護ステーションひまわり【訪問看護】三重県鈴鹿市神戸三丁目１２－１０", "url": "https://www.kaigokensaku.mhlw.go.jp/24/index.php?action_kouhyou_detail_004_kani=true&JigyosyoCd=2460390020-00&ServiceCd=130&Type=search", "url2": "http://www.murase.or.jp/" }, "geometry": { "type": "Point", "coordinates": [ 136.584441760188241, 34.878327286465712 ] } },
{ "type": "Feature", "properties": { "内容": "訪問看護リハビリステーションダリア【訪問看護】大池３丁目１１‐９ベーシック中日1401", "url": "https://www.kaigokensaku.mhlw.go.jp/24/index.php?action_kouhyou_detail_004_kani=true&JigyosyoCd=2460390285-00&ServiceCd=130&Type=search", "url2": "http://hp.kaipoke.biz/f9g/info.html" }, "geometry": { "type": "Point", "coordinates": [ 136.535613899999987, 34.8684797 ] } },
{ "type": "Feature", "properties": { "内容": "訪問看護リハビリステーション　桜【訪問看護】三重県鈴鹿市道伯町2147-23", "url": "https://www.kaigokensaku.mhlw.go.jp/24/index.php?action_kouhyou_detail_004_kani=true&JigyosyoCd=2460390079-00&ServiceCd=130&Type=search", "url2": "www.redglove.co.jp" }, "geometry": { "type": "Point", "coordinates": [ 136.545263934425435, 34.855740306439287 ] } },
{ "type": "Feature", "properties": { "内容": "訪問看護ステーションたきび【訪問看護】三重県鈴鹿市西条1丁目18-3第一コーポ優珈里102", "url": "https://www.kaigokensaku.mhlw.go.jp/24/index.php?action_kouhyou_detail_004_kani=true&JigyosyoCd=2460390418-00&ServiceCd=130&Type=search", "url2": null }, "geometry": { "type": "Point", "coordinates": [ 136.5746571, 34.8825972 ] } },
{ "type": "Feature", "properties": { "内容": "よきかな訪問看護ステーション【訪問看護】三重県鈴鹿市庄野東1丁目7-21リンデン小林105号室", "url": "https://www.kaigokensaku.mhlw.go.jp/24/index.php?action_kouhyou_detail_004_kani=true&JigyosyoCd=2460390400-00&ServiceCd=130&Type=search", "url2": "https://yokikana-hokan.jp/" }, "geometry": { "type": "Point", "coordinates": [ 136.534638199999989, 34.880298700000012 ] } },
{ "type": "Feature", "properties": { "内容": "医心館訪問看護ステーション鈴鹿【訪問看護】末広東５番21号", "url": "https://www.kaigokensaku.mhlw.go.jp/24/index.php?action_kouhyou_detail_004_kani=true&JigyosyoCd=2460390434-00&ServiceCd=130&Type=search", "url2": null }, "geometry": { "type": "Point", "coordinates": [ 136.5690885, 34.8599452 ] } },
{ "type": "Feature", "properties": { "内容": "訪問看護ステーション　デューン鈴鹿【訪問看護】三重県鈴鹿市神戸1丁目22番35号第4不二ビル102号室", "url": "https://www.kaigokensaku.mhlw.go.jp/24/index.php?action_kouhyou_detail_004_kani=true&JigyosyoCd=2460390392-00&ServiceCd=130&Type=search", "url2": "https://www.nfield.co.jp/" }, "geometry": { "type": "Point", "coordinates": [ 136.585207, 34.8803475 ] } },
{ "type": "Feature", "properties": { "内容": "Resora（リソラ）訪問看護リハビリステーション【訪問看護】鈴鹿市神戸六丁目６番２号", "url": "https://www.kaigokensaku.mhlw.go.jp/24/index.php?action_kouhyou_detail_004_kani=true&JigyosyoCd=2460390145-00&ServiceCd=130&Type=search", "url2": "http://www.resora-net.com" }, "geometry": { "type": "Point", "coordinates": [ 136.576571441243374, 34.883296924255269 ] } },
{ "type": "Feature", "properties": { "内容": "訪問看護ステーションオレンジ【訪問看護】江島台２丁目１－８・２Ｆ", "url": "https://www.kaigokensaku.mhlw.go.jp/24/index.php?action_kouhyou_detail_004_kani=true&JigyosyoCd=2460390236-00&ServiceCd=130&Type=search", "url2": "https://orange-carenurse.jp" }, "geometry": { "type": "Point", "coordinates": [ 136.588988199999989, 34.8430099 ] } },
{ "type": "Feature", "properties": { "内容": "訪問看護ステーション　結明の丘【訪問看護】三重県名張市夏見2639番地", "url": "https://www.kaigokensaku.mhlw.go.jp/24/index.php?action_kouhyou_detail_004_kani=true&JigyosyoCd=2461390136-00&ServiceCd=130&Type=search", "url2": "ｈｔｔｐｓ：//kekoukai.co.jp" }, "geometry": { "type": "Point", "coordinates": [ 136.1081431, 34.6225153 ] } },
{ "type": "Feature", "properties": { "内容": "訪問看護ステーション桔梗【訪問看護】三重県名張市桔梗が丘五番町九街区1812番地11", "url": "https://www.kaigokensaku.mhlw.go.jp/24/index.php?action_kouhyou_detail_004_kani=true&JigyosyoCd=2461390144-00&ServiceCd=130&Type=search", "url2": null }, "geometry": { "type": "Point", "coordinates": [ 136.130571387488317, 34.643766048887201 ] } },
{ "type": "Feature", "properties": { "内容": "医療法人福翔会　訪問看護リハビリステーション　ハッピーウッド【訪問看護】三重県名張市朝日町1247-1", "url": "https://www.kaigokensaku.mhlw.go.jp/24/index.php?action_kouhyou_detail_004_kani=true&JigyosyoCd=2461390078-00&ServiceCd=130&Type=search", "url2": "https://www.nabari.or.jp/comp/happywood/" }, "geometry": { "type": "Point", "coordinates": [ 136.0850266, 34.6247422 ] } },
{ "type": "Feature", "properties": { "内容": "ほりいクリニック希央台【訪問看護】希央台5番町35番地", "url": "https://www.kaigokensaku.mhlw.go.jp/24/index.php?action_kouhyou_detail_004_kani=true&JigyosyoCd=2411305374-00&ServiceCd=130&Type=search", "url2": "http://www.kouseikai-med.com" }, "geometry": { "type": "Point", "coordinates": [ 136.098339, 34.6238843 ] } },
{ "type": "Feature", "properties": { "内容": "医心館訪問看護ステーション名張【訪問看護】三重県名張市東町1901-1", "url": "https://www.kaigokensaku.mhlw.go.jp/24/index.php?action_kouhyou_detail_004_kani=true&JigyosyoCd=2461390094-00&ServiceCd=130&Type=search", "url2": null }, "geometry": { "type": "Point", "coordinates": [ 136.100924599999985, 34.6316615 ] } },
{ "type": "Feature", "properties": { "内容": "医療法人（社団）寺田病院　訪問看護ステーション「コスモス」　　寺田病院訪問看護ステーションコスモス　リハビリサテライト【訪問看護】三重県名張市夏見3260番地1　　三重県名張市美旗中村２３２７番地（サテライト）", "url": "https://www.kaigokensaku.mhlw.go.jp/24/index.php?action_kouhyou_detail_004_kani=true&JigyosyoCd=2461390029-00&ServiceCd=130&Type=search", "url2": "http://www.terada-hp.or.jp" }, "geometry": { "type": "Point", "coordinates": [ 136.10596890370482, 34.619985635454555 ] } },
{ "type": "Feature", "properties": { "内容": "ハローケア訪問看護ステーション桔梗【訪問看護】三重県名張市西原町２６２８番地１", "url": "https://www.kaigokensaku.mhlw.go.jp/24/index.php?action_kouhyou_detail_004_kani=true&JigyosyoCd=2461390102-00&ServiceCd=130&Type=search", "url2": "http://www.heartland.or.jp/" }, "geometry": { "type": "Point", "coordinates": [ 136.116191, 34.6539928 ] } },
{ "type": "Feature", "properties": { "内容": "訪問看護ステーションぴいす【訪問看護】三重県名張市夏見4-1", "url": "https://www.kaigokensaku.mhlw.go.jp/24/index.php?action_kouhyou_detail_004_kani=true&JigyosyoCd=2461390151-00&ServiceCd=130&Type=search", "url2": "https://www.n-ikuseien.jp/peace/" }, "geometry": { "type": "Point", "coordinates": [ 136.102093315344234, 34.618454705349755 ] } },
{ "type": "Feature", "properties": { "内容": "訪問ナース・リハビリステーションあゆみの／あゆみの伊賀支所【訪問看護】三重県名張市東町1697番地1", "url": "https://www.kaigokensaku.mhlw.go.jp/24/index.php?action_kouhyou_detail_004_kani=true&JigyosyoCd=2461390110-00&ServiceCd=130&Type=search", "url2": "https://www.medisop.jp/" }, "geometry": { "type": "Point", "coordinates": [ 136.093497011104233, 34.628685302832494 ] } },
{ "type": "Feature", "properties": { "内容": "合同会社　おわせ訪問看護センター【訪問看護】三重県尾鷲市大曽根浦142-35", "url": "https://www.kaigokensaku.mhlw.go.jp/24/index.php?action_kouhyou_detail_004_kani=true&JigyosyoCd=2461090033-00&ServiceCd=130&Type=search", "url2": null }, "geometry": { "type": "Point", "coordinates": [ 136.2227411, 34.0611012 ] } },
{ "type": "Feature", "properties": { "内容": "在宅ケアグループ　あいあい【訪問看護】三重県尾鷲市矢浜四丁目1番46号", "url": "https://www.kaigokensaku.mhlw.go.jp/24/index.php?action_kouhyou_detail_004_kani=true&JigyosyoCd=2461090025-00&ServiceCd=130&Type=search", "url2": null }, "geometry": { "type": "Point", "coordinates": [ 136.19982889972232, 34.058945956329758 ] } },
{ "type": "Feature", "properties": { "内容": "紀北医師会訪問看護ステーションよろこび【訪問看護】三重県尾鷲市上野町5番25号尾鷲総合病院内　旧棟5階", "url": "https://www.kaigokensaku.mhlw.go.jp/24/index.php?action_kouhyou_detail_004_kani=true&JigyosyoCd=2461090017-00&ServiceCd=130&Type=search", "url2": "http://www.kihoku-med.or.jp/yorokobi/yorokobi.htm" }, "geometry": { "type": "Point", "coordinates": [ 136.188553899999988, 34.0699183 ] } },
{ "type": "Feature", "properties": { "内容": "みえ呼吸嚥下リハビリクリニック　訪問看護【訪問看護】アイリス町14-7", "url": "https://www.kaigokensaku.mhlw.go.jp/24/index.php?action_kouhyou_detail_004_kani=true&JigyosyoCd=2410400572-00&ServiceCd=130&Type=search", "url2": "http:/www.mie-engejp/" }, "geometry": { "type": "Point", "coordinates": [ 136.460604600000011, 34.8671265 ] } },
{ "type": "Feature", "properties": { "内容": "訪問看護ステーションひごと【訪問看護】三重県亀山市東町一丁目7番4号", "url": "https://www.kaigokensaku.mhlw.go.jp/24/index.php?action_kouhyou_detail_004_kani=true&JigyosyoCd=2460490143-00&ServiceCd=130&Type=search", "url2": "https://preview.studio.site/live/Kwa5KdjJOX/higoto" }, "geometry": { "type": "Point", "coordinates": [ 136.455048335276103, 34.854391630517163 ] } },
{ "type": "Feature", "properties": { "内容": "訪問看護ステーション結び【訪問看護】三重県亀山市川崎町4782番地メディケアホーム結び心", "url": "https://www.kaigokensaku.mhlw.go.jp/24/index.php?action_kouhyou_detail_004_kani=true&JigyosyoCd=2460490150-00&ServiceCd=130&Type=search", "url2": "https://www.musubi-care.com/" }, "geometry": { "type": "Point", "coordinates": [ 136.4750622, 34.8994916 ] } },
{ "type": "Feature", "properties": { "内容": "あんしん訪問看護ステーション【訪問看護】三重県亀山市川合町１０３番地", "url": "https://www.kaigokensaku.mhlw.go.jp/24/index.php?action_kouhyou_detail_004_kani=true&JigyosyoCd=2460490044-00&ServiceCd=130&Type=search", "url2": "https://sakura2525.com/" }, "geometry": { "type": "Point", "coordinates": [ 136.4875302, 34.8654259 ] } },
{ "type": "Feature", "properties": { "内容": "ナーシング三重【訪問看護】三重県亀山市川崎町4855番地4588", "url": "https://www.kaigokensaku.mhlw.go.jp/24/index.php?action_kouhyou_detail_004_kani=true&JigyosyoCd=2460490077-00&ServiceCd=130&Type=search", "url2": "http://www.nursing-mie.jp/" }, "geometry": { "type": "Point", "coordinates": [ 136.470613806190499, 34.903111507911511 ] } },
{ "type": "Feature", "properties": { "内容": "訪問看護ステーションひなた【訪問看護】亀山市太岡寺町1246-8", "url": "https://www.kaigokensaku.mhlw.go.jp/24/index.php?action_kouhyou_detail_004_kani=true&JigyosyoCd=2460490127-00&ServiceCd=130&Type=search", "url2": "https://www.anzenfukushikai.or.jp/" }, "geometry": { "type": "Point", "coordinates": [ 136.420422699999989, 34.8570279 ] } },
{ "type": "Feature", "properties": { "内容": "亀山市立医療センター訪問看護ステーション【訪問看護】三重県亀山市亀田町466番地１", "url": "https://www.kaigokensaku.mhlw.go.jp/24/index.php?action_kouhyou_detail_004_kani=true&JigyosyoCd=2460490093-00&ServiceCd=130&Type=search", "url2": null }, "geometry": { "type": "Point", "coordinates": [ 136.450697600000012, 34.8667514 ] } },
{ "type": "Feature", "properties": { "内容": "訪問看護リハビリステーション　こころ【訪問看護】三重県亀山市栄町1487番地25", "url": "https://www.kaigokensaku.mhlw.go.jp/24/index.php?action_kouhyou_detail_004_kani=true&JigyosyoCd=2460490085-00&ServiceCd=130&Type=search", "url2": null }, "geometry": { "type": "Point", "coordinates": [ 136.470445, 34.859936 ] } },
{ "type": "Feature", "properties": { "内容": "訪問看護リハビリステーションからふるかわさき【訪問看護】三重県亀山市川崎町1656-1", "url": "https://www.kaigokensaku.mhlw.go.jp/24/index.php?action_kouhyou_detail_004_kani=true&JigyosyoCd=2460490135-00&ServiceCd=130&Type=search", "url2": "https://colorfulgarden.jp/" }, "geometry": { "type": "Point", "coordinates": [ 136.4729592, 34.8963943 ] } },
{ "type": "Feature", "properties": { "内容": "花あかり訪問看護リハビリステーション【訪問看護】三重県亀山市川崎町4678", "url": "https://www.kaigokensaku.mhlw.go.jp/24/index.php?action_kouhyou_detail_004_kani=true&JigyosyoCd=2460490036-00&ServiceCd=130&Type=search", "url2": "h-akari.com" }, "geometry": { "type": "Point", "coordinates": [ 136.476398703982539, 34.902631602044998 ] } },
{ "type": "Feature", "properties": { "内容": "鳥羽市立長岡診療所【訪問看護】三重県鳥羽市相差町1028-1", "url": "https://www.kaigokensaku.mhlw.go.jp/24/index.php?action_kouhyou_detail_004_kani=true&JigyosyoCd=2410905042-00&ServiceCd=130&Type=search", "url2": "https://nagaoka.jadecom.or.jp/" }, "geometry": { "type": "Point", "coordinates": [ 136.9022995, 34.3895987 ] } },
{ "type": "Feature", "properties": { "内容": "紀南医師会訪問看護ステーションほほえみ【訪問看護】三重県熊野市井戸町750番地の1熊野市社会福祉センター", "url": "https://www.kaigokensaku.mhlw.go.jp/24/index.php?action_kouhyou_detail_004_kani=true&JigyosyoCd=2461190015-00&ServiceCd=130&Type=search", "url2": "http://www.kinanma.jp/hohoemi/index.html" }, "geometry": { "type": "Point", "coordinates": [ 136.09607589999996, 33.8903006 ] } },
{ "type": "Feature", "properties": { "内容": "たいせつ【訪問看護】三重県熊野市飛鳥町大又54番地６", "url": "https://www.kaigokensaku.mhlw.go.jp/24/index.php?action_kouhyou_detail_004_kani=true&JigyosyoCd=2461190023-00&ServiceCd=130&Type=search", "url2": null }, "geometry": { "type": "Point", "coordinates": [ 136.103429683240648, 33.957527701017483 ] } },
{ "type": "Feature", "properties": { "内容": "ナーシングホームもも・いなべ【訪問看護】三重県いなべ市北勢町阿下喜３５１４", "url": "https://www.kaigokensaku.mhlw.go.jp/24/index.php?action_kouhyou_detail_004_kani=true&JigyosyoCd=2461490019-00&ServiceCd=130&Type=search", "url2": "https://www.momo3.net" }, "geometry": { "type": "Point", "coordinates": [ 136.511644, 35.1478436 ] } },
{ "type": "Feature", "properties": { "内容": "いなべ訪問看護ステーションのぞみ【訪問看護】三重県いなべ市北勢町阿下喜771", "url": "https://www.kaigokensaku.mhlw.go.jp/24/index.php?action_kouhyou_detail_004_kani=true&JigyosyoCd=2462190022-00&ServiceCd=130&Type=search", "url2": "http://www.miekosei.or.jp/4_ish/" }, "geometry": { "type": "Point", "coordinates": [ 136.514229900000032, 35.1464911 ] } },
{ "type": "Feature", "properties": { "内容": "訪問看護ステーション　虹の夢志摩【訪問看護】三重県志摩市阿児町国府3708番地34", "url": "https://www.kaigokensaku.mhlw.go.jp/24/index.php?action_kouhyou_detail_004_kani=true&JigyosyoCd=2462990124-00&ServiceCd=130&Type=search", "url2": null }, "geometry": { "type": "Point", "coordinates": [ 136.8922653, 34.3558986 ] } },
{ "type": "Feature", "properties": { "内容": "スマイルホーム志摩訪問看護事業所【訪問看護】三重県志摩市阿児町鵜方2850-126赤松ヶ谷テナントC号室", "url": "https://www.kaigokensaku.mhlw.go.jp/24/index.php?action_kouhyou_detail_004_kani=true&JigyosyoCd=2462990116-00&ServiceCd=130&Type=search", "url2": null }, "geometry": { "type": "Point", "coordinates": [ 136.84933620000001, 34.3208793 ] } },
{ "type": "Feature", "properties": { "内容": "志摩市民病院訪問看護ステーション【訪問看護】三重県志摩市大王町波切１９４１番地１", "url": "https://www.kaigokensaku.mhlw.go.jp/24/index.php?action_kouhyou_detail_004_kani=true&JigyosyoCd=2462990082-00&ServiceCd=130&Type=search", "url2": null }, "geometry": { "type": "Point", "coordinates": [ 136.878440299999966, 34.2786892 ] } },
{ "type": "Feature", "properties": { "内容": "訪問看護ステーション　豊和【訪問看護】志摩市阿児町鵜方2555-1", "url": "https://www.kaigokensaku.mhlw.go.jp/24/index.php?action_kouhyou_detail_004_kani=true&JigyosyoCd=2462990066-00&ServiceCd=130&Type=search", "url2": "http://www.houwakai.or.jp/" }, "geometry": { "type": "Point", "coordinates": [ 136.834801, 34.3324396 ] } },
{ "type": "Feature", "properties": { "内容": "あん【訪問看護】三重県志摩市阿児町鵜方3394－26", "url": "https://www.kaigokensaku.mhlw.go.jp/24/index.php?action_kouhyou_detail_004_kani=true&JigyosyoCd=2462990108-00&ServiceCd=130&Type=search", "url2": "http://www.danran-shima.co.jp" }, "geometry": { "type": "Point", "coordinates": [ 136.8157472, 34.3252346 ] } },
{ "type": "Feature", "properties": { "内容": "訪問看護ステーションきりん【訪問看護】磯部町穴川１６６９", "url": "https://www.kaigokensaku.mhlw.go.jp/24/index.php?action_kouhyou_detail_004_kani=true&JigyosyoCd=2462990090-00&ServiceCd=130&Type=search", "url2": "https://kirinsan.studio.site/" }, "geometry": { "type": "Point", "coordinates": [ 136.806416941139219, 34.368225431081314 ] } },
{ "type": "Feature", "properties": { "内容": "訪問看護ステーション　とんとん【訪問看護】三重県伊賀市四十九町1784番地の25", "url": "https://www.kaigokensaku.mhlw.go.jp/24/index.php?action_kouhyou_detail_004_kani=true&JigyosyoCd=2461290096-00&ServiceCd=130&Type=search", "url2": null }, "geometry": { "type": "Point", "coordinates": [ 136.1347634, 34.7491225 ] } },
{ "type": "Feature", "properties": { "内容": "訪問看護リハビリステーション喜りがおか【訪問看護】三重県伊賀市桐ヶ丘３丁目324番地", "url": "https://www.kaigokensaku.mhlw.go.jp/24/index.php?action_kouhyou_detail_004_kani=true&JigyosyoCd=2461290146-00&ServiceCd=130&Type=search", "url2": "https://ki-rigaoka.com/" }, "geometry": { "type": "Point", "coordinates": [ 136.192545900000027, 34.6626311 ] } },
{ "type": "Feature", "properties": { "内容": "ひじき訪問看護ステーション【訪問看護】三重県伊賀市比自岐1205番地", "url": "https://www.kaigokensaku.mhlw.go.jp/24/index.php?action_kouhyou_detail_004_kani=true&JigyosyoCd=2461290161-00&ServiceCd=130&Type=search", "url2": "https://hiijkihoumonkango.com" }, "geometry": { "type": "Point", "coordinates": [ 136.1971973, 34.7035874 ] } },
{ "type": "Feature", "properties": { "内容": "上野訪問看護ステーション”伊いね”【訪問看護】三重県伊賀市上野田端町918番地2", "url": "https://www.kaigokensaku.mhlw.go.jp/24/index.php?action_kouhyou_detail_004_kani=true&JigyosyoCd=2461290120-00&ServiceCd=130&Type=search", "url2": "http://iine-kango.jp/" }, "geometry": { "type": "Point", "coordinates": [ 136.140366164141142, 34.766185062934504 ] } },
{ "type": "Feature", "properties": { "内容": "訪問看護ステーションおかなみ【訪問看護】三重県伊賀市上之庄2711番地1", "url": "https://www.kaigokensaku.mhlw.go.jp/24/index.php?action_kouhyou_detail_004_kani=true&JigyosyoCd=2461290021-00&ServiceCd=130&Type=search", "url2": "http://www.okanami.com/" }, "geometry": { "type": "Point", "coordinates": [ 136.114230306551093, 34.729784247862675 ] } },
{ "type": "Feature", "properties": { "内容": "伊賀市立上野総合市民病院　訪問看護ステーション【訪問看護】伊賀市四十九町８３１番地", "url": "https://www.kaigokensaku.mhlw.go.jp/24/index.php?action_kouhyou_detail_004_kani=true&JigyosyoCd=2461290070-00&ServiceCd=130&Type=search", "url2": "http://www.cgh-iga.jp" }, "geometry": { "type": "Point", "coordinates": [ 136.132875641664128, 34.74580262907488 ] } },
{ "type": "Feature", "properties": { "内容": "ハローケア訪問看護ステーション緑ヶ丘【訪問看護】三重県伊賀市上野桑町1777番地　1F", "url": "https://www.kaigokensaku.mhlw.go.jp/24/index.php?action_kouhyou_detail_004_kani=true&JigyosyoCd=2461290104-00&ServiceCd=130&Type=search", "url2": "hellocare-midori@heartland.or.jp" }, "geometry": { "type": "Point", "coordinates": [ 136.136686343196828, 34.756598135368563 ] } },
{ "type": "Feature", "properties": { "内容": "ななーる訪問看護ステーション【訪問看護】三重県伊賀市上阿波2953", "url": "https://www.kaigokensaku.mhlw.go.jp/24/index.php?action_kouhyou_detail_004_kani=true&JigyosyoCd=2461290187-00&ServiceCd=130&Type=search", "url2": "http://nana-r.jp" }, "geometry": { "type": "Point", "coordinates": [ 136.283889499999987, 34.7783959 ] } },
{ "type": "Feature", "properties": { "内容": "ナーシングホームもも鳥取【訪問看護】三重県員弁郡東員町鳥取917-2", "url": "https://www.kaigokensaku.mhlw.go.jp/24/index.php?action_kouhyou_detail_004_kani=true&JigyosyoCd=2462190071-00&ServiceCd=130&Type=search", "url2": "https://www.momo3.net" }, "geometry": { "type": "Point", "coordinates": [ 136.583378499999981, 35.0852727 ] } },
{ "type": "Feature", "properties": { "内容": "訪問看護スマイルステーション紫苑【訪問看護】三重県員弁郡東員町大字六把野新田字藪之内140番地7", "url": "https://www.kaigokensaku.mhlw.go.jp/24/index.php?action_kouhyou_detail_004_kani=true&JigyosyoCd=2462190063-00&ServiceCd=130&Type=search", "url2": "http://www.sion-toin.com" }, "geometry": { "type": "Point", "coordinates": [ 136.593785900000057, 35.0802981 ] } },
{ "type": "Feature", "properties": { "内容": "菰野町訪問看護ステーションけやき【訪問看護】三重県三重郡菰野町潤田1281菰野町保健福祉センターけやき", "url": "https://www.kaigokensaku.mhlw.go.jp/24/index.php?action_kouhyou_detail_004_kani=true&JigyosyoCd=2462290020-00&ServiceCd=130&Type=search", "url2": "http://komonovc.sakura.ne.jp/syakyo/" }, "geometry": { "type": "Point", "coordinates": [ 136.506298122753947, 35.020034652390564 ] } },
{ "type": "Feature", "properties": { "内容": "菰野厚生病院訪問看護ステーションいきいき【訪問看護】三重郡菰野町福村75番地", "url": "https://www.kaigokensaku.mhlw.go.jp/24/index.php?action_kouhyou_detail_004_kani=true&JigyosyoCd=2462290012-00&ServiceCd=130&Type=search", "url2": "http://www.miekosei.or.jp/3_kkh/" }, "geometry": { "type": "Point", "coordinates": [ 136.521167500000047, 35.0083947 ] } },
{ "type": "Feature", "properties": { "内容": "訪問看護Ａｉ（あい）【訪問看護】三重県三重郡菰野町大字菰野4977番地2", "url": "https://www.kaigokensaku.mhlw.go.jp/24/index.php?action_kouhyou_detail_004_kani=true&JigyosyoCd=2462290053-00&ServiceCd=130&Type=search", "url2": null }, "geometry": { "type": "Point", "coordinates": [ 136.480794780750841, 35.011746621376766 ] } },
{ "type": "Feature", "properties": { "内容": "訪問看護ステーション　ひまわり【訪問看護】三重県多気郡多気町五桂625", "url": "https://www.kaigokensaku.mhlw.go.jp/24/index.php?action_kouhyou_detail_004_kani=true&JigyosyoCd=2462790151-00&ServiceCd=130&Type=search", "url2": null }, "geometry": { "type": "Point", "coordinates": [ 136.5478673, 34.4765866 ] } },
{ "type": "Feature", "properties": { "内容": "マチナス訪問看護ステーション【訪問看護】三重県多気郡多気町相可1561番地1テナント大安101号室", "url": "https://www.kaigokensaku.mhlw.go.jp/24/index.php?action_kouhyou_detail_004_kani=true&JigyosyoCd=2462790136-00&ServiceCd=130&Type=search", "url2": "https://machinurse.co.jp/machinurse.html" }, "geometry": { "type": "Point", "coordinates": [ 136.5453961, 34.4964554 ] } },
{ "type": "Feature", "properties": { "内容": "笑楽訪問看護リハビリステーション【訪問看護】三重県多気郡明和町明星971番地1", "url": "https://www.kaigokensaku.mhlw.go.jp/24/index.php?action_kouhyou_detail_004_kani=true&JigyosyoCd=2462790128-00&ServiceCd=130&Type=search", "url2": null }, "geometry": { "type": "Point", "coordinates": [ 136.634030804582238, 34.52594542427893 ] } },
{ "type": "Feature", "properties": { "内容": "訪問看護　和【訪問看護】三重県多気郡明和町大淀2230-1訪問看護　和", "url": "https://www.kaigokensaku.mhlw.go.jp/24/index.php?action_kouhyou_detail_004_kani=true&JigyosyoCd=2462790078-00&ServiceCd=130&Type=search", "url2": null }, "geometry": { "type": "Point", "coordinates": [ 136.650968010559041, 34.558340013558848 ] } },
{ "type": "Feature", "properties": { "内容": "ほうもんかんごかりんめいわ【訪問看護】三重県多気郡明和町平尾字野田499番地15", "url": "https://www.kaigokensaku.mhlw.go.jp/24/index.php?action_kouhyou_detail_004_kani=true&JigyosyoCd=2462790086-00&ServiceCd=130&Type=search", "url2": "https://karin2.sakura.ne.jp/website_meiwa/" }, "geometry": { "type": "Point", "coordinates": [ 136.64123802712254, 34.54485961857722 ] } },
{ "type": "Feature", "properties": { "内容": "済生会明和訪問看護ステーション【訪問看護】三重県多気郡明和町大字上野435", "url": "https://www.kaigokensaku.mhlw.go.jp/24/index.php?action_kouhyou_detail_004_kani=true&JigyosyoCd=2462790045-00&ServiceCd=130&Type=search", "url2": "https://www.meiwa-saiseikai.jp" }, "geometry": { "type": "Point", "coordinates": [ 136.630314550123558, 34.531101965839291 ] } },
{ "type": "Feature", "properties": { "内容": "訪問看護の希望の丘【訪問看護】三重県多気郡明和町大字上村字松本101－5", "url": "https://www.kaigokensaku.mhlw.go.jp/24/index.php?action_kouhyou_detail_004_kani=true&JigyosyoCd=2462790094-00&ServiceCd=130&Type=search", "url2": "http://kibou-home.com" }, "geometry": { "type": "Point", "coordinates": [ 136.605722600000036, 34.5269784 ] } },
{ "type": "Feature", "properties": { "内容": "大台厚生病院訪問看護ステーションふるさと【訪問看護】三重県多気郡大台町上三瀬663-2", "url": "https://www.kaigokensaku.mhlw.go.jp/24/index.php?action_kouhyou_detail_004_kani=true&JigyosyoCd=2462790029-00&ServiceCd=130&Type=search", "url2": "http://www.miekosei.or.jp/5_okh/index.html" }, "geometry": { "type": "Point", "coordinates": [ 136.4178068, 34.4083747 ] } },
{ "type": "Feature", "properties": { "内容": "訪問看護ステーション虹の夢玉城【訪問看護】三重県度会郡玉城町蚊野2155番地サービス付き高齢者向け住宅癒しの郷翠龍内", "url": "https://www.kaigokensaku.mhlw.go.jp/24/index.php?action_kouhyou_detail_004_kani=true&JigyosyoCd=2462890159-00&ServiceCd=130&Type=search", "url2": null }, "geometry": { "type": "Point", "coordinates": [ 136.6058927, 34.4843341 ] } },
{ "type": "Feature", "properties": { "内容": "玉城町訪問看護ステーションたまき【訪問看護】三重県度会郡玉城町佐田８８１", "url": "https://www.kaigokensaku.mhlw.go.jp/24/index.php?action_kouhyou_detail_004_kani=true&JigyosyoCd=2462890043-00&ServiceCd=130&Type=search", "url2": "http://www.tamaki-hsp.jp/care/index.html" }, "geometry": { "type": "Point", "coordinates": [ 136.638990270599265, 34.489581987551446 ] } },
{ "type": "Feature", "properties": { "内容": "大紀訪問看護センター【訪問看護】三重県度会郡大紀町滝原1540", "url": "https://www.kaigokensaku.mhlw.go.jp/24/index.php?action_kouhyou_detail_004_kani=true&JigyosyoCd=2462890126-00&ServiceCd=130&Type=search", "url2": "http://hp.kaipoke.biz/bks/" }, "geometry": { "type": "Point", "coordinates": [ 136.415130800000043, 34.3582806 ] } },
{ "type": "Feature", "properties": { "内容": "訪問看護・介護ステーション　福寿【訪問看護】三重県度会郡南伊勢町斎田316番地45", "url": "https://www.kaigokensaku.mhlw.go.jp/24/index.php?action_kouhyou_detail_004_kani=true&JigyosyoCd=2462890092-00&ServiceCd=130&Type=search", "url2": null }, "geometry": { "type": "Point", "coordinates": [ 136.636811166270462, 34.338893029483891 ] } },
{ "type": "Feature", "properties": { "内容": "nano訪問看護ステーション【訪問看護】三重県度会郡南伊勢町泉309-1", "url": "https://www.kaigokensaku.mhlw.go.jp/24/index.php?action_kouhyou_detail_004_kani=true&JigyosyoCd=2462890167-00&ServiceCd=130&Type=search", "url2": null }, "geometry": { "type": "Point", "coordinates": [ 136.720736499999987, 34.3488727 ] } },
{ "type": "Feature", "properties": { "内容": "南島メディカルセンター　訪問看護ステーションあじさい【訪問看護】三重県度会郡南伊勢町慥柄浦1－1", "url": "https://www.kaigokensaku.mhlw.go.jp/24/index.php?action_kouhyou_detail_004_kani=true&JigyosyoCd=2462890035-00&ServiceCd=130&Type=search", "url2": "http://www.miekosei.or.jp/nah/" }, "geometry": { "type": "Point", "coordinates": [ 136.569494799999973, 34.290055099999989 ] } },
{ "type": "Feature", "properties": { "内容": "訪問看護リハビリステーションCOCORO【訪問看護】三重県度会郡南伊勢町五ヶ所浦3799-1", "url": "https://www.kaigokensaku.mhlw.go.jp/24/index.php?action_kouhyou_detail_004_kani=true&JigyosyoCd=2462890175-00&ServiceCd=130&Type=search", "url2": "https://cocorost-556.jp" }, "geometry": { "type": "Point", "coordinates": [ 136.7081771, 34.3487658 ] } },
{ "type": "Feature", "properties": { "内容": "訪問看護ステーションはっぴぃ【訪問看護】三重県北牟婁郡紀北町上里945-4", "url": "https://www.kaigokensaku.mhlw.go.jp/24/index.php?action_kouhyou_detail_004_kani=true&JigyosyoCd=2463090031-00&ServiceCd=130&Type=search", "url2": "https;//www.ganbarunda-happy.com" }, "geometry": { "type": "Point", "coordinates": [ 136.2408946, 34.1427416 ] } },
{ "type": "Feature", "properties": { "内容": "きほくリハスタジオ訪問看護ステーション【訪問看護】三重県北牟婁郡紀北町馬瀬1025番地1", "url": "https://www.kaigokensaku.mhlw.go.jp/24/index.php?action_kouhyou_detail_004_kani=true&JigyosyoCd=2463090023-00&ServiceCd=130&Type=search", "url2": null }, "geometry": { "type": "Point", "coordinates": [ 136.2485888, 34.146032 ] } },
{ "type": "Feature", "properties": { "内容": "ＮＰＯ法人つどい【訪問看護】三重県南牟婁郡御浜町大字志原字赤崎平１８１９番地33", "url": "https://www.kaigokensaku.mhlw.go.jp/24/index.php?action_kouhyou_detail_004_kani=true&JigyosyoCd=2463190013-00&ServiceCd=130&Type=search", "url2": "http://npo-tsudoi.com" }, "geometry": { "type": "Point", "coordinates": [ 136.048724, 33.8144776 ] } },
{ "type": "Feature", "properties": { "内容": "三重県南牟婁郡御浜町阿田和177【訪問看護】阿田和177", "url": "https://www.kaigokensaku.mhlw.go.jp/24/index.php?action_kouhyou_detail_004_kani=true&JigyosyoCd=2463190062-00&ServiceCd=130&Type=search", "url2": "http://www.kinan-hp-mie.jp" }, "geometry": { "type": "Point", "coordinates": [ 136.035388899999987, 33.801646 ] } },
{ "type": "Feature", "properties": { "内容": "紀南訪問看護ステーション【訪問看護】志原１８１７−４", "url": "https://www.kaigokensaku.mhlw.go.jp/24/index.php?action_kouhyou_detail_004_kani=true&JigyosyoCd=2463190088-00&ServiceCd=130&Type=search", "url2": null }, "geometry": { "type": "Point", "coordinates": [ 136.0632367, 33.842058 ] } },
{ "type": "Feature", "properties": { "内容": "紀宝町訪問看護ステーション【訪問看護】三重県南牟婁郡紀宝町鵜殿１１９０番地", "url": "https://www.kaigokensaku.mhlw.go.jp/24/index.php?action_kouhyou_detail_004_kani=true&JigyosyoCd=2463190070-00&ServiceCd=130&Type=search", "url2": null }, "geometry": { "type": "Point", "coordinates": [ 136.0102757, 33.7409092 ] } }
]
}
