{
"type": "FeatureCollection",
"name": "geo_24_福祉用具貸与",
"crs": { "type": "name", "properties": { "name": "urn:ogc:def:crs:OGC:1.3:CRS84" } },
"features": [
{ "type": "Feature", "properties": { "内容": "有限会社三重健康管理システム【福祉用具貸与】津市緑ヶ丘１丁目１４－１０", "url": "https://www.kaigokensaku.mhlw.go.jp/24/index.php?action_kouhyou_detail_004_kani=true&JigyosyoCd=2470500220-00&ServiceCd=170&Type=search", "url2": "http://www.mkks.co.jp" }, "geometry": { "type": "Point", "coordinates": [ 136.472146899999984, 34.7102076 ] } },
{ "type": "Feature", "properties": { "内容": "フランスベッド株式会社メディカル三重営業所【福祉用具貸与】三重県津市芸濃町椋本2020三重中央倉庫2F", "url": "https://www.kaigokensaku.mhlw.go.jp/24/index.php?action_kouhyou_detail_004_kani=true&JigyosyoCd=2472400395-00&ServiceCd=170&Type=search", "url2": "http://www.francebed.co.jp" }, "geometry": { "type": "Point", "coordinates": [ 136.432307300000048, 34.8024324 ] } },
{ "type": "Feature", "properties": { "内容": "おたすけ工房福祉用具貸与事業所【福祉用具貸与】三重県津市阿漕町津興１１９７番地", "url": "https://www.kaigokensaku.mhlw.go.jp/24/index.php?action_kouhyou_detail_004_kani=true&JigyosyoCd=2470505484-00&ServiceCd=170&Type=search", "url2": null }, "geometry": { "type": "Point", "coordinates": [ 136.51308610000001, 34.7021905 ] } },
{ "type": "Feature", "properties": { "内容": "ヤガミホームヘルスセンター津【福祉用具貸与】三重県津市丸之内養正町4番1号丸之内三重ビル", "url": "https://www.kaigokensaku.mhlw.go.jp/24/index.php?action_kouhyou_detail_004_kani=true&JigyosyoCd=2470500436-00&ServiceCd=170&Type=search", "url2": "http://www.yagami.co.jp/yhhc" }, "geometry": { "type": "Point", "coordinates": [ 136.506197445663446, 34.719950237232034 ] } },
{ "type": "Feature", "properties": { "内容": "ウェル　青空【福祉用具貸与】高茶屋6丁目10番14号", "url": "https://www.kaigokensaku.mhlw.go.jp/24/index.php?action_kouhyou_detail_004_kani=true&JigyosyoCd=2470506615-00&ServiceCd=170&Type=search", "url2": null }, "geometry": { "type": "Point", "coordinates": [ 136.4998329, 34.6729894 ] } },
{ "type": "Feature", "properties": { "内容": "本町福祉用具貸与事業シルバーケア豊壽園【福祉用具貸与】三重県津市本町26番地13号", "url": "https://www.kaigokensaku.mhlw.go.jp/24/index.php?action_kouhyou_detail_004_kani=true&JigyosyoCd=2470600046-00&ServiceCd=170&Type=search", "url2": "http://www.sensin.or.jp/" }, "geometry": { "type": "Point", "coordinates": [ 136.508829350926248, 34.712042211181696 ] } },
{ "type": "Feature", "properties": { "内容": "ダスキンヘルスレント三重中ステーション【福祉用具貸与】納所町41-7", "url": "https://www.kaigokensaku.mhlw.go.jp/24/index.php?action_kouhyou_detail_004_kani=true&JigyosyoCd=2470505385-00&ServiceCd=170&Type=search", "url2": "https://healthrent.duskin.jp/" }, "geometry": { "type": "Point", "coordinates": [ 136.494507529397652, 34.726310388938195 ] } },
{ "type": "Feature", "properties": { "内容": "株式会社ダイイチ　福祉用具貸与事業所【福祉用具貸与】三重県津市河芸町東千里８５４－３", "url": "https://www.kaigokensaku.mhlw.go.jp/24/index.php?action_kouhyou_detail_004_kani=true&JigyosyoCd=2472400304-00&ServiceCd=170&Type=search", "url2": "https://www.wan-wan.co.jp/294/" }, "geometry": { "type": "Point", "coordinates": [ 136.562971394165061, 34.799206316494207 ] } },
{ "type": "Feature", "properties": { "内容": "近鉄スマイルライフ　中南勢支店【福祉用具貸与】津市高茶屋小森町４０９０－２", "url": "https://www.kaigokensaku.mhlw.go.jp/24/index.php?action_kouhyou_detail_004_kani=true&JigyosyoCd=2470503828-00&ServiceCd=170&Type=search", "url2": "http://www.k-smile.com" }, "geometry": { "type": "Point", "coordinates": [ 136.495126699999986, 34.6718073 ] } },
{ "type": "Feature", "properties": { "内容": "ライフ・テクノサービス津【福祉用具貸与】津市垂水686", "url": "https://www.kaigokensaku.mhlw.go.jp/24/index.php?action_kouhyou_detail_004_kani=true&JigyosyoCd=2470500030-00&ServiceCd=170&Type=search", "url2": "http://www.life-techno.jp/" }, "geometry": { "type": "Point", "coordinates": [ 136.507840200000032, 34.6926885 ] } },
{ "type": "Feature", "properties": { "内容": "株式会社　福祉技研【福祉用具貸与】一志町其倉287", "url": "https://www.kaigokensaku.mhlw.go.jp/24/index.php?action_kouhyou_detail_004_kani=true&JigyosyoCd=2470504404-00&ServiceCd=170&Type=search", "url2": null }, "geometry": { "type": "Point", "coordinates": [ 136.417086136725629, 34.668355852489071 ] } },
{ "type": "Feature", "properties": { "内容": "ふくさんのお店【福祉用具貸与】三重県津市東丸之内8‐12", "url": "https://www.kaigokensaku.mhlw.go.jp/24/index.php?action_kouhyou_detail_004_kani=true&JigyosyoCd=2470501152-00&ServiceCd=170&Type=search", "url2": "http://fukusan-shop.com" }, "geometry": { "type": "Point", "coordinates": [ 136.511090171971404, 34.715175764148846 ] } },
{ "type": "Feature", "properties": { "内容": "株式会社　トーカイ　三重支店【福祉用具貸与】三重県津市高茶屋小森町４０９番地１", "url": "https://www.kaigokensaku.mhlw.go.jp/24/index.php?action_kouhyou_detail_004_kani=true&JigyosyoCd=2470500329-00&ServiceCd=170&Type=search", "url2": "http://www.tokai-corp.com/" }, "geometry": { "type": "Point", "coordinates": [ 136.517067699999984, 34.6739322 ] } },
{ "type": "Feature", "properties": { "内容": "株式会社ケアクレスト【福祉用具貸与】三重県津市庄田町1400", "url": "https://www.kaigokensaku.mhlw.go.jp/24/index.php?action_kouhyou_detail_004_kani=true&JigyosyoCd=2470600400-00&ServiceCd=170&Type=search", "url2": "https://carecrest.studio.site/" }, "geometry": { "type": "Point", "coordinates": [ 136.42161980000003, 34.6761112 ] } },
{ "type": "Feature", "properties": { "内容": "福祉用具貸与・販売　安濃津ろまん【福祉用具貸与】津市神戸154番9サービス付き高齢者向け住宅　安濃津ろまん内", "url": "https://www.kaigokensaku.mhlw.go.jp/24/index.php?action_kouhyou_detail_004_kani=true&JigyosyoCd=2470504321-00&ServiceCd=170&Type=search", "url2": "http://www.anotsu-roman.jp" }, "geometry": { "type": "Point", "coordinates": [ 136.489341599999989, 34.7147879 ] } },
{ "type": "Feature", "properties": { "内容": "ケアショップ　サン【福祉用具貸与】三重県津市一身田上津部田1424", "url": "https://www.kaigokensaku.mhlw.go.jp/24/index.php?action_kouhyou_detail_004_kani=true&JigyosyoCd=2470503273-00&ServiceCd=170&Type=search", "url2": "http://www.sunhills-garden.jp/" }, "geometry": { "type": "Point", "coordinates": [ 136.498866799999973, 34.7427864 ] } },
{ "type": "Feature", "properties": { "内容": "株式会社enカンパニー【福祉用具貸与】三重県津市久居西鷹跡町478-10", "url": "https://www.kaigokensaku.mhlw.go.jp/24/index.php?action_kouhyou_detail_004_kani=true&JigyosyoCd=2470506227-00&ServiceCd=170&Type=search", "url2": "https://encompany.jp/" }, "geometry": { "type": "Point", "coordinates": [ 136.463143, 34.6748134 ] } },
{ "type": "Feature", "properties": { "内容": "グリーンヒル　ケアサポートセンター【福祉用具貸与】三重県津市緑が丘一丁目１番地１", "url": "https://www.kaigokensaku.mhlw.go.jp/24/index.php?action_kouhyou_detail_004_kani=true&JigyosyoCd=2470506631-00&ServiceCd=170&Type=search", "url2": "http://www.akeai.or.jp/" }, "geometry": { "type": "Point", "coordinates": [ 136.472026380817226, 34.71369112929537 ] } },
{ "type": "Feature", "properties": { "内容": "株式会社　ユウシン【福祉用具貸与】三重県津市城山1丁目1番22号", "url": "https://www.kaigokensaku.mhlw.go.jp/24/index.php?action_kouhyou_detail_004_kani=true&JigyosyoCd=2470505492-00&ServiceCd=170&Type=search", "url2": null }, "geometry": { "type": "Point", "coordinates": [ 136.506241600000067, 34.6735183 ] } },
{ "type": "Feature", "properties": { "内容": "ケアショップいちし【福祉用具貸与】三重県津市一志町日置46番地", "url": "https://www.kaigokensaku.mhlw.go.jp/24/index.php?action_kouhyou_detail_004_kani=true&JigyosyoCd=2470504735-00&ServiceCd=170&Type=search", "url2": null }, "geometry": { "type": "Point", "coordinates": [ 136.445182400000022, 34.6576441 ] } },
{ "type": "Feature", "properties": { "内容": "エミタス福祉用具貸与事業所【福祉用具貸与】三重県津市大倉4番23号", "url": "https://www.kaigokensaku.mhlw.go.jp/24/index.php?action_kouhyou_detail_004_kani=true&JigyosyoCd=2470506185-00&ServiceCd=170&Type=search", "url2": "https://emitas.net" }, "geometry": { "type": "Point", "coordinates": [ 136.507395635581929, 34.70113028479139 ] } },
{ "type": "Feature", "properties": { "内容": "ラミコジャパン株式会社　シルバーサポート三重中央店【福祉用具貸与】三重県四日市市川原町23-23", "url": "https://www.kaigokensaku.mhlw.go.jp/24/index.php?action_kouhyou_detail_004_kani=true&JigyosyoCd=2470205564-00&ServiceCd=170&Type=search", "url2": "https://www.ramico.co.jp/" }, "geometry": { "type": "Point", "coordinates": [ 136.627870199999961, 34.9746612 ] } },
{ "type": "Feature", "properties": { "内容": "福ちゃん【福祉用具貸与】三重県四日市市小杉町299-1", "url": "https://www.kaigokensaku.mhlw.go.jp/24/index.php?action_kouhyou_detail_004_kani=true&JigyosyoCd=2470206653-00&ServiceCd=170&Type=search", "url2": null }, "geometry": { "type": "Point", "coordinates": [ 136.6061075, 34.9895668 ] } },
{ "type": "Feature", "properties": { "内容": "日本ケアシステム株式会社　四日市営業所【福祉用具貸与】三重県四日市市ときわ2丁目12番23号", "url": "https://www.kaigokensaku.mhlw.go.jp/24/index.php?action_kouhyou_detail_004_kani=true&JigyosyoCd=2470200052-00&ServiceCd=170&Type=search", "url2": "http://www.jcs-jcs.com/" }, "geometry": { "type": "Point", "coordinates": [ 136.594099466781586, 34.967438418530698 ] } },
{ "type": "Feature", "properties": { "内容": "日本ケアシステム株式会社　北勢営業所【福祉用具貸与】三重県四日市市川北3丁目1番11号", "url": "https://www.kaigokensaku.mhlw.go.jp/24/index.php?action_kouhyou_detail_004_kani=true&JigyosyoCd=2470202520-00&ServiceCd=170&Type=search", "url2": "https://www.jcs-jcs.com" }, "geometry": { "type": "Point", "coordinates": [ 136.642423399999984, 35.0235747 ] } },
{ "type": "Feature", "properties": { "内容": "ゴールドエイジ福祉レンタル【福祉用具貸与】三重県四日市市城西町７－３２", "url": "https://www.kaigokensaku.mhlw.go.jp/24/index.php?action_kouhyou_detail_004_kani=true&JigyosyoCd=2470205507-00&ServiceCd=170&Type=search", "url2": null }, "geometry": { "type": "Point", "coordinates": [ 136.603483357672076, 34.964257923898522 ] } },
{ "type": "Feature", "properties": { "内容": "さん・あーす【福祉用具貸与】別名五丁目1574番地2", "url": "https://www.kaigokensaku.mhlw.go.jp/24/index.php?action_kouhyou_detail_004_kani=true&JigyosyoCd=2470205846-00&ServiceCd=170&Type=search", "url2": null }, "geometry": { "type": "Point", "coordinates": [ 136.631507742783356, 34.99499372974401 ] } },
{ "type": "Feature", "properties": { "内容": "ライフ・テクノサービス四日市【福祉用具貸与】四日市市大治田2-18-19", "url": "https://www.kaigokensaku.mhlw.go.jp/24/index.php?action_kouhyou_detail_004_kani=true&JigyosyoCd=2470201472-00&ServiceCd=170&Type=search", "url2": "http://www.life-techno.jp/" }, "geometry": { "type": "Point", "coordinates": [ 136.615688699999964, 34.958023900000015 ] } },
{ "type": "Feature", "properties": { "内容": "近鉄スマイルライフ株式会社【福祉用具貸与】三重県四日市市柳町81番地", "url": "https://www.kaigokensaku.mhlw.go.jp/24/index.php?action_kouhyou_detail_004_kani=true&JigyosyoCd=2470202785-00&ServiceCd=170&Type=search", "url2": "http://www.k-smile.com" }, "geometry": { "type": "Point", "coordinates": [ 136.621875113244641, 34.934876000889673 ] } },
{ "type": "Feature", "properties": { "内容": "ダスキンヘルスレント三重北ステーション【福祉用具貸与】三重県四日市市生桑町233-5", "url": "https://www.kaigokensaku.mhlw.go.jp/24/index.php?action_kouhyou_detail_004_kani=true&JigyosyoCd=2470205671-00&ServiceCd=170&Type=search", "url2": "https://healthrent.duskin.jp" }, "geometry": { "type": "Point", "coordinates": [ 136.599483108409345, 34.985030919807386 ] } },
{ "type": "Feature", "properties": { "内容": "ハートケアサポート株式会社【福祉用具貸与】三重県四日市市曽井町1532-1", "url": "https://www.kaigokensaku.mhlw.go.jp/24/index.php?action_kouhyou_detail_004_kani=true&JigyosyoCd=2470204088-00&ServiceCd=170&Type=search", "url2": "http://www.heart-cs.com/" }, "geometry": { "type": "Point", "coordinates": [ 136.5817942, 34.9845066 ] } },
{ "type": "Feature", "properties": { "内容": "株式会社ヤマシタ三重営業所【福祉用具貸与】三重県四日市市城西町15-41", "url": "https://www.kaigokensaku.mhlw.go.jp/24/index.php?action_kouhyou_detail_004_kani=true&JigyosyoCd=2470204617-00&ServiceCd=170&Type=search", "url2": "http://www.yco.co.jp/" }, "geometry": { "type": "Point", "coordinates": [ 136.601514899999984, 34.9647393 ] } },
{ "type": "Feature", "properties": { "内容": "パーソナルケアくろべ【福祉用具貸与】三重県四日市市鵜の森1丁目4-3メディカルセンタービル1階", "url": "https://www.kaigokensaku.mhlw.go.jp/24/index.php?action_kouhyou_detail_004_kani=true&JigyosyoCd=2470204658-00&ServiceCd=170&Type=search", "url2": "https://www.misonomura.jp/company/index.html" }, "geometry": { "type": "Point", "coordinates": [ 136.616048596802159, 34.966232232515111 ] } },
{ "type": "Feature", "properties": { "内容": "福祉サポート　とまと【福祉用具貸与】三重県四日市市笹川１丁目１８２番地1", "url": "https://www.kaigokensaku.mhlw.go.jp/24/index.php?action_kouhyou_detail_004_kani=true&JigyosyoCd=2470206570-00&ServiceCd=170&Type=search", "url2": "https://jayacare.jp/" }, "geometry": { "type": "Point", "coordinates": [ 136.582074799999987, 34.9483869 ] } },
{ "type": "Feature", "properties": { "内容": "株式会社JUデザイン【福祉用具貸与】三重県四日市市東坂部町53-1", "url": "https://www.kaigokensaku.mhlw.go.jp/24/index.php?action_kouhyou_detail_004_kani=true&JigyosyoCd=2470206596-00&ServiceCd=170&Type=search", "url2": "https://cocoro-hs-group.com" }, "geometry": { "type": "Point", "coordinates": [ 136.5948994, 34.9931891 ] } },
{ "type": "Feature", "properties": { "内容": "福祉用具ショップ　インクル【福祉用具貸与】三重県四日市市赤堀南町6-7", "url": "https://www.kaigokensaku.mhlw.go.jp/24/index.php?action_kouhyou_detail_004_kani=true&JigyosyoCd=2470206158-00&ServiceCd=170&Type=search", "url2": "https://www.aska-kaigo.jp/" }, "geometry": { "type": "Point", "coordinates": [ 136.610500552114871, 34.957987159915923 ] } },
{ "type": "Feature", "properties": { "内容": "生活のおたすけ　えくぼ【福祉用具貸与】三重県四日市市東富田町1747-20-102", "url": "https://www.kaigokensaku.mhlw.go.jp/24/index.php?action_kouhyou_detail_004_kani=true&JigyosyoCd=2470206638-00&ServiceCd=170&Type=search", "url2": null }, "geometry": { "type": "Point", "coordinates": [ 136.6566541, 35.0021668 ] } },
{ "type": "Feature", "properties": { "内容": "ケアショップクロセ福祉用具貸与事業所【福祉用具貸与】三重県伊勢市中村町732-1ﾌｼﾞﾚｼﾞﾃﾞﾝｽ２Ａ", "url": "https://www.kaigokensaku.mhlw.go.jp/24/index.php?action_kouhyou_detail_004_kani=true&JigyosyoCd=2470800513-00&ServiceCd=170&Type=search", "url2": null }, "geometry": { "type": "Point", "coordinates": [ 136.726880028398426, 34.471155112445487 ] } },
{ "type": "Feature", "properties": { "内容": "オレンジレンタステーション【福祉用具貸与】三重県伊勢市西豊浜町1720", "url": "https://www.kaigokensaku.mhlw.go.jp/24/index.php?action_kouhyou_detail_004_kani=true&JigyosyoCd=2470803053-00&ServiceCd=170&Type=search", "url2": "eaglejapan.net/orange" }, "geometry": { "type": "Point", "coordinates": [ 136.6904533, 34.5226549 ] } },
{ "type": "Feature", "properties": { "内容": "ダスキンヘルスレント伊勢ステーション【福祉用具貸与】伊勢市上地町1177-2", "url": "https://www.kaigokensaku.mhlw.go.jp/24/index.php?action_kouhyou_detail_004_kani=true&JigyosyoCd=2470802295-00&ServiceCd=170&Type=search", "url2": "http://healthrent.duskin.jp/" }, "geometry": { "type": "Point", "coordinates": [ 136.669778435581946, 34.496012357115781 ] } },
{ "type": "Feature", "properties": { "内容": "住環境事業部【福祉用具貸与】伊勢市小俣町明野1308", "url": "https://www.kaigokensaku.mhlw.go.jp/24/index.php?action_kouhyou_detail_004_kani=true&JigyosyoCd=2470800463-00&ServiceCd=170&Type=search", "url2": "http://www.morisin.co.jp" }, "geometry": { "type": "Point", "coordinates": [ 136.669746910939665, 34.520083229467822 ] } },
{ "type": "Feature", "properties": { "内容": "社会福祉法人　伊勢市社会福祉協議会　御薗福祉用具貸与事業所【福祉用具貸与】三重県伊勢市御薗町長屋2767", "url": "https://www.kaigokensaku.mhlw.go.jp/24/index.php?action_kouhyou_detail_004_kani=true&JigyosyoCd=2472800156-00&ServiceCd=170&Type=search", "url2": "https://ise-shakyo.jp/" }, "geometry": { "type": "Point", "coordinates": [ 136.707624799999962, 34.509978 ] } },
{ "type": "Feature", "properties": { "内容": "ケアフィットコールス【福祉用具貸与】三重県伊勢市小俣町宮前641番地1", "url": "https://www.kaigokensaku.mhlw.go.jp/24/index.php?action_kouhyou_detail_004_kani=true&JigyosyoCd=2470802402-00&ServiceCd=170&Type=search", "url2": "http://care-fit.com" }, "geometry": { "type": "Point", "coordinates": [ 136.671372568122933, 34.496380876897646 ] } },
{ "type": "Feature", "properties": { "内容": "グッド・ナル【福祉用具貸与】三重県伊勢市竹ヶ鼻町３７３番地", "url": "https://www.kaigokensaku.mhlw.go.jp/24/index.php?action_kouhyou_detail_004_kani=true&JigyosyoCd=2470802212-00&ServiceCd=170&Type=search", "url2": "http://goodnal.com/index.html" }, "geometry": { "type": "Point", "coordinates": [ 136.726613217362001, 34.509614095978243 ] } },
{ "type": "Feature", "properties": { "内容": "株式会社　愛安住　伊勢営業所【福祉用具貸与】伊勢市前山町123-3", "url": "https://www.kaigokensaku.mhlw.go.jp/24/index.php?action_kouhyou_detail_004_kani=true&JigyosyoCd=2470802287-00&ServiceCd=170&Type=search", "url2": "https://www.aianju.co.jp/" }, "geometry": { "type": "Point", "coordinates": [ 136.6921208, 34.4690941 ] } },
{ "type": "Feature", "properties": { "内容": "有限会社イスズライフケア【福祉用具貸与】三重県伊勢市小俣町湯田1490", "url": "https://www.kaigokensaku.mhlw.go.jp/24/index.php?action_kouhyou_detail_004_kani=true&JigyosyoCd=2472800511-00&ServiceCd=170&Type=search", "url2": "http://www.isuzu-lifecare.co.jp" }, "geometry": { "type": "Point", "coordinates": [ 136.646903222058341, 34.507230480680029 ] } },
{ "type": "Feature", "properties": { "内容": "有限会社丸京家具【福祉用具貸与】三重県伊勢市浦口2-4-22", "url": "https://www.kaigokensaku.mhlw.go.jp/24/index.php?action_kouhyou_detail_004_kani=true&JigyosyoCd=2470800992-00&ServiceCd=170&Type=search", "url2": null }, "geometry": { "type": "Point", "coordinates": [ 136.695687099999986, 34.4921964 ] } },
{ "type": "Feature", "properties": { "内容": "ライフ・テクノサービス伊勢【福祉用具貸与】伊勢市御薗町長屋3146-1", "url": "https://www.kaigokensaku.mhlw.go.jp/24/index.php?action_kouhyou_detail_004_kani=true&JigyosyoCd=2472800636-00&ServiceCd=170&Type=search", "url2": "http://www.life-techno.jp/" }, "geometry": { "type": "Point", "coordinates": [ 136.698951163194693, 34.496166437549675 ] } },
{ "type": "Feature", "properties": { "内容": "ＭＯＭＯ工房　株式会社【福祉用具貸与】三重県松阪市嬉野平生町960-20", "url": "https://www.kaigokensaku.mhlw.go.jp/24/index.php?action_kouhyou_detail_004_kani=true&JigyosyoCd=2470701885-00&ServiceCd=170&Type=search", "url2": "info@momo-kobo.com/" }, "geometry": { "type": "Point", "coordinates": [ 136.463603599999942, 34.643921 ] } },
{ "type": "Feature", "properties": { "内容": "福祉用具レンタル　株式会社アルバ【福祉用具貸与】三重県松阪市下村町８６９番地54エスペランサ下村", "url": "https://www.kaigokensaku.mhlw.go.jp/24/index.php?action_kouhyou_detail_004_kani=true&JigyosyoCd=2470704418-00&ServiceCd=170&Type=search", "url2": "https://esperanza-kaigo.com/pages/73/" }, "geometry": { "type": "Point", "coordinates": [ 136.5409888, 34.5500194 ] } },
{ "type": "Feature", "properties": { "内容": "株式会社　松阪介護サービス【福祉用具貸与】三重県松阪市鎌田町232番地の5", "url": "https://www.kaigokensaku.mhlw.go.jp/24/index.php?action_kouhyou_detail_004_kani=true&JigyosyoCd=2470700564-00&ServiceCd=170&Type=search", "url2": null }, "geometry": { "type": "Point", "coordinates": [ 136.536426417196708, 34.581873488018296 ] } },
{ "type": "Feature", "properties": { "内容": "亀楽堂有限会社【福祉用具貸与】松阪市大黒田町1741番地1", "url": "https://www.kaigokensaku.mhlw.go.jp/24/index.php?action_kouhyou_detail_004_kani=true&JigyosyoCd=2470700275-00&ServiceCd=170&Type=search", "url2": "http://www.kirakudo.jp/" }, "geometry": { "type": "Point", "coordinates": [ 136.523826699999944, 34.5668662 ] } },
{ "type": "Feature", "properties": { "内容": "ダスキンヘルスレント松阪ステーション【福祉用具貸与】松阪市宝塚町108-3マツザカ第2ビル", "url": "https://www.kaigokensaku.mhlw.go.jp/24/index.php?action_kouhyou_detail_004_kani=true&JigyosyoCd=2470701836-00&ServiceCd=170&Type=search", "url2": "http://healthrent.duskin.jp" }, "geometry": { "type": "Point", "coordinates": [ 136.51473740000003, 34.5519639 ] } },
{ "type": "Feature", "properties": { "内容": "ふれあいの里くしだ【福祉用具貸与】三重県松阪市櫛田町647番地2", "url": "https://www.kaigokensaku.mhlw.go.jp/24/index.php?action_kouhyou_detail_004_kani=true&JigyosyoCd=2470703998-00&ServiceCd=170&Type=search", "url2": "fureai-kushida@mienaka.jamie.or.jp" }, "geometry": { "type": "Point", "coordinates": [ 136.58774800004511, 34.550497082411425 ] } },
{ "type": "Feature", "properties": { "内容": "アイリス南郊株式会社【福祉用具貸与】三重県松阪市山室町2358番地11", "url": "https://www.kaigokensaku.mhlw.go.jp/24/index.php?action_kouhyou_detail_004_kani=true&JigyosyoCd=2470700200-00&ServiceCd=170&Type=search", "url2": null }, "geometry": { "type": "Point", "coordinates": [ 136.528946499999961, 34.5383642 ] } },
{ "type": "Feature", "properties": { "内容": "福祉用具貸与販売みどりの森【福祉用具貸与】下村町1963-2", "url": "https://www.kaigokensaku.mhlw.go.jp/24/index.php?action_kouhyou_detail_004_kani=true&JigyosyoCd=2470703667-00&ServiceCd=170&Type=search", "url2": "http://www.midori-nomori.com" }, "geometry": { "type": "Point", "coordinates": [ 136.546873460357688, 34.54703457627393 ] } },
{ "type": "Feature", "properties": { "内容": "スミナス　松阪事業所【福祉用具貸与】三重県松阪市荒木町174-10", "url": "https://www.kaigokensaku.mhlw.go.jp/24/index.php?action_kouhyou_detail_004_kani=true&JigyosyoCd=2470704269-00&ServiceCd=170&Type=search", "url2": null }, "geometry": { "type": "Point", "coordinates": [ 136.544837203041084, 34.591190545041052 ] } },
{ "type": "Feature", "properties": { "内容": "株式会社　愛安住　松阪営業所【福祉用具貸与】松阪市久保町698-1", "url": "https://www.kaigokensaku.mhlw.go.jp/24/index.php?action_kouhyou_detail_004_kani=true&JigyosyoCd=2470701810-00&ServiceCd=170&Type=search", "url2": "https://www.aianju.co.jp" }, "geometry": { "type": "Point", "coordinates": [ 136.5404115, 34.5591402 ] } },
{ "type": "Feature", "properties": { "内容": "アクアレンタルケア【福祉用具貸与】三重県松阪市西之庄町51-2", "url": "https://www.kaigokensaku.mhlw.go.jp/24/index.php?action_kouhyou_detail_004_kani=true&JigyosyoCd=2470704459-00&ServiceCd=170&Type=search", "url2": null }, "geometry": { "type": "Point", "coordinates": [ 136.5226446, 34.5808545 ] } },
{ "type": "Feature", "properties": { "内容": "総合レンタリース飯南【福祉用具貸与】三重県松阪市飯南町粥見１７６８番地１", "url": "https://www.kaigokensaku.mhlw.go.jp/24/index.php?action_kouhyou_detail_004_kani=true&JigyosyoCd=2470702743-00&ServiceCd=170&Type=search", "url2": null }, "geometry": { "type": "Point", "coordinates": [ 136.404115400000023, 34.4493471 ] } },
{ "type": "Feature", "properties": { "内容": "有限会社　クローバー【福祉用具貸与】三重県松阪市曽原町１６５－１", "url": "https://www.kaigokensaku.mhlw.go.jp/24/index.php?action_kouhyou_detail_004_kani=true&JigyosyoCd=2472500194-00&ServiceCd=170&Type=search", "url2": null }, "geometry": { "type": "Point", "coordinates": [ 136.508957199999941, 34.6265714 ] } },
{ "type": "Feature", "properties": { "内容": "三重県健康福祉生活協同組合【福祉用具貸与】三重県松阪市春日町2丁目88-2", "url": "https://www.kaigokensaku.mhlw.go.jp/24/index.php?action_kouhyou_detail_004_kani=true&JigyosyoCd=2470700051-00&ServiceCd=170&Type=search", "url2": null }, "geometry": { "type": "Point", "coordinates": [ 136.537043499999982, 34.5761034 ] } },
{ "type": "Feature", "properties": { "内容": "ライフ・テクノサービス松阪【福祉用具貸与】松阪市新松ヶ島町182-1", "url": "https://www.kaigokensaku.mhlw.go.jp/24/index.php?action_kouhyou_detail_004_kani=true&JigyosyoCd=2470703006-00&ServiceCd=170&Type=search", "url2": "http://www.life-techno.jp/" }, "geometry": { "type": "Point", "coordinates": [ 136.523370200000045, 34.598741 ] } },
{ "type": "Feature", "properties": { "内容": "みまもりたい【福祉用具貸与】松阪市下村町898-1", "url": "https://www.kaigokensaku.mhlw.go.jp/24/index.php?action_kouhyou_detail_004_kani=true&JigyosyoCd=2470700192-00&ServiceCd=170&Type=search", "url2": null }, "geometry": { "type": "Point", "coordinates": [ 136.543150500000024, 34.5503829 ] } },
{ "type": "Feature", "properties": { "内容": "有限会社　住まいのドクター【福祉用具貸与】三重県松阪市春日町２丁目１３１番地", "url": "https://www.kaigokensaku.mhlw.go.jp/24/index.php?action_kouhyou_detail_004_kani=true&JigyosyoCd=2470700341-00&ServiceCd=170&Type=search", "url2": "kasuga＠sumaino-dr.com" }, "geometry": { "type": "Point", "coordinates": [ 136.530462299999954, 34.5640364 ] } },
{ "type": "Feature", "properties": { "内容": "アクティブ福祉用具レンタル販売【福祉用具貸与】三重県桑名市大仲増田595番地", "url": "https://www.kaigokensaku.mhlw.go.jp/24/index.php?action_kouhyou_detail_004_kani=true&JigyosyoCd=2470102530-00&ServiceCd=170&Type=search", "url2": null }, "geometry": { "type": "Point", "coordinates": [ 136.650423026434026, 35.058388273371541 ] } },
{ "type": "Feature", "properties": { "内容": "株式会社さくらライフクリエイト【福祉用具貸与】三重県桑名市大字江場413番地", "url": "https://www.kaigokensaku.mhlw.go.jp/24/index.php?action_kouhyou_detail_004_kani=true&JigyosyoCd=2470101904-00&ServiceCd=170&Type=search", "url2": null }, "geometry": { "type": "Point", "coordinates": [ 136.694493599999987, 35.0514536 ] } },
{ "type": "Feature", "properties": { "内容": "つばさ【福祉用具貸与】三重県桑名市大字矢田109-9", "url": "https://www.kaigokensaku.mhlw.go.jp/24/index.php?action_kouhyou_detail_004_kani=true&JigyosyoCd=2470102837-00&ServiceCd=170&Type=search", "url2": null }, "geometry": { "type": "Point", "coordinates": [ 136.681878, 35.0614049 ] } },
{ "type": "Feature", "properties": { "内容": "介護ネットグリーン【福祉用具貸与】三重県桑名市大字矢田4131-1", "url": "https://www.kaigokensaku.mhlw.go.jp/24/index.php?action_kouhyou_detail_004_kani=true&JigyosyoCd=2470100328-00&ServiceCd=170&Type=search", "url2": null }, "geometry": { "type": "Point", "coordinates": [ 136.678247899999974, 35.0591745 ] } },
{ "type": "Feature", "properties": { "内容": "有限会社ヤマムロ産業【福祉用具貸与】多度町小山1325－1", "url": "https://www.kaigokensaku.mhlw.go.jp/24/index.php?action_kouhyou_detail_004_kani=true&JigyosyoCd=2470101821-00&ServiceCd=170&Type=search", "url2": null }, "geometry": { "type": "Point", "coordinates": [ 136.6374333, 35.1236839 ] } },
{ "type": "Feature", "properties": { "内容": "エバーグリーン中京【福祉用具貸与】三重県桑名市大字和泉524番地", "url": "https://www.kaigokensaku.mhlw.go.jp/24/index.php?action_kouhyou_detail_004_kani=true&JigyosyoCd=2470100948-00&ServiceCd=170&Type=search", "url2": "www.evergreen⁻ｃhukyo.jp/infomation.html" }, "geometry": { "type": "Point", "coordinates": [ 136.690636911639416, 35.041383991831353 ] } },
{ "type": "Feature", "properties": { "内容": "ライフ・テクノサービス桑名【福祉用具貸与】三重県桑名市江場682-1", "url": "https://www.kaigokensaku.mhlw.go.jp/24/index.php?action_kouhyou_detail_004_kani=true&JigyosyoCd=2470102324-00&ServiceCd=170&Type=search", "url2": "http://www.life-techno.jp" }, "geometry": { "type": "Point", "coordinates": [ 136.685742834923929, 35.046681156315763 ] } },
{ "type": "Feature", "properties": { "内容": "有限会社メイショウ【福祉用具貸与】三重県鈴鹿市白子町2989-5", "url": "https://www.kaigokensaku.mhlw.go.jp/24/index.php?action_kouhyou_detail_004_kani=true&JigyosyoCd=2470300613-00&ServiceCd=170&Type=search", "url2": null }, "geometry": { "type": "Point", "coordinates": [ 136.5789959, 34.8440419 ] } },
{ "type": "Feature", "properties": { "内容": "日本ケアシステム株式会社　鈴鹿営業所【福祉用具貸与】三重県鈴鹿市神戸7丁目8番18号", "url": "https://www.kaigokensaku.mhlw.go.jp/24/index.php?action_kouhyou_detail_004_kani=true&JigyosyoCd=2470300894-00&ServiceCd=170&Type=search", "url2": "http://www.jcs-jcs.com/" }, "geometry": { "type": "Point", "coordinates": [ 136.576983024259761, 34.885003792324497 ] } },
{ "type": "Feature", "properties": { "内容": "株式会社　愛安住　鈴鹿営業所【福祉用具貸与】三重県鈴鹿市西条4丁目109", "url": "https://www.kaigokensaku.mhlw.go.jp/24/index.php?action_kouhyou_detail_004_kani=true&JigyosyoCd=2470302122-00&ServiceCd=170&Type=search", "url2": "https://www.aianju.co.jp" }, "geometry": { "type": "Point", "coordinates": [ 136.574533658268251, 34.880417199935202 ] } },
{ "type": "Feature", "properties": { "内容": "タニオカライフ【福祉用具貸与】三重県鈴鹿市稲生3丁目4-15", "url": "https://www.kaigokensaku.mhlw.go.jp/24/index.php?action_kouhyou_detail_004_kani=true&JigyosyoCd=2470303617-00&ServiceCd=170&Type=search", "url2": "https://taniokalife.jp" }, "geometry": { "type": "Point", "coordinates": [ 136.5597917, 34.839893 ] } },
{ "type": "Feature", "properties": { "内容": "ライフ・テクノサービス鈴鹿【福祉用具貸与】三重県鈴鹿市石薬師町1472", "url": "https://www.kaigokensaku.mhlw.go.jp/24/index.php?action_kouhyou_detail_004_kani=true&JigyosyoCd=2470302890-00&ServiceCd=170&Type=search", "url2": "http://www.life-techno.jp/" }, "geometry": { "type": "Point", "coordinates": [ 136.549668413223827, 34.907431708494364 ] } },
{ "type": "Feature", "properties": { "内容": "株式会社ケアサポートつくし【福祉用具貸与】三重県鈴鹿市岸岡町3078番地の８", "url": "https://www.kaigokensaku.mhlw.go.jp/24/index.php?action_kouhyou_detail_004_kani=true&JigyosyoCd=2470302940-00&ServiceCd=170&Type=search", "url2": null }, "geometry": { "type": "Point", "coordinates": [ 136.608493700000054, 34.8514104 ] } },
{ "type": "Feature", "properties": { "内容": "Resoraレントケアサポート【福祉用具貸与】三重県鈴鹿市一ノ宮町622番1号", "url": "https://www.kaigokensaku.mhlw.go.jp/24/index.php?action_kouhyou_detail_004_kani=true&JigyosyoCd=2470303740-00&ServiceCd=170&Type=search", "url2": "https://www.resora-net.com/" }, "geometry": { "type": "Point", "coordinates": [ 136.5991287, 34.8994074 ] } },
{ "type": "Feature", "properties": { "内容": "株式会社A.M.K.システム【福祉用具貸与】三重県鈴鹿市東磯山1丁目2番34号", "url": "https://www.kaigokensaku.mhlw.go.jp/24/index.php?action_kouhyou_detail_004_kani=true&JigyosyoCd=2470303278-00&ServiceCd=170&Type=search", "url2": null }, "geometry": { "type": "Point", "coordinates": [ 136.568664300000023, 34.8111286 ] } },
{ "type": "Feature", "properties": { "内容": "株式会社ケアクレスト　名張事業所【福祉用具貸与】三重県名張市東町1747-8", "url": "https://www.kaigokensaku.mhlw.go.jp/24/index.php?action_kouhyou_detail_004_kani=true&JigyosyoCd=2471301503-00&ServiceCd=170&Type=search", "url2": "https://carecrest.studio.site/" }, "geometry": { "type": "Point", "coordinates": [ 136.0955597, 34.627773 ] } },
{ "type": "Feature", "properties": { "内容": "株式会社すなお【福祉用具貸与】梅が丘北三番町２７６番地", "url": "https://www.kaigokensaku.mhlw.go.jp/24/index.php?action_kouhyou_detail_004_kani=true&JigyosyoCd=2471301628-00&ServiceCd=170&Type=search", "url2": "http://sunao-kaigotools.jp/" }, "geometry": { "type": "Point", "coordinates": [ 136.0861313, 34.6367655 ] } },
{ "type": "Feature", "properties": { "内容": "ワイズライフサポート【福祉用具貸与】三重県名張市桔梗が丘4番町5-7-10　2階", "url": "https://www.kaigokensaku.mhlw.go.jp/24/index.php?action_kouhyou_detail_004_kani=true&JigyosyoCd=2471301552-00&ServiceCd=170&Type=search", "url2": null }, "geometry": { "type": "Point", "coordinates": [ 136.124432399999989, 34.6487449 ] } },
{ "type": "Feature", "properties": { "内容": "ライフ・テクノサービス名張【福祉用具貸与】三重県名張市名張市鴻之台1-72", "url": "https://www.kaigokensaku.mhlw.go.jp/24/index.php?action_kouhyou_detail_004_kani=true&JigyosyoCd=2471300935-00&ServiceCd=170&Type=search", "url2": "http://www.life-techno.jp/" }, "geometry": { "type": "Point", "coordinates": [ 136.11193535246025, 34.630639870811841 ] } },
{ "type": "Feature", "properties": { "内容": "株式会社愛安住　名張営業所【福祉用具貸与】三重県名張市夏見494-20", "url": "https://www.kaigokensaku.mhlw.go.jp/24/index.php?action_kouhyou_detail_004_kani=true&JigyosyoCd=2471300653-00&ServiceCd=170&Type=search", "url2": "https://www.aianju.co.jp" }, "geometry": { "type": "Point", "coordinates": [ 136.101108132540929, 34.615008286167019 ] } },
{ "type": "Feature", "properties": { "内容": "介護すまいる館たむろ【福祉用具貸与】三重県尾鷲市野地町4番16号", "url": "https://www.kaigokensaku.mhlw.go.jp/24/index.php?action_kouhyou_detail_004_kani=true&JigyosyoCd=2471000634-00&ServiceCd=170&Type=search", "url2": null }, "geometry": { "type": "Point", "coordinates": [ 136.192004200000014, 34.0760096 ] } },
{ "type": "Feature", "properties": { "内容": "有限会社　橘商会【福祉用具貸与】三重県尾鷲市中村町３番９号", "url": "https://www.kaigokensaku.mhlw.go.jp/24/index.php?action_kouhyou_detail_004_kani=true&JigyosyoCd=2471000303-00&ServiceCd=170&Type=search", "url2": null }, "geometry": { "type": "Point", "coordinates": [ 136.194805665081759, 34.073878678827448 ] } },
{ "type": "Feature", "properties": { "内容": "福祉ショップライト【福祉用具貸与】三重県尾鷲市大字向井127-1", "url": "https://www.kaigokensaku.mhlw.go.jp/24/index.php?action_kouhyou_detail_004_kani=true&JigyosyoCd=2471000576-00&ServiceCd=170&Type=search", "url2": null }, "geometry": { "type": "Point", "coordinates": [ 136.214646613336186, 34.059814865385945 ] } },
{ "type": "Feature", "properties": { "内容": "合同会社　Ｕｐ【福祉用具貸与】三重県尾鷲市栄町7番17号", "url": "https://www.kaigokensaku.mhlw.go.jp/24/index.php?action_kouhyou_detail_004_kani=true&JigyosyoCd=2471000642-00&ServiceCd=170&Type=search", "url2": null }, "geometry": { "type": "Point", "coordinates": [ 136.1951501, 34.0758026 ] } },
{ "type": "Feature", "properties": { "内容": "株式会社スグリ【福祉用具貸与】三重県亀山市東御幸町１２０－１０第２亀山プラザ１F", "url": "https://www.kaigokensaku.mhlw.go.jp/24/index.php?action_kouhyou_detail_004_kani=true&JigyosyoCd=2470401015-00&ServiceCd=170&Type=search", "url2": null }, "geometry": { "type": "Point", "coordinates": [ 136.4530684, 34.8500638 ] } },
{ "type": "Feature", "properties": { "内容": "有限会社　三鈴【福祉用具貸与】三重県亀山市関町久我528番地", "url": "https://www.kaigokensaku.mhlw.go.jp/24/index.php?action_kouhyou_detail_004_kani=true&JigyosyoCd=2472300074-00&ServiceCd=170&Type=search", "url2": null }, "geometry": { "type": "Point", "coordinates": [ 136.371382400000016, 34.8405035 ] } },
{ "type": "Feature", "properties": { "内容": "介護ショップ　まんまる【福祉用具貸与】三重県亀山市栄町１４８８-２０５", "url": "https://www.kaigokensaku.mhlw.go.jp/24/index.php?action_kouhyou_detail_004_kani=true&JigyosyoCd=2470400355-00&ServiceCd=170&Type=search", "url2": "manmarukaigo.co.jp" }, "geometry": { "type": "Point", "coordinates": [ 136.470947799999976, 34.8580418 ] } },
{ "type": "Feature", "properties": { "内容": "介護ショップ　いっぽ【福祉用具貸与】羽若町855-3", "url": "https://www.kaigokensaku.mhlw.go.jp/24/index.php?action_kouhyou_detail_004_kani=true&JigyosyoCd=2470400686-00&ServiceCd=170&Type=search", "url2": "http://ippo-zenshin.com" }, "geometry": { "type": "Point", "coordinates": [ 136.449648670604319, 34.866194853723783 ] } },
{ "type": "Feature", "properties": { "内容": "株式会社　安心クリエイト【福祉用具貸与】三重県鳥羽市大明西町6番8号", "url": "https://www.kaigokensaku.mhlw.go.jp/24/index.php?action_kouhyou_detail_004_kani=true&JigyosyoCd=2470900255-00&ServiceCd=170&Type=search", "url2": null }, "geometry": { "type": "Point", "coordinates": [ 136.845922611402045, 34.46920382168009 ] } },
{ "type": "Feature", "properties": { "内容": "有限会社タキモト【福祉用具貸与】三重県熊野市木本町633-3", "url": "https://www.kaigokensaku.mhlw.go.jp/24/index.php?action_kouhyou_detail_004_kani=true&JigyosyoCd=2471100103-00&ServiceCd=170&Type=search", "url2": null }, "geometry": { "type": "Point", "coordinates": [ 136.100660748486689, 33.891015142775096 ] } },
{ "type": "Feature", "properties": { "内容": "有限会社　トギヤ【福祉用具貸与】熊野市井戸町564番地2", "url": "https://www.kaigokensaku.mhlw.go.jp/24/index.php?action_kouhyou_detail_004_kani=true&JigyosyoCd=2471100137-00&ServiceCd=170&Type=search", "url2": null }, "geometry": { "type": "Point", "coordinates": [ 136.098056408389994, 33.886563079055485 ] } },
{ "type": "Feature", "properties": { "内容": "ＡＩＤＣＡＲＥ福祉用具レンタル・販売【福祉用具貸与】三重県いなべ市員弁町東一色９３９番地2", "url": "https://www.kaigokensaku.mhlw.go.jp/24/index.php?action_kouhyou_detail_004_kani=true&JigyosyoCd=2471400883-00&ServiceCd=170&Type=search", "url2": "aidcare4165＠yahoo.co.jp" }, "geometry": { "type": "Point", "coordinates": [ 136.571177899999981, 35.0957706 ] } },
{ "type": "Feature", "properties": { "内容": "つなぐ介護用品【福祉用具貸与】三重県いなべ市員弁町上笠田2654番地1", "url": "https://www.kaigokensaku.mhlw.go.jp/24/index.php?action_kouhyou_detail_004_kani=true&JigyosyoCd=2471400875-00&ServiceCd=170&Type=search", "url2": null }, "geometry": { "type": "Point", "coordinates": [ 136.5490462, 35.1240353 ] } },
{ "type": "Feature", "properties": { "内容": "福祉用具貸与　ひばり【福祉用具貸与】大安町丹生川中2109-1", "url": "https://www.kaigokensaku.mhlw.go.jp/24/index.php?action_kouhyou_detail_004_kani=true&JigyosyoCd=2471400222-00&ServiceCd=170&Type=search", "url2": null }, "geometry": { "type": "Point", "coordinates": [ 136.518927399999939, 35.1211101 ] } },
{ "type": "Feature", "properties": { "内容": "志摩ヘルパーステーション【福祉用具貸与】三重県志摩市阿児町鵜方４０３６－２山本ふとん店　　1　階", "url": "https://www.kaigokensaku.mhlw.go.jp/24/index.php?action_kouhyou_detail_004_kani=true&JigyosyoCd=2472900162-00&ServiceCd=170&Type=search", "url2": "ｈｔｔｐ：／／ｗｗｗ．ｆｕｔｏｎｔｅｎ．ｊｐ/" }, "geometry": { "type": "Point", "coordinates": [ 136.824205, 34.3290537 ] } },
{ "type": "Feature", "properties": { "内容": "介護と福祉のお店　ほうわ【福祉用具貸与】志摩市磯部町穴川1183-90", "url": "https://www.kaigokensaku.mhlw.go.jp/24/index.php?action_kouhyou_detail_004_kani=true&JigyosyoCd=2472901178-00&ServiceCd=170&Type=search", "url2": "http://www.houwakai.or.jp" }, "geometry": { "type": "Point", "coordinates": [ 136.812816664418051, 34.349394384293646 ] } },
{ "type": "Feature", "properties": { "内容": "しま福祉用具貸与販売事業　シルバーケア豊壽園【福祉用具貸与】三重県志摩市阿児町鵜方字小入口3503番地10", "url": "https://www.kaigokensaku.mhlw.go.jp/24/index.php?action_kouhyou_detail_004_kani=true&JigyosyoCd=2472901681-00&ServiceCd=170&Type=search", "url2": "http://www.sensin.or.jp" }, "geometry": { "type": "Point", "coordinates": [ 136.817986499999961, 34.3249015 ] } },
{ "type": "Feature", "properties": { "内容": "株式会社モリ京【福祉用具貸与】三重県志摩市阿児町鵜方2009番地1", "url": "https://www.kaigokensaku.mhlw.go.jp/24/index.php?action_kouhyou_detail_004_kani=true&JigyosyoCd=2472900196-00&ServiceCd=170&Type=search", "url2": null }, "geometry": { "type": "Point", "coordinates": [ 136.828957299999956, 34.3295454 ] } },
{ "type": "Feature", "properties": { "内容": "有限会社白帆堂【福祉用具貸与】三重県志摩市志摩町和具1965番地の1", "url": "https://www.kaigokensaku.mhlw.go.jp/24/index.php?action_kouhyou_detail_004_kani=true&JigyosyoCd=2472900840-00&ServiceCd=170&Type=search", "url2": null }, "geometry": { "type": "Point", "coordinates": [ 136.808487199999945, 34.2583594 ] } },
{ "type": "Feature", "properties": { "内容": "大木薬局　浜島店【福祉用具貸与】三重県志摩市浜島町浜島3219番地", "url": "https://www.kaigokensaku.mhlw.go.jp/24/index.php?action_kouhyou_detail_004_kani=true&JigyosyoCd=2472901913-00&ServiceCd=170&Type=search", "url2": "https://www.pharmarise.com/" }, "geometry": { "type": "Point", "coordinates": [ 136.7493038, 34.2979322 ] } },
{ "type": "Feature", "properties": { "内容": "ライフ・テクノサービス志摩【福祉用具貸与】三重県志摩市阿児町鵜方1146-3", "url": "https://www.kaigokensaku.mhlw.go.jp/24/index.php?action_kouhyou_detail_004_kani=true&JigyosyoCd=2472901699-00&ServiceCd=170&Type=search", "url2": "http://www.life-techno/jp/" }, "geometry": { "type": "Point", "coordinates": [ 136.818722107463344, 34.33176618507644 ] } },
{ "type": "Feature", "properties": { "内容": "有限会社トータル介護サービス【福祉用具貸与】三重県志摩市志摩町布施田143-14", "url": "https://www.kaigokensaku.mhlw.go.jp/24/index.php?action_kouhyou_detail_004_kani=true&JigyosyoCd=2472900105-00&ServiceCd=170&Type=search", "url2": "http://www.total-kaigo.com" }, "geometry": { "type": "Point", "coordinates": [ 136.82911850000005, 34.25546030000001 ] } },
{ "type": "Feature", "properties": { "内容": "Pーあしすと【福祉用具貸与】三重県志摩市阿児町鵜方5264番地1", "url": "https://www.kaigokensaku.mhlw.go.jp/24/index.php?action_kouhyou_detail_004_kani=true&JigyosyoCd=2472901814-00&ServiceCd=170&Type=search", "url2": "https://danran-shima.co.jp" }, "geometry": { "type": "Point", "coordinates": [ 136.8152435, 34.325216 ] } },
{ "type": "Feature", "properties": { "内容": "リウセ家具店【福祉用具貸与】三重県伊賀市上野東町２９２３番地", "url": "https://www.kaigokensaku.mhlw.go.jp/24/index.php?action_kouhyou_detail_004_kani=true&JigyosyoCd=2471200531-00&ServiceCd=170&Type=search", "url2": "riuse@ict.ne.jp" }, "geometry": { "type": "Point", "coordinates": [ 136.1319297, 34.7661428 ] } },
{ "type": "Feature", "properties": { "内容": "レンタルケアH【福祉用具貸与】三重県伊賀市ゆめが丘1-3-3　ゆめテクノ伊賀５号", "url": "https://www.kaigokensaku.mhlw.go.jp/24/index.php?action_kouhyou_detail_004_kani=true&JigyosyoCd=2471201448-00&ServiceCd=170&Type=search", "url2": "https://www.rentalcare.co.jp" }, "geometry": { "type": "Point", "coordinates": [ 136.151980653671558, 34.740483267659606 ] } },
{ "type": "Feature", "properties": { "内容": "株式会社　愛安住【福祉用具貸与】三重県伊賀市大野木2112番地28", "url": "https://www.kaigokensaku.mhlw.go.jp/24/index.php?action_kouhyou_detail_004_kani=true&JigyosyoCd=2471200283-00&ServiceCd=170&Type=search", "url2": "https://www.aianju.co.jp" }, "geometry": { "type": "Point", "coordinates": [ 136.099106099999972, 34.7380397 ] } },
{ "type": "Feature", "properties": { "内容": "ライフ・テクノサービス伊賀【福祉用具貸与】伊賀市小田町406-1", "url": "https://www.kaigokensaku.mhlw.go.jp/24/index.php?action_kouhyou_detail_004_kani=true&JigyosyoCd=2471200333-00&ServiceCd=170&Type=search", "url2": "http://www.life-techno.jp/" }, "geometry": { "type": "Point", "coordinates": [ 136.13883809999993, 34.7520723 ] } },
{ "type": "Feature", "properties": { "内容": "ブーケ【福祉用具貸与】員弁郡東員町穴太２５７８－７", "url": "https://www.kaigokensaku.mhlw.go.jp/24/index.php?action_kouhyou_detail_004_kani=true&JigyosyoCd=2472100771-00&ServiceCd=170&Type=search", "url2": "http://care-home.jp/" }, "geometry": { "type": "Point", "coordinates": [ 136.618660699999964, 35.0935642 ] } },
{ "type": "Feature", "properties": { "内容": "株式会社ビューティーマイト【福祉用具貸与】三重県三重郡菰野町竹成2622-13", "url": "https://www.kaigokensaku.mhlw.go.jp/24/index.php?action_kouhyou_detail_004_kani=true&JigyosyoCd=2472200506-00&ServiceCd=170&Type=search", "url2": "https://beauty-mate.jp" }, "geometry": { "type": "Point", "coordinates": [ 136.5226887, 35.0511833 ] } },
{ "type": "Feature", "properties": { "内容": "福祉用具リバティ【福祉用具貸与】三重県三重郡菰野町竹成12-5", "url": "https://www.kaigokensaku.mhlw.go.jp/24/index.php?action_kouhyou_detail_004_kani=true&JigyosyoCd=2472200845-00&ServiceCd=170&Type=search", "url2": null }, "geometry": { "type": "Point", "coordinates": [ 136.5054831, 35.0474438 ] } },
{ "type": "Feature", "properties": { "内容": "ユナイト【福祉用具貸与】三重県三重郡川越町大字亀崎新田字南新田５０番地７", "url": "https://www.kaigokensaku.mhlw.go.jp/24/index.php?action_kouhyou_detail_004_kani=true&JigyosyoCd=2472200514-00&ServiceCd=170&Type=search", "url2": "https://unite-n.jp" }, "geometry": { "type": "Point", "coordinates": [ 136.68254502837226, 35.017134897181656 ] } },
{ "type": "Feature", "properties": { "内容": "太陽福祉用具貸与・販売【福祉用具貸与】三重県多気郡多気町河田406", "url": "https://www.kaigokensaku.mhlw.go.jp/24/index.php?action_kouhyou_detail_004_kani=true&JigyosyoCd=2472701255-00&ServiceCd=170&Type=search", "url2": "https://www.taiyou-tt.com" }, "geometry": { "type": "Point", "coordinates": [ 136.584056, 34.521729 ] } },
{ "type": "Feature", "properties": { "内容": "福祉介護支援センターアシスト【福祉用具貸与】三重県多気郡多気町油夫372番地1", "url": "https://www.kaigokensaku.mhlw.go.jp/24/index.php?action_kouhyou_detail_004_kani=true&JigyosyoCd=2472701131-00&ServiceCd=170&Type=search", "url2": null }, "geometry": { "type": "Point", "coordinates": [ 136.555160183432378, 34.479903936655326 ] } },
{ "type": "Feature", "properties": { "内容": "福祉用具　かがやき伊勢【福祉用具貸与】三重県多気郡明和町坂本1250-1", "url": "https://www.kaigokensaku.mhlw.go.jp/24/index.php?action_kouhyou_detail_004_kani=true&JigyosyoCd=2472701065-00&ServiceCd=170&Type=search", "url2": null }, "geometry": { "type": "Point", "coordinates": [ 136.617629699999952, 34.547143 ] } },
{ "type": "Feature", "properties": { "内容": "オリーブ・ケア【福祉用具貸与】三重県度会郡大紀町滝原８７３番地", "url": "https://www.kaigokensaku.mhlw.go.jp/24/index.php?action_kouhyou_detail_004_kani=true&JigyosyoCd=2472801634-00&ServiceCd=170&Type=search", "url2": "http://kissoukai.com/" }, "geometry": { "type": "Point", "coordinates": [ 136.419568900000058, 34.3669353 ] } },
{ "type": "Feature", "properties": { "内容": "介護ショツプ　ミズグチ【福祉用具貸与】三重県度会郡大紀町阿曽２２５８－2", "url": "https://www.kaigokensaku.mhlw.go.jp/24/index.php?action_kouhyou_detail_004_kani=true&JigyosyoCd=2472800727-00&ServiceCd=170&Type=search", "url2": null }, "geometry": { "type": "Point", "coordinates": [ 136.408136271792955, 34.333680612865045 ] } },
{ "type": "Feature", "properties": { "内容": "福祉用具貸与事業所イヤスコ【福祉用具貸与】大紀町大内山２９５６－３", "url": "https://www.kaigokensaku.mhlw.go.jp/24/index.php?action_kouhyou_detail_004_kani=true&JigyosyoCd=2472800859-00&ServiceCd=170&Type=search", "url2": null }, "geometry": { "type": "Point", "coordinates": [ 136.352341199999955, 34.262342 ] } },
{ "type": "Feature", "properties": { "内容": "いこい【福祉用具貸与】道方680－2", "url": "https://www.kaigokensaku.mhlw.go.jp/24/index.php?action_kouhyou_detail_004_kani=true&JigyosyoCd=2472801493-00&ServiceCd=170&Type=search", "url2": null }, "geometry": { "type": "Point", "coordinates": [ 136.582006099999944, 34.2978796 ] } },
{ "type": "Feature", "properties": { "内容": "かんひちや介護センター【福祉用具貸与】三重県度会郡南伊勢町五ケ所浦3918番地1", "url": "https://www.kaigokensaku.mhlw.go.jp/24/index.php?action_kouhyou_detail_004_kani=true&JigyosyoCd=2472801766-00&ServiceCd=170&Type=search", "url2": null }, "geometry": { "type": "Point", "coordinates": [ 136.7024786, 34.3492791 ] } },
{ "type": "Feature", "properties": { "内容": "有限会社オオヤ産業　介護事業部【福祉用具貸与】三重県北牟婁郡紀北町東長島2664-79", "url": "https://www.kaigokensaku.mhlw.go.jp/24/index.php?action_kouhyou_detail_004_kani=true&JigyosyoCd=2473000343-00&ServiceCd=170&Type=search", "url2": null }, "geometry": { "type": "Point", "coordinates": [ 136.350500561376947, 34.21057069754719 ] } },
{ "type": "Feature", "properties": { "内容": "ライフサポート　たへや【福祉用具貸与】三重県北牟婁郡紀北町相賀279-2", "url": "https://www.kaigokensaku.mhlw.go.jp/24/index.php?action_kouhyou_detail_004_kani=true&JigyosyoCd=2473000558-00&ServiceCd=170&Type=search", "url2": null }, "geometry": { "type": "Point", "coordinates": [ 136.2253953, 34.1120856 ] } },
{ "type": "Feature", "properties": { "内容": "株式会社　カマハラ【福祉用具貸与】三重県南牟婁郡紀宝町鮒田1126", "url": "https://www.kaigokensaku.mhlw.go.jp/24/index.php?action_kouhyou_detail_004_kani=true&JigyosyoCd=2473100135-00&ServiceCd=170&Type=search", "url2": null }, "geometry": { "type": "Point", "coordinates": [ 135.974900599999955, 33.7419916 ] } }
]
}
