{
"type": "FeatureCollection",
"name": "geo_24_4",
"crs": { "type": "name", "properties": { "name": "urn:ogc:def:crs:OGC:1.3:CRS84" } },
"features": [
{ "type": "Feature", "properties": { "ID": 2445240000050, "正式名称": "助産所　マタニティ・ハウスひまわり", "機関区分": 4, "都道府県コード": 24, "市区町村コード": 207, "所在地": "三重県鈴鹿市高塚町１０６６－３１", "緯度": 34.897917, "経度": 136.516041, "url": "https://www.iryou.teikyouseido.mhlw.go.jp/znk-web/juminkanja/S2430/initialize?prefCd=24&kikanCd=5240000050&kikanKbn=4", "url2": "http://himawali-web.jimdosite.com", "内容": "助産所　マタニティ・ハウスひまわり【4:助産院】三重県鈴鹿市高塚町１０６６－３１" }, "geometry": { "type": "Point", "coordinates": [ 136.516041, 34.897917 ] } },
{ "type": "Feature", "properties": { "ID": 2445240000080, "正式名称": "ゆめがおか助産院", "機関区分": 4, "都道府県コード": 24, "市区町村コード": 201, "所在地": "三重県津市夢が丘１丁目５－１１", "緯度": 34.75857, "経度": 136.487411, "url": "https://www.iryou.teikyouseido.mhlw.go.jp/znk-web/juminkanja/S2430/initialize?prefCd=24&kikanCd=5240000080&kikanKbn=4", "url2": null, "内容": "ゆめがおか助産院【4:助産院】三重県津市夢が丘１丁目５－１１" }, "geometry": { "type": "Point", "coordinates": [ 136.487411, 34.75857 ] } },
{ "type": "Feature", "properties": { "ID": 2445240000100, "正式名称": "助産院エンジェルスマイルモモ", "機関区分": 4, "都道府県コード": 24, "市区町村コード": 203, "所在地": "三重県伊勢市佐八町２０２２－１", "緯度": 34.46241, "経度": 136.659605, "url": "https://www.iryou.teikyouseido.mhlw.go.jp/znk-web/juminkanja/S2430/initialize?prefCd=24&kikanCd=5240000100&kikanKbn=4", "url2": "https://home.tsuku2.jp/storeDetail.php?scd=0000270553", "内容": "助産院エンジェルスマイルモモ【4:助産院】三重県伊勢市佐八町２０２２－１" }, "geometry": { "type": "Point", "coordinates": [ 136.659605, 34.46241 ] } },
{ "type": "Feature", "properties": { "ID": 2445240000150, "正式名称": "くつろか助産院", "機関区分": 4, "都道府県コード": 24, "市区町村コード": 201, "所在地": "三重県津市久居東鷹跡町１８５－８", "緯度": 34.674968, "経度": 136.467472, "url": "https://www.iryou.teikyouseido.mhlw.go.jp/znk-web/juminkanja/S2430/initialize?prefCd=24&kikanCd=5240000150&kikanKbn=4", "url2": "kutsuloka.com", "内容": "くつろか助産院【4:助産院】三重県津市久居東鷹跡町１８５－８" }, "geometry": { "type": "Point", "coordinates": [ 136.467472, 34.674968 ] } },
{ "type": "Feature", "properties": { "ID": 2445240000190, "正式名称": "レディースケア　アントラクト", "機関区分": 4, "都道府県コード": 24, "市区町村コード": 341, "所在地": "三重県三重郡菰野町神森４２０－３", "緯度": 35.001989, "経度": 136.535312, "url": "https://www.iryou.teikyouseido.mhlw.go.jp/znk-web/juminkanja/S2430/initialize?prefCd=24&kikanCd=5240000190&kikanKbn=4", "url2": "https://midwife.entracte.mie.jp/", "内容": "レディースケア　アントラクト【4:助産院】三重県三重郡菰野町神森４２０－３" }, "geometry": { "type": "Point", "coordinates": [ 136.535312, 35.001989 ] } },
{ "type": "Feature", "properties": { "ID": 2445240000230, "正式名称": "助産所　ここから", "機関区分": 4, "都道府県コード": 24, "市区町村コード": 202, "所在地": "三重県四日市市桜花台１－６－１", "緯度": 34.98713, "経度": 136.527758, "url": "https://www.iryou.teikyouseido.mhlw.go.jp/znk-web/juminkanja/S2430/initialize?prefCd=24&kikanCd=5240000230&kikanKbn=4", "url2": "http://kokokara-mw.jimdo.com/", "内容": "助産所　ここから【4:助産院】三重県四日市市桜花台１－６－１" }, "geometry": { "type": "Point", "coordinates": [ 136.527758, 34.98713 ] } },
{ "type": "Feature", "properties": { "ID": 2445240000360, "正式名称": "お産の家　ゆずり葉", "機関区分": 4, "都道府県コード": 24, "市区町村コード": 205, "所在地": "三重県桑名市和泉２４６地１", "緯度": 35.043618, "経度": 136.687698, "url": "https://www.iryou.teikyouseido.mhlw.go.jp/znk-web/juminkanja/S2430/initialize?prefCd=24&kikanCd=5240000360&kikanKbn=4", "url2": "https://yuzuriha-mie.jp", "内容": "お産の家　ゆずり葉【4:助産院】三重県桑名市和泉２４６地１" }, "geometry": { "type": "Point", "coordinates": [ 136.687698, 35.043618 ] } },
{ "type": "Feature", "properties": { "ID": 2445240000380, "正式名称": "いわはな助産院　母乳育児相談室", "機関区分": 4, "都道府県コード": 24, "市区町村コード": 205, "所在地": "三重県桑名市中山町８９番地", "緯度": 35.067817, "経度": 136.625024, "url": "https://www.iryou.teikyouseido.mhlw.go.jp/znk-web/juminkanja/S2430/initialize?prefCd=24&kikanCd=5240000380&kikanKbn=4", "url2": "iwahana.info", "内容": "いわはな助産院　母乳育児相談室【4:助産院】三重県桑名市中山町８９番地" }, "geometry": { "type": "Point", "coordinates": [ 136.625024, 35.067817 ] } },
{ "type": "Feature", "properties": { "ID": 2445240000400, "正式名称": "助産所　ははみちる", "機関区分": 4, "都道府県コード": 24, "市区町村コード": 207, "所在地": "三重県鈴鹿市郡山町３４３－２", "緯度": 34.813399, "経度": 136.541015, "url": "https://www.iryou.teikyouseido.mhlw.go.jp/znk-web/juminkanja/S2430/initialize?prefCd=24&kikanCd=5240000400&kikanKbn=4", "url2": null, "内容": "助産所　ははみちる【4:助産院】三重県鈴鹿市郡山町３４３－２" }, "geometry": { "type": "Point", "coordinates": [ 136.541015, 34.813399 ] } },
{ "type": "Feature", "properties": { "ID": 2445240000450, "正式名称": "中村助産所", "機関区分": 4, "都道府県コード": 24, "市区町村コード": 442, "所在地": "三重県多気郡明和町馬之上８８７－４８", "緯度": 34.548206, "経度": 136.62502, "url": "https://www.iryou.teikyouseido.mhlw.go.jp/znk-web/juminkanja/S2430/initialize?prefCd=24&kikanCd=5240000450&kikanKbn=4", "url2": null, "内容": "中村助産所【4:助産院】三重県多気郡明和町馬之上８８７－４８" }, "geometry": { "type": "Point", "coordinates": [ 136.62502, 34.548206 ] } },
{ "type": "Feature", "properties": { "ID": 2445240000460, "正式名称": "高野助産院", "機関区分": 4, "都道府県コード": 24, "市区町村コード": 201, "所在地": "三重県津市久居桜が丘町１７３０－１０９", "緯度": 34.682384, "経度": 136.491692, "url": "https://www.iryou.teikyouseido.mhlw.go.jp/znk-web/juminkanja/S2430/initialize?prefCd=24&kikanCd=5240000460&kikanKbn=4", "url2": null, "内容": "高野助産院【4:助産院】三重県津市久居桜が丘町１７３０－１０９" }, "geometry": { "type": "Point", "coordinates": [ 136.491692, 34.682384 ] } },
{ "type": "Feature", "properties": { "ID": 2445240000470, "正式名称": "マンマァ母乳助産院", "機関区分": 4, "都道府県コード": 24, "市区町村コード": 201, "所在地": "三重県津市白山町二本木８０９－２", "緯度": 34.663856, "経度": 136.367981, "url": "https://www.iryou.teikyouseido.mhlw.go.jp/znk-web/juminkanja/S2430/initialize?prefCd=24&kikanCd=5240000470&kikanKbn=4", "url2": "http://manmaa3.jimdo.com/", "内容": "マンマァ母乳助産院【4:助産院】三重県津市白山町二本木８０９－２" }, "geometry": { "type": "Point", "coordinates": [ 136.367981, 34.663856 ] } },
{ "type": "Feature", "properties": { "ID": 2445240000480, "正式名称": "母子支援室みかん", "機関区分": 4, "都道府県コード": 24, "市区町村コード": 208, "所在地": "三重県名張市中知山字下出　８９７－２５", "緯度": 34.60158, "経度": 136.120837, "url": "https://www.iryou.teikyouseido.mhlw.go.jp/znk-web/juminkanja/S2430/initialize?prefCd=24&kikanCd=5240000480&kikanKbn=4", "url2": null, "内容": "母子支援室みかん【4:助産院】三重県名張市中知山字下出　８９７－２５" }, "geometry": { "type": "Point", "coordinates": [ 136.120837, 34.60158 ] } },
{ "type": "Feature", "properties": { "ID": 2445240010002, "正式名称": "ママノトモ", "機関区分": 4, "都道府県コード": 24, "市区町村コード": 202, "所在地": "三重県四日市市西阿倉川１７８２", "緯度": 34.99104, "経度": 136.618698, "url": "https://www.iryou.teikyouseido.mhlw.go.jp/znk-web/juminkanja/S2430/initialize?prefCd=24&kikanCd=5240010002&kikanKbn=4", "url2": "https://www.instagram.com/.mamano-tomo/.", "内容": "ママノトモ【4:助産院】三重県四日市市西阿倉川１７８２" }, "geometry": { "type": "Point", "coordinates": [ 136.618698, 34.99104 ] } },
{ "type": "Feature", "properties": { "ID": 2445240010005, "正式名称": "まちかど助産庵ｃｏ＊ｔｏｉｒｏこといろ", "機関区分": 4, "都道府県コード": 24, "市区町村コード": 205, "所在地": "三重県桑名市船馬町６４－２", "緯度": 35.068585, "経度": 136.693652, "url": "https://www.iryou.teikyouseido.mhlw.go.jp/znk-web/juminkanja/S2430/initialize?prefCd=24&kikanCd=5240010005&kikanKbn=4", "url2": "https://co-toiro-mie.com", "内容": "まちかど助産庵ｃｏ＊ｔｏｉｒｏこといろ【4:助産院】三重県桑名市船馬町６４－２" }, "geometry": { "type": "Point", "coordinates": [ 136.693652, 35.068585 ] } },
{ "type": "Feature", "properties": { "ID": 2445240010008, "正式名称": "たけうち助産所", "機関区分": 4, "都道府県コード": 24, "市区町村コード": 215, "所在地": "三重県志摩市阿児町神明１４００－２２", "緯度": 34.322542, "経度": 136.845286, "url": "https://www.iryou.teikyouseido.mhlw.go.jp/znk-web/juminkanja/S2430/initialize?prefCd=24&kikanCd=5240010008&kikanKbn=4", "url2": "https://see-mama.com", "内容": "たけうち助産所【4:助産院】三重県志摩市阿児町神明１４００－２２" }, "geometry": { "type": "Point", "coordinates": [ 136.845286, 34.322542 ] } },
{ "type": "Feature", "properties": { "ID": 2445240010009, "正式名称": "中谷助産所", "機関区分": 4, "都道府県コード": 24, "市区町村コード": 201, "所在地": "三重県津市一身田平野７６７－１６", "緯度": 34.750824, "経度": 136.516018, "url": "https://www.iryou.teikyouseido.mhlw.go.jp/znk-web/juminkanja/S2430/initialize?prefCd=24&kikanCd=5240010009&kikanKbn=4", "url2": null, "内容": "中谷助産所【4:助産院】三重県津市一身田平野７６７－１６" }, "geometry": { "type": "Point", "coordinates": [ 136.516018, 34.750824 ] } },
{ "type": "Feature", "properties": { "ID": 2445240010010, "正式名称": "諸岡助産所", "機関区分": 4, "都道府県コード": 24, "市区町村コード": 341, "所在地": "三重県三重郡菰野町田光２７－２", "緯度": 35.069269, "経度": 136.507482, "url": "https://www.iryou.teikyouseido.mhlw.go.jp/znk-web/juminkanja/S2430/initialize?prefCd=24&kikanCd=5240010010&kikanKbn=4", "url2": null, "内容": "諸岡助産所【4:助産院】三重県三重郡菰野町田光２７－２" }, "geometry": { "type": "Point", "coordinates": [ 136.507482, 35.069269 ] } },
{ "type": "Feature", "properties": { "ID": 2445240010011, "正式名称": "和笑助産所", "機関区分": 4, "都道府県コード": 24, "市区町村コード": 214, "所在地": "三重県いなべ市員弁町松之木１５７７－４", "緯度": 35.105195, "経度": 136.576355, "url": "https://www.iryou.teikyouseido.mhlw.go.jp/znk-web/juminkanja/S2430/initialize?prefCd=24&kikanCd=5240010011&kikanKbn=4", "url2": null, "内容": "和笑助産所【4:助産院】三重県いなべ市員弁町松之木１５７７－４" }, "geometry": { "type": "Point", "coordinates": [ 136.576355, 35.105195 ] } },
{ "type": "Feature", "properties": { "ID": 2445240010012, "正式名称": "このきもち助産院", "機関区分": 4, "都道府県コード": 24, "市区町村コード": 343, "所在地": "三重県三重郡朝日町白梅の丘東１丁目１７－４", "緯度": 35.040252, "経度": 136.661228, "url": "https://www.iryou.teikyouseido.mhlw.go.jp/znk-web/juminkanja/S2430/initialize?prefCd=24&kikanCd=5240010012&kikanKbn=4", "url2": null, "内容": "このきもち助産院【4:助産院】三重県三重郡朝日町白梅の丘東１丁目１７－４" }, "geometry": { "type": "Point", "coordinates": [ 136.661228, 35.040252 ] } },
{ "type": "Feature", "properties": { "ID": 2445240010013, "正式名称": "みずき助産院", "機関区分": 4, "都道府県コード": 24, "市区町村コード": 343, "所在地": "三重県三重郡朝日町柿９６３", "緯度": 35.034476, "経度": 136.661425, "url": "https://www.iryou.teikyouseido.mhlw.go.jp/znk-web/juminkanja/S2430/initialize?prefCd=24&kikanCd=5240010013&kikanKbn=4", "url2": "https://mizuki-josanin.jp", "内容": "みずき助産院【4:助産院】三重県三重郡朝日町柿９６３" }, "geometry": { "type": "Point", "coordinates": [ 136.661425, 35.034476 ] } },
{ "type": "Feature", "properties": { "ID": 2445240010015, "正式名称": "とも助産所", "機関区分": 4, "都道府県コード": 24, "市区町村コード": 207, "所在地": "三重県鈴鹿市中旭が丘４丁目６－１２", "緯度": 34.841955, "経度": 136.579433, "url": "https://www.iryou.teikyouseido.mhlw.go.jp/znk-web/juminkanja/S2430/initialize?prefCd=24&kikanCd=5240010015&kikanKbn=4", "url2": null, "内容": "とも助産所【4:助産院】三重県鈴鹿市中旭が丘４丁目６－１２" }, "geometry": { "type": "Point", "coordinates": [ 136.579433, 34.841955 ] } },
{ "type": "Feature", "properties": { "ID": 2445240010016, "正式名称": "ＯＬＡ", "機関区分": 4, "都道府県コード": 24, "市区町村コード": 341, "所在地": "三重県三重郡菰野町千草５３５２－１２", "緯度": 35.026733, "経度": 136.509211, "url": "https://www.iryou.teikyouseido.mhlw.go.jp/znk-web/juminkanja/S2430/initialize?prefCd=24&kikanCd=5240010016&kikanKbn=4", "url2": null, "内容": "ＯＬＡ【4:助産院】三重県三重郡菰野町千草５３５２－１２" }, "geometry": { "type": "Point", "coordinates": [ 136.509211, 35.026733 ] } },
{ "type": "Feature", "properties": { "ID": 2445240010017, "正式名称": "アロマ助産院Ｆｌｅｕｒ－ｓａｇｅ　ｆｅｍｉｎｉｎｅ－", "機関区分": 4, "都道府県コード": 24, "市区町村コード": 210, "所在地": "三重県亀山市亀田町２０－１　サニーヒル伊藤Ｂ１０３", "緯度": 34.864451, "経度": 136.456186, "url": "https://www.iryou.teikyouseido.mhlw.go.jp/znk-web/juminkanja/S2430/initialize?prefCd=24&kikanCd=5240010017&kikanKbn=4", "url2": "https://fleur20210331.amebaownd.com", "内容": "アロマ助産院Ｆｌｅｕｒ－ｓａｇｅ　ｆｅｍｉｎｉｎｅ－【4:助産院】三重県亀山市亀田町２０－１　サニーヒル伊藤Ｂ１０３" }, "geometry": { "type": "Point", "coordinates": [ 136.456186, 34.864451 ] } },
{ "type": "Feature", "properties": { "ID": 2445240010023, "正式名称": "あかね助産院", "機関区分": 4, "都道府県コード": 24, "市区町村コード": 441, "所在地": "三重県多気郡多気町笠木６２０", "緯度": 34.489382, "経度": 136.579574, "url": "https://www.iryou.teikyouseido.mhlw.go.jp/znk-web/juminkanja/S2430/initialize?prefCd=24&kikanCd=5240010023&kikanKbn=4", "url2": "https://mie-akane.jp", "内容": "あかね助産院【4:助産院】三重県多気郡多気町笠木６２０" }, "geometry": { "type": "Point", "coordinates": [ 136.579574, 34.489382 ] } },
{ "type": "Feature", "properties": { "ID": 2445240010024, "正式名称": "母子ケアサロン楽（ｓａｓａ）", "機関区分": 4, "都道府県コード": 24, "市区町村コード": 201, "所在地": "三重県津市半田", "緯度": 34.701808, "経度": 136.494606, "url": "https://www.iryou.teikyouseido.mhlw.go.jp/znk-web/juminkanja/S2430/initialize?prefCd=24&kikanCd=5240010024&kikanKbn=4", "url2": "https://sa-sa.jp/", "内容": "母子ケアサロン楽（ｓａｓａ）【4:助産院】三重県津市半田" }, "geometry": { "type": "Point", "coordinates": [ 136.494606, 34.701808 ] } },
{ "type": "Feature", "properties": { "ID": 2445240010025, "正式名称": "とちの実助産処", "機関区分": 4, "都道府県コード": 24, "市区町村コード": 204, "所在地": "三重県松阪市虹が丘町２１－２", "緯度": 34.543705, "経度": 136.554997, "url": "https://www.iryou.teikyouseido.mhlw.go.jp/znk-web/juminkanja/S2430/initialize?prefCd=24&kikanCd=5240010025&kikanKbn=4", "url2": "https://www.tochinomijyosannjyo.com", "内容": "とちの実助産処【4:助産院】三重県松阪市虹が丘町２１－２" }, "geometry": { "type": "Point", "coordinates": [ 136.554997, 34.543705 ] } },
{ "type": "Feature", "properties": { "ID": 2445240010026, "正式名称": "助産所ひっつきむし", "機関区分": 4, "都道府県コード": 24, "市区町村コード": 207, "所在地": "三重県鈴鹿市竹野２丁目１１番２５号", "緯度": 34.880909, "経度": 136.556874, "url": "https://www.iryou.teikyouseido.mhlw.go.jp/znk-web/juminkanja/S2430/initialize?prefCd=24&kikanCd=5240010026&kikanKbn=4", "url2": "https://www.hittsuki.com", "内容": "助産所ひっつきむし【4:助産院】三重県鈴鹿市竹野２丁目１１番２５号" }, "geometry": { "type": "Point", "coordinates": [ 136.556874, 34.880909 ] } },
{ "type": "Feature", "properties": { "ID": 2445240010027, "正式名称": "まみづか助産院　桶谷式母乳育児相談室", "機関区分": 4, "都道府県コード": 24, "市区町村コード": 208, "所在地": "三重県名張市桔梗が丘西４－１－１９", "緯度": 34.646465, "経度": 136.114267, "url": "https://www.iryou.teikyouseido.mhlw.go.jp/znk-web/juminkanja/S2430/initialize?prefCd=24&kikanCd=5240010027&kikanKbn=4", "url2": "https://www.atu-oketani.com", "内容": "まみづか助産院　桶谷式母乳育児相談室【4:助産院】三重県名張市桔梗が丘西４－１－１９" }, "geometry": { "type": "Point", "coordinates": [ 136.114267, 34.646465 ] } },
{ "type": "Feature", "properties": { "ID": 2445240010028, "正式名称": "はなえみ助産所", "機関区分": 4, "都道府県コード": 24, "市区町村コード": 202, "所在地": "三重県四日市市阿倉川新町８番地１４", "緯度": 34.99296, "経度": 136.620935, "url": "https://www.iryou.teikyouseido.mhlw.go.jp/znk-web/juminkanja/S2430/initialize?prefCd=24&kikanCd=5240010028&kikanKbn=4", "url2": null, "内容": "はなえみ助産所【4:助産院】三重県四日市市阿倉川新町８番地１４" }, "geometry": { "type": "Point", "coordinates": [ 136.620935, 34.99296 ] } },
{ "type": "Feature", "properties": { "ID": 2445240010029, "正式名称": "ママサポ　出張助産院Ｏｈａｎａ", "機関区分": 4, "都道府県コード": 24, "市区町村コード": 202, "所在地": "三重県四日市市桜台２－５－１９３", "緯度": 34.982477, "経度": 136.534382, "url": "https://www.iryou.teikyouseido.mhlw.go.jp/znk-web/juminkanja/S2430/initialize?prefCd=24&kikanCd=5240010029&kikanKbn=4", "url2": "https://josaninohana.wordpress.com/", "内容": "ママサポ　出張助産院Ｏｈａｎａ【4:助産院】三重県四日市市桜台２－５－１９３" }, "geometry": { "type": "Point", "coordinates": [ 136.534382, 34.982477 ] } },
{ "type": "Feature", "properties": { "ID": 2445240010030, "正式名称": "しんぼ助産院", "機関区分": 4, "都道府県コード": 24, "市区町村コード": 208, "所在地": "三重県名張市つつじが丘北３番町２４６", "緯度": 34.604058, "経度": 136.132967, "url": "https://www.iryou.teikyouseido.mhlw.go.jp/znk-web/juminkanja/S2430/initialize?prefCd=24&kikanCd=5240010030&kikanKbn=4", "url2": null, "内容": "しんぼ助産院【4:助産院】三重県名張市つつじが丘北３番町２４６" }, "geometry": { "type": "Point", "coordinates": [ 136.132967, 34.604058 ] } },
{ "type": "Feature", "properties": { "ID": 2445240010032, "正式名称": "出張・オンライン専門助産院　ｆｅｌｉｃｅ", "機関区分": 4, "都道府県コード": 24, "市区町村コード": 202, "所在地": "三重県四日市市尾平町３８０６－１５３", "緯度": 34.982459, "経度": 136.590998, "url": "https://www.iryou.teikyouseido.mhlw.go.jp/znk-web/juminkanja/S2430/initialize?prefCd=24&kikanCd=5240010032&kikanKbn=4", "url2": "http://josanin-felice.jimdofree.com/", "内容": "出張・オンライン専門助産院　ｆｅｌｉｃｅ【4:助産院】三重県四日市市尾平町３８０６－１５３" }, "geometry": { "type": "Point", "coordinates": [ 136.590998, 34.982459 ] } },
{ "type": "Feature", "properties": { "ID": 2445240010033, "正式名称": "産前産後ケアサポートハウスせいりき", "機関区分": 4, "都道府県コード": 24, "市区町村コード": 203, "所在地": "三重県伊勢市小俣町明野３６８", "緯度": 34.531366, "経度": 136.662368, "url": "https://www.iryou.teikyouseido.mhlw.go.jp/znk-web/juminkanja/S2430/initialize?prefCd=24&kikanCd=5240010033&kikanKbn=4", "url2": "https://support-seiriki.com", "内容": "産前産後ケアサポートハウスせいりき【4:助産院】三重県伊勢市小俣町明野３６８" }, "geometry": { "type": "Point", "coordinates": [ 136.662368, 34.531366 ] } },
{ "type": "Feature", "properties": { "ID": 2445240010036, "正式名称": "あおば助産院", "機関区分": 4, "都道府県コード": 24, "市区町村コード": 201, "所在地": "三重県津市大園町１６－２７", "緯度": 34.716407, "経度": 136.49361, "url": "https://www.iryou.teikyouseido.mhlw.go.jp/znk-web/juminkanja/S2430/initialize?prefCd=24&kikanCd=5240010036&kikanKbn=4", "url2": "https://reinahonoki-mw.studio.site/top", "内容": "あおば助産院【4:助産院】三重県津市大園町１６－２７" }, "geometry": { "type": "Point", "coordinates": [ 136.49361, 34.716407 ] } },
{ "type": "Feature", "properties": { "ID": 2445240010038, "正式名称": "助産院　糸", "機関区分": 4, "都道府県コード": 24, "市区町村コード": 201, "所在地": "三重県津市一色町５０４－１０", "緯度": 34.727042, "経度": 136.472518, "url": "https://www.iryou.teikyouseido.mhlw.go.jp/znk-web/juminkanja/S2430/initialize?prefCd=24&kikanCd=5240010038&kikanKbn=4", "url2": null, "内容": "助産院　糸【4:助産院】三重県津市一色町５０４－１０" }, "geometry": { "type": "Point", "coordinates": [ 136.472518, 34.727042 ] } },
{ "type": "Feature", "properties": { "ID": 2445240010039, "正式名称": "しまなみ助産院・津", "機関区分": 4, "都道府県コード": 24, "市区町村コード": 201, "所在地": "三重県津市上浜町６丁目１６－７　サンマンションアトレ津ヒルズ８０６号", "緯度": 34.737674, "経度": 136.509896, "url": "https://www.iryou.teikyouseido.mhlw.go.jp/znk-web/juminkanja/S2430/initialize?prefCd=24&kikanCd=5240010039&kikanKbn=4", "url2": null, "内容": "しまなみ助産院・津【4:助産院】三重県津市上浜町６丁目１６－７　サンマンションアトレ津ヒルズ８０６号" }, "geometry": { "type": "Point", "coordinates": [ 136.509896, 34.737674 ] } },
{ "type": "Feature", "properties": { "ID": 2445240010040, "正式名称": "うみまち助産院", "機関区分": 4, "都道府県コード": 24, "市区町村コード": 211, "所在地": "三重県鳥羽市小浜町", "緯度": 34.490436, "経度": 136.836088, "url": "https://www.iryou.teikyouseido.mhlw.go.jp/znk-web/juminkanja/S2430/initialize?prefCd=24&kikanCd=5240010040&kikanKbn=4", "url2": null, "内容": "うみまち助産院【4:助産院】三重県鳥羽市小浜町" }, "geometry": { "type": "Point", "coordinates": [ 136.836088, 34.490436 ] } },
{ "type": "Feature", "properties": { "ID": 2445240010041, "正式名称": "助産院　て＆て", "機関区分": 4, "都道府県コード": 24, "市区町村コード": 201, "所在地": "三重県津市高茶屋７丁目８－３", "緯度": 34.673854, "経度": 136.498274, "url": "https://www.iryou.teikyouseido.mhlw.go.jp/znk-web/juminkanja/S2430/initialize?prefCd=24&kikanCd=5240010041&kikanKbn=4", "url2": "love.your.smile_midwife", "内容": "助産院　て＆て【4:助産院】三重県津市高茶屋７丁目８－３" }, "geometry": { "type": "Point", "coordinates": [ 136.498274, 34.673854 ] } },
{ "type": "Feature", "properties": { "ID": 2445240010042, "正式名称": "澄助産院", "機関区分": 4, "都道府県コード": 24, "市区町村コード": 204, "所在地": "三重県松阪市船江町９－１３", "緯度": 34.588917, "経度": 136.519112, "url": "https://www.iryou.teikyouseido.mhlw.go.jp/znk-web/juminkanja/S2430/initialize?prefCd=24&kikanCd=5240010042&kikanKbn=4", "url2": null, "内容": "澄助産院【4:助産院】三重県松阪市船江町９－１３" }, "geometry": { "type": "Point", "coordinates": [ 136.519112, 34.588917 ] } },
{ "type": "Feature", "properties": { "ID": 2445240010043, "正式名称": "うららか", "機関区分": 4, "都道府県コード": 24, "市区町村コード": 207, "所在地": "三重県鈴鹿市稲生塩屋３丁目２－３０", "緯度": 34.83545, "経度": 136.562783, "url": "https://www.iryou.teikyouseido.mhlw.go.jp/znk-web/juminkanja/S2430/initialize?prefCd=24&kikanCd=5240010043&kikanKbn=4", "url2": null, "内容": "うららか【4:助産院】三重県鈴鹿市稲生塩屋３丁目２－３０" }, "geometry": { "type": "Point", "coordinates": [ 136.562783, 34.83545 ] } },
{ "type": "Feature", "properties": { "ID": 2445240010044, "正式名称": "さくら助産院", "機関区分": 4, "都道府県コード": 24, "市区町村コード": 204, "所在地": "三重県松阪市下村町８８６－１", "緯度": 34.547753, "経度": 136.542583, "url": "https://www.iryou.teikyouseido.mhlw.go.jp/znk-web/juminkanja/S2430/initialize?prefCd=24&kikanCd=5240010044&kikanKbn=4", "url2": "https://r.goope.jp/sakura-jyosanin/", "内容": "さくら助産院【4:助産院】三重県松阪市下村町８８６－１" }, "geometry": { "type": "Point", "coordinates": [ 136.542583, 34.547753 ] } },
{ "type": "Feature", "properties": { "ID": 2445240010045, "正式名称": "きわ助産所", "機関区分": 4, "都道府県コード": 24, "市区町村コード": 207, "所在地": "三重県鈴鹿市南玉垣町６７８７－４", "緯度": 34.855051, "経度": 136.584863, "url": "https://www.iryou.teikyouseido.mhlw.go.jp/znk-web/juminkanja/S2430/initialize?prefCd=24&kikanCd=5240010045&kikanKbn=4", "url2": "https://kiwa-jyosanjyo.jimdofree.com/", "内容": "きわ助産所【4:助産院】三重県鈴鹿市南玉垣町６７８７－４" }, "geometry": { "type": "Point", "coordinates": [ 136.584863, 34.855051 ] } },
{ "type": "Feature", "properties": { "ID": 2445240010046, "正式名称": "かつはら助産院", "機関区分": 4, "都道府県コード": 24, "市区町村コード": 201, "所在地": "三重県津市白山町藤８３８－１", "緯度": 34.62914, "経度": 136.313626, "url": "https://www.iryou.teikyouseido.mhlw.go.jp/znk-web/juminkanja/S2430/initialize?prefCd=24&kikanCd=5240010046&kikanKbn=4", "url2": null, "内容": "かつはら助産院【4:助産院】三重県津市白山町藤８３８－１" }, "geometry": { "type": "Point", "coordinates": [ 136.313626, 34.62914 ] } },
{ "type": "Feature", "properties": { "ID": 2445240010047, "正式名称": "ママケアサポートＨＵＧＭＡＭＡ", "機関区分": 4, "都道府県コード": 24, "市区町村コード": 202, "所在地": "三重県四日市市川島町５６３４－１４", "緯度": 34.977311, "経度": 136.561277, "url": "https://www.iryou.teikyouseido.mhlw.go.jp/znk-web/juminkanja/S2430/initialize?prefCd=24&kikanCd=5240010047&kikanKbn=4", "url2": null, "内容": "ママケアサポートＨＵＧＭＡＭＡ【4:助産院】三重県四日市市川島町５６３４－１４" }, "geometry": { "type": "Point", "coordinates": [ 136.561277, 34.977311 ] } },
{ "type": "Feature", "properties": { "ID": 2445240010049, "正式名称": "いのちの花助産院", "機関区分": 4, "都道府県コード": 24, "市区町村コード": 202, "所在地": "三重県四日市市八田３丁目１５番３５号", "緯度": 34.99621, "経度": 136.640063, "url": "https://www.iryou.teikyouseido.mhlw.go.jp/znk-web/juminkanja/S2430/initialize?prefCd=24&kikanCd=5240010049&kikanKbn=4", "url2": null, "内容": "いのちの花助産院【4:助産院】三重県四日市市八田３丁目１５番３５号" }, "geometry": { "type": "Point", "coordinates": [ 136.640063, 34.99621 ] } },
{ "type": "Feature", "properties": { "ID": 2445240010051, "正式名称": "出張専門　アキ助産院", "機関区分": 4, "都道府県コード": 24, "市区町村コード": 202, "所在地": "三重県四日市市山城町８５７－２３", "緯度": 35.028711, "経度": 136.587387, "url": "https://www.iryou.teikyouseido.mhlw.go.jp/znk-web/juminkanja/S2430/initialize?prefCd=24&kikanCd=5240010051&kikanKbn=4", "url2": null, "内容": "出張専門　アキ助産院【4:助産院】三重県四日市市山城町８５７－２３" }, "geometry": { "type": "Point", "coordinates": [ 136.587387, 35.028711 ] } },
{ "type": "Feature", "properties": { "ID": 2445240010060, "正式名称": "みわ助産所　母乳育児相談室", "機関区分": 4, "都道府県コード": 24, "市区町村コード": 201, "所在地": "三重県津市一身田上津部田１５０３－５３", "緯度": 34.743539, "経度": 136.493775, "url": "https://www.iryou.teikyouseido.mhlw.go.jp/znk-web/juminkanja/S2430/initialize?prefCd=24&kikanCd=5240010060&kikanKbn=4", "url2": null, "内容": "みわ助産所　母乳育児相談室【4:助産院】三重県津市一身田上津部田１５０３－５３" }, "geometry": { "type": "Point", "coordinates": [ 136.493775, 34.743539 ] } },
{ "type": "Feature", "properties": { "ID": 2445240010070, "正式名称": "もなみ助産所", "機関区分": 4, "都道府県コード": 24, "市区町村コード": 201, "所在地": "三重県津市豊が丘４丁目１２－１５", "緯度": 34.807171, "経度": 136.465069, "url": "https://www.iryou.teikyouseido.mhlw.go.jp/znk-web/juminkanja/S2430/initialize?prefCd=24&kikanCd=5240010070&kikanKbn=4", "url2": null, "内容": "もなみ助産所【4:助産院】三重県津市豊が丘４丁目１２－１５" }, "geometry": { "type": "Point", "coordinates": [ 136.465069, 34.807171 ] } },
{ "type": "Feature", "properties": { "ID": 2445240010071, "正式名称": "助産院きみおもい", "機関区分": 4, "都道府県コード": 24, "市区町村コード": 201, "所在地": "三重県津市河芸町杜の街３丁目７－１５", "緯度": 34.802215, "経度": 136.531478, "url": "https://www.iryou.teikyouseido.mhlw.go.jp/znk-web/juminkanja/S2430/initialize?prefCd=24&kikanCd=5240010071&kikanKbn=4", "url2": "https://kimitamago.com/", "内容": "助産院きみおもい【4:助産院】三重県津市河芸町杜の街３丁目７－１５" }, "geometry": { "type": "Point", "coordinates": [ 136.531478, 34.802215 ] } },
{ "type": "Feature", "properties": { "ID": 2445240010080, "正式名称": "ママトコサロン　ｃｕｌｌａｎｇｅｌｉ", "機関区分": 4, "都道府県コード": 24, "市区町村コード": 201, "所在地": "三重県津市一志町田尻６１２－１９", "緯度": 34.654874, "経度": 136.434071, "url": "https://www.iryou.teikyouseido.mhlw.go.jp/znk-web/juminkanja/S2430/initialize?prefCd=24&kikanCd=5240010080&kikanKbn=4", "url2": null, "内容": "ママトコサロン　ｃｕｌｌａｎｇｅｌｉ【4:助産院】三重県津市一志町田尻６１２－１９" }, "geometry": { "type": "Point", "coordinates": [ 136.434071, 34.654874 ] } },
{ "type": "Feature", "properties": { "ID": 2445240010090, "正式名称": "助産所　お日さま", "機関区分": 4, "都道府県コード": 24, "市区町村コード": 202, "所在地": "三重県四日市市西山町７１１４番地１", "緯度": 34.959189, "経度": 136.520718, "url": "https://www.iryou.teikyouseido.mhlw.go.jp/znk-web/juminkanja/S2430/initialize?prefCd=24&kikanCd=5240010090&kikanKbn=4", "url2": null, "内容": "助産所　お日さま【4:助産院】三重県四日市市西山町７１１４番地１" }, "geometry": { "type": "Point", "coordinates": [ 136.520718, 34.959189 ] } },
{ "type": "Feature", "properties": { "ID": 2445240010100, "正式名称": "助産院　Ｒａｃｃｏｏｎ～ラクーン～", "機関区分": 4, "都道府県コード": 24, "市区町村コード": 204, "所在地": "三重県松阪市久保町１５０３－１１", "緯度": 34.549462, "経度": 136.536645, "url": "https://www.iryou.teikyouseido.mhlw.go.jp/znk-web/juminkanja/S2430/initialize?prefCd=24&kikanCd=5240010100&kikanKbn=4", "url2": null, "内容": "助産院　Ｒａｃｃｏｏｎ～ラクーン～【4:助産院】三重県松阪市久保町１５０３－１１" }, "geometry": { "type": "Point", "coordinates": [ 136.536645, 34.549462 ] } },
{ "type": "Feature", "properties": { "ID": 2445240010110, "正式名称": "育　助産院", "機関区分": 4, "都道府県コード": 24, "市区町村コード": 204, "所在地": "三重県松阪市垣鼻町", "緯度": 34.568586, "経度": 136.542386, "url": "https://www.iryou.teikyouseido.mhlw.go.jp/znk-web/juminkanja/S2430/initialize?prefCd=24&kikanCd=5240010110&kikanKbn=4", "url2": null, "内容": "育　助産院【4:助産院】三重県松阪市垣鼻町" }, "geometry": { "type": "Point", "coordinates": [ 136.542386, 34.568586 ] } },
{ "type": "Feature", "properties": { "ID": 2445240010130, "正式名称": "助産院Ｎｉｄ", "機関区分": 4, "都道府県コード": 24, "市区町村コード": 202, "所在地": "三重県四日市市大矢知新町１８―２", "緯度": 35.023806, "経度": 136.627792, "url": "https://www.iryou.teikyouseido.mhlw.go.jp/znk-web/juminkanja/S2430/initialize?prefCd=24&kikanCd=5240010130&kikanKbn=4", "url2": null, "内容": "助産院Ｎｉｄ【4:助産院】三重県四日市市大矢知新町１８―２" }, "geometry": { "type": "Point", "coordinates": [ 136.627792, 35.023806 ] } },
{ "type": "Feature", "properties": { "ID": 2445240010140, "正式名称": "訪問助産所ひかり", "機関区分": 4, "都道府県コード": 24, "市区町村コード": 203, "所在地": "三重県伊勢市小俣町新村一ノ岡５５８－２３１", "緯度": 34.515827, "経度": 136.655447, "url": "https://www.iryou.teikyouseido.mhlw.go.jp/znk-web/juminkanja/S2430/initialize?prefCd=24&kikanCd=5240010140&kikanKbn=4", "url2": null, "内容": "訪問助産所ひかり【4:助産院】三重県伊勢市小俣町新村一ノ岡５５８－２３１" }, "geometry": { "type": "Point", "coordinates": [ 136.655447, 34.515827 ] } }
]
}
