{
"type": "FeatureCollection",
"name": "geo_24_専修学校",
"crs": { "type": "name", "properties": { "name": "urn:ogc:def:crs:EPSG::6668" } },
"features": [
{ "type": "Feature", "properties": { "P29_001": "24201", "P29_002": "H124220180019", "P29_003": "16016", "P29_004": "三重県立公衆衛生学院", "P29_005": "三重県津市夢が丘1-1-17", "P29_006": "2", "P29_007": "0", "P29_008": "00", "P29_009": null }, "geometry": { "type": "Point", "coordinates": [ 136.486930562523412, 34.761962323124699 ] } },
{ "type": "Feature", "properties": { "P29_001": "24204", "P29_002": "H124220480016", "P29_003": "16016", "P29_004": "三重県農業大学校", "P29_005": "三重県松阪市嬉野川北町530", "P29_006": "2", "P29_007": "0", "P29_008": "00", "P29_009": null }, "geometry": { "type": "Point", "coordinates": [ 136.488668405132586, 34.632258496624779 ] } },
{ "type": "Feature", "properties": { "P29_001": "24208", "P29_002": "H124220880012", "P29_003": "16016", "P29_004": "名張市立看護専門学校", "P29_005": "三重県名張市百合が丘西5番町32", "P29_006": "3", "P29_007": "0", "P29_008": "00", "P29_009": null }, "geometry": { "type": "Point", "coordinates": [ 136.095873001561642, 34.608278001504971 ] } },
{ "type": "Feature", "properties": { "P29_001": "24201", "P29_002": "H124320185012", "P29_003": "16016", "P29_004": "三重調理専門学校", "P29_005": "三重県津市大谷町240", "P29_006": "4", "P29_007": "0", "P29_008": "00", "P29_009": null }, "geometry": { "type": "Point", "coordinates": [ 136.509907540748287, 34.733836294632354 ] } },
{ "type": "Feature", "properties": { "P29_001": "24201", "P29_002": "H124320185021", "P29_003": "16016", "P29_004": "津文化服装専門学校", "P29_005": "三重県津市新町1-1-36", "P29_006": "4", "P29_007": "0", "P29_008": "00", "P29_009": null }, "geometry": { "type": "Point", "coordinates": [ 136.4995929302533, 34.714549119052108 ] } },
{ "type": "Feature", "properties": { "P29_001": "24201", "P29_002": "H124320185030", "P29_003": "16016", "P29_004": "旭美容専門学校", "P29_005": "三重県津市上浜町1-14", "P29_006": "4", "P29_007": "0", "P29_008": "00", "P29_009": null }, "geometry": { "type": "Point", "coordinates": [ 136.511150429389517, 34.73767410930062 ] } },
{ "type": "Feature", "properties": { "P29_001": "24201", "P29_002": "H124320185049", "P29_003": "16016", "P29_004": "独法国立病院機構三重中央医療センター附属三重中央看護学校", "P29_005": "三重県津市久居明神町2158-5", "P29_006": "0", "P29_007": "0", "P29_008": "00", "P29_009": null }, "geometry": { "type": "Point", "coordinates": [ 136.466137367669148, 34.687288434941323 ] } },
{ "type": "Feature", "properties": { "P29_001": "24201", "P29_002": "H124320185058", "P29_003": "16016", "P29_004": "津看護専門学校", "P29_005": "三重県津市安濃町田端上野970-10", "P29_006": "4", "P29_007": "0", "P29_008": "00", "P29_009": null }, "geometry": { "type": "Point", "coordinates": [ 136.437934628789293, 34.763773523285245 ] } },
{ "type": "Feature", "properties": { "P29_001": "24201", "P29_002": "H124320185067", "P29_003": "16016", "P29_004": "三重介護福祉専門学校", "P29_005": "三重県津市大谷町240", "P29_006": "4", "P29_007": "0", "P29_008": "00", "P29_009": null }, "geometry": { "type": "Point", "coordinates": [ 136.509728491938176, 34.733952632630974 ] } },
{ "type": "Feature", "properties": { "P29_001": "24201", "P29_002": "H124320185076", "P29_003": "16016", "P29_004": "三重看護専門学校", "P29_005": "三重県津市島崎町97-1", "P29_006": "4", "P29_007": "0", "P29_008": "00", "P29_009": null }, "geometry": { "type": "Point", "coordinates": [ 136.521994921854258, 34.731053913963386 ] } },
{ "type": "Feature", "properties": { "P29_001": "24201", "P29_002": "H124320185094", "P29_003": "16016", "P29_004": "大原法律公務員専門学校津校", "P29_005": "三重県津市大谷町148-1", "P29_006": "4", "P29_007": "0", "P29_008": "00", "P29_009": null }, "geometry": { "type": "Point", "coordinates": [ 136.508448175177904, 34.733831875081506 ] } },
{ "type": "Feature", "properties": { "P29_001": "24202", "P29_002": "H124320285011", "P29_003": "16016", "P29_004": "ユマニテクライフデザイン専門学校", "P29_005": "三重県四日市市浜田町12-17", "P29_006": "4", "P29_007": "0", "P29_008": "00", "P29_009": null }, "geometry": { "type": "Point", "coordinates": [ 136.618580958946296, 34.964357699750437 ] } },
{ "type": "Feature", "properties": { "P29_001": "24202", "P29_002": "H124320285020", "P29_003": "16016", "P29_004": "中部ライテクビジネス専門学校", "P29_005": "三重県四日市市浜田町4-15", "P29_006": "4", "P29_007": "0", "P29_008": "00", "P29_009": null }, "geometry": { "type": "Point", "coordinates": [ 136.619813729543608, 34.96548141011597 ] } },
{ "type": "Feature", "properties": { "P29_001": "24202", "P29_002": "H124320285039", "P29_003": "16016", "P29_004": "中部調理製菓専門学校", "P29_005": "三重県四日市市浜田町4-15", "P29_006": "4", "P29_007": "0", "P29_008": "00", "P29_009": null }, "geometry": { "type": "Point", "coordinates": [ 136.619785283560844, 34.965417499381466 ] } },
{ "type": "Feature", "properties": { "P29_001": "24202", "P29_002": "H124320285048", "P29_003": "16016", "P29_004": "専門学校ミエ・ヘア・アーチストアカデミー", "P29_005": "三重県四日市市羽津中2-5-19", "P29_006": "4", "P29_007": "0", "P29_008": "00", "P29_009": null }, "geometry": { "type": "Point", "coordinates": [ 136.637105949511891, 34.994033608916993 ] } },
{ "type": "Feature", "properties": { "P29_001": "24202", "P29_002": "H124320285057", "P29_003": "16016", "P29_004": "四日市情報外語専門学校", "P29_005": "三重県四日市市安島1-2-5", "P29_006": "4", "P29_007": "0", "P29_008": "00", "P29_009": null }, "geometry": { "type": "Point", "coordinates": [ 136.61678733813963, 34.966913288199514 ] } },
{ "type": "Feature", "properties": { "P29_001": "24202", "P29_002": "H124320285066", "P29_003": "16016", "P29_004": "中部水耕栽培福祉専門学校", "P29_005": "三重県四日市市浜田町4-15", "P29_006": "4", "P29_007": "0", "P29_008": "00", "P29_009": null }, "geometry": { "type": "Point", "coordinates": [ 136.619772076497441, 34.965388066806376 ] } },
{ "type": "Feature", "properties": { "P29_001": "24202", "P29_002": "H124320285075", "P29_003": "16016", "P29_004": "四日市福祉専門学校", "P29_005": "三重県四日市市山田町5491", "P29_006": "4", "P29_007": "0", "P29_008": "00", "P29_009": null }, "geometry": { "type": "Point", "coordinates": [ 136.528208568148216, 34.947229226983097 ] } },
{ "type": "Feature", "properties": { "P29_001": "24202", "P29_002": "H124320285084", "P29_003": "16016", "P29_004": "ユマニテク看護助産専門学校", "P29_005": "三重県四日市市浜田町13-4", "P29_006": "4", "P29_007": "0", "P29_008": "00", "P29_009": null }, "geometry": { "type": "Point", "coordinates": [ 136.619106252520311, 34.963366632941479 ] } },
{ "type": "Feature", "properties": { "P29_001": "24202", "P29_002": "H124320285093", "P29_003": "16016", "P29_004": "ユマニテク調理製菓専門学校", "P29_005": "三重県四日市市浜田町13-29", "P29_006": "4", "P29_007": "0", "P29_008": "00", "P29_009": null }, "geometry": { "type": "Point", "coordinates": [ 136.619291151408333, 34.963511273024807 ] } },
{ "type": "Feature", "properties": { "P29_001": "24202", "P29_002": "H124320285100", "P29_003": "16016", "P29_004": "四日市医師会看護専門学校", "P29_005": "三重県四日市市西新地14-20", "P29_006": "4", "P29_007": "0", "P29_008": "00", "P29_009": null }, "geometry": { "type": "Point", "coordinates": [ 136.620556403071532, 34.970536973478517 ] } },
{ "type": "Feature", "properties": { "P29_001": "24202", "P29_002": "H124320285119", "P29_003": "16016", "P29_004": "専門学校ユマニテク医療福祉大学校", "P29_005": "三重県四日市市塩浜本町2-34", "P29_006": "4", "P29_007": "0", "P29_008": "00", "P29_009": null }, "geometry": { "type": "Point", "coordinates": [ 136.621250638345629, 34.929804343353759 ] } },
{ "type": "Feature", "properties": { "P29_001": "24203", "P29_002": "H124320385010", "P29_003": "16016", "P29_004": "英心専門学校", "P29_005": "三重県伊勢市河崎1-3-25", "P29_006": "4", "P29_007": "0", "P29_008": "00", "P29_009": null }, "geometry": { "type": "Point", "coordinates": [ 136.712781461783976, 34.492443497762679 ] } },
{ "type": "Feature", "properties": { "P29_001": "24203", "P29_002": "H124320385029", "P29_003": "16016", "P29_004": "伊勢調理製菓専門学校", "P29_005": "三重県伊勢市河崎1-10-47", "P29_006": "4", "P29_007": "0", "P29_008": "00", "P29_009": null }, "geometry": { "type": "Point", "coordinates": [ 136.714063718014842, 34.49608113754811 ] } },
{ "type": "Feature", "properties": { "P29_001": "24203", "P29_002": "H124320385038", "P29_003": "16016", "P29_004": "伊勢保健衛生専門学校", "P29_005": "三重県伊勢市黒瀬町562-13", "P29_006": "4", "P29_007": "0", "P29_008": "00", "P29_009": null }, "geometry": { "type": "Point", "coordinates": [ 136.733302004652131, 34.492264383388154 ] } },
{ "type": "Feature", "properties": { "P29_001": "24203", "P29_002": "H124320385047", "P29_003": "16016", "P29_004": "勢京ビジネス専門学校", "P29_005": "三重県伊勢市一之木4-15-14", "P29_006": "4", "P29_007": "0", "P29_008": "00", "P29_009": null }, "geometry": { "type": "Point", "coordinates": [ 136.70611534348572, 34.503575337957919 ] } },
{ "type": "Feature", "properties": { "P29_001": "24203", "P29_002": "H124320385056", "P29_003": "16016", "P29_004": "伊勢理容美容専門学校", "P29_005": "三重県伊勢市八日市場町17-27", "P29_006": "4", "P29_007": "0", "P29_008": "00", "P29_009": null }, "geometry": { "type": "Point", "coordinates": [ 136.70145402579729, 34.489966797036409 ] } },
{ "type": "Feature", "properties": { "P29_001": "24203", "P29_002": "H124320385065", "P29_003": "16016", "P29_004": "伊勢志摩リハビリテーション専門学校", "P29_005": "三重県伊勢市御薗町高向1658", "P29_006": "4", "P29_007": "0", "P29_008": "00", "P29_009": null }, "geometry": { "type": "Point", "coordinates": [ 136.693911998378439, 34.508137997325342 ] } },
{ "type": "Feature", "properties": { "P29_001": "24204", "P29_002": "H124320485019", "P29_003": "16016", "P29_004": "松阪看護専門学校", "P29_005": "三重県松阪市鎌田町145-4", "P29_006": "4", "P29_007": "0", "P29_008": "00", "P29_009": null }, "geometry": { "type": "Point", "coordinates": [ 136.531832543220247, 34.581604047589735 ] } },
{ "type": "Feature", "properties": { "P29_001": "24205", "P29_002": "H124320585018", "P29_003": "16016", "P29_004": "桑名文化専門学校", "P29_005": "三重県桑名市中央町1-92", "P29_006": "4", "P29_007": "0", "P29_008": "00", "P29_009": null }, "geometry": { "type": "Point", "coordinates": [ 136.683673143851962, 35.064600864084454 ] } },
{ "type": "Feature", "properties": { "P29_001": "24205", "P29_002": "H124320585027", "P29_003": "16016", "P29_004": "桑名医師会立桑名看護専門学校", "P29_005": "三重県桑名市大字本願寺市之縄262-1", "P29_006": "4", "P29_007": "0", "P29_008": "00", "P29_009": null }, "geometry": { "type": "Point", "coordinates": [ 136.675104998172884, 35.056111995424004 ] } },
{ "type": "Feature", "properties": { "P29_001": "24207", "P29_002": "H124320785016", "P29_003": "16016", "P29_004": "鈴鹿オフィスワーク医療福祉専門学校", "P29_005": "三重県鈴鹿市住吉2-24-9", "P29_006": "4", "P29_007": "0", "P29_008": "00", "P29_009": null }, "geometry": { "type": "Point", "coordinates": [ 136.53768382116516, 34.86320108710256 ] } },
{ "type": "Feature", "properties": { "P29_001": "24210", "P29_002": "H124321085011", "P29_003": "16016", "P29_004": "徳風技能専門学校", "P29_005": "三重県亀山市和賀町1789-4", "P29_006": "4", "P29_007": "0", "P29_008": "00", "P29_009": null }, "geometry": { "type": "Point", "coordinates": [ 136.441789624683224, 34.844716219581123 ] } },
{ "type": "Feature", "properties": { "P29_001": "24216", "P29_002": "H124321685015", "P29_003": "16016", "P29_004": "社会医療法人畿内会岡波看護専門学校", "P29_005": "三重県伊賀市上野桑町1734", "P29_006": "4", "P29_007": "0", "P29_008": "00", "P29_009": null }, "geometry": { "type": "Point", "coordinates": [ 136.137222423706959, 34.75662789673725 ] } },
{ "type": "Feature", "properties": { "P29_001": "24341", "P29_002": "H124334185013", "P29_003": "16016", "P29_004": "聖十字看護専門学校", "P29_005": "三重県三重郡菰野町大字宿野字八岡1346", "P29_006": "4", "P29_007": "0", "P29_008": "00", "P29_009": null }, "geometry": { "type": "Point", "coordinates": [ 136.521337314843151, 35.004824713803167 ] } }
]
}
