{
"type": "FeatureCollection",
"name": "geo_24_訪問リハビリテーション",
"crs": { "type": "name", "properties": { "name": "urn:ogc:def:crs:OGC:1.3:CRS84" } },
"features": [
{ "type": "Feature", "properties": { "内容": "第二岩崎病院　訪問リハビリテーション【訪問リハビリテーション】三重県津市一身田町３８７番地", "url": "https://www.kaigokensaku.mhlw.go.jp/24/index.php?action_kouhyou_detail_004_kani=true&JigyosyoCd=2410505131-00&ServiceCd=140&Type=search", "url2": null }, "geometry": { "type": "Point", "coordinates": [ 136.507768, 34.758906 ] } },
{ "type": "Feature", "properties": { "内容": "ゆり形成内科整形訪問リハビリテーション【訪問リハビリテーション】三重県津市柳山津興3306", "url": "https://www.kaigokensaku.mhlw.go.jp/24/index.php?action_kouhyou_detail_004_kani=true&JigyosyoCd=2410515254-00&ServiceCd=140&Type=search", "url2": "http://www.yurikeisei.jp/" }, "geometry": { "type": "Point", "coordinates": [ 136.5118443, 34.7080368 ] } },
{ "type": "Feature", "properties": { "内容": "介護老人保健施設いこいの森【訪問リハビリテーション】三重県津市河芸町東千里3番地の1", "url": "https://www.kaigokensaku.mhlw.go.jp/24/index.php?action_kouhyou_detail_004_kani=true&JigyosyoCd=2452480029-00&ServiceCd=140&Type=search", "url2": "https://www.mie-ikoinomori.or.jp" }, "geometry": { "type": "Point", "coordinates": [ 136.552071500000011, 34.8031044 ] } },
{ "type": "Feature", "properties": { "内容": "介護老人保健施設つつじの里【訪問リハビリテーション】津市白山町二本木1163", "url": "https://www.kaigokensaku.mhlw.go.jp/24/index.php?action_kouhyou_detail_004_kani=true&JigyosyoCd=2450580044-00&ServiceCd=140&Type=search", "url2": "http://www.akeai.or.jp" }, "geometry": { "type": "Point", "coordinates": [ 136.371187700000064, 34.6680964 ] } },
{ "type": "Feature", "properties": { "内容": "津生協病院【訪問リハビリテーション】三重県津市寿町16-24", "url": "https://www.kaigokensaku.mhlw.go.jp/24/index.php?action_kouhyou_detail_004_kani=true&JigyosyoCd=2410505263-00&ServiceCd=140&Type=search", "url2": "http;//www.tsucoop.jp/" }, "geometry": { "type": "Point", "coordinates": [ 136.516785059889031, 34.715474665398474 ] } },
{ "type": "Feature", "properties": { "内容": "介護老人保健施設ロマン【訪問リハビリテーション】三重県津市芸濃町椋本6176", "url": "https://www.kaigokensaku.mhlw.go.jp/24/index.php?action_kouhyou_detail_004_kani=true&JigyosyoCd=2452480011-00&ServiceCd=140&Type=search", "url2": "http://www.roman.or.jp/" }, "geometry": { "type": "Point", "coordinates": [ 136.442573140475503, 34.810488873441734 ] } },
{ "type": "Feature", "properties": { "内容": "万葉の里訪問リハビリテーション事業所【訪問リハビリテーション】三重県津市一志町高野236-5", "url": "https://www.kaigokensaku.mhlw.go.jp/24/index.php?action_kouhyou_detail_004_kani=true&JigyosyoCd=2452580034-00&ServiceCd=140&Type=search", "url2": "http://www.pmc.or.jp/ymcg/manyo" }, "geometry": { "type": "Point", "coordinates": [ 136.43258620000006, 34.6596328 ] } },
{ "type": "Feature", "properties": { "内容": "訪問リハビリテーションセンター　あのう【訪問リハビリテーション】三重県津市安濃町東観音寺353番地", "url": "https://www.kaigokensaku.mhlw.go.jp/24/index.php?action_kouhyou_detail_004_kani=true&JigyosyoCd=2452480037-00&ServiceCd=140&Type=search", "url2": "http://www.akeai.or.jp" }, "geometry": { "type": "Point", "coordinates": [ 136.4409935, 34.7642044 ] } },
{ "type": "Feature", "properties": { "内容": "訪問リハビリテーションアルカディア【訪問リハビリテーション】三重県津市乙部11番5号", "url": "https://www.kaigokensaku.mhlw.go.jp/24/index.php?action_kouhyou_detail_004_kani=true&JigyosyoCd=2450580028-00&ServiceCd=140&Type=search", "url2": "https://www.arcadia-mie.jp/" }, "geometry": { "type": "Point", "coordinates": [ 136.520060300000068, 34.7173601 ] } },
{ "type": "Feature", "properties": { "内容": "医療法人　凰林会　榊原白鳳病院【訪問リハビリテーション】三重県津市榊原町5630番地", "url": "https://www.kaigokensaku.mhlw.go.jp/24/index.php?action_kouhyou_detail_004_kani=true&JigyosyoCd=2410505974-00&ServiceCd=140&Type=search", "url2": "http://www.ohrin-mc.jp/hakuho/" }, "geometry": { "type": "Point", "coordinates": [ 136.368925399999966, 34.700816 ] } },
{ "type": "Feature", "properties": { "内容": "しおりの里　訪問リハビリテーション事業所【訪問リハビリテーション】三重県津市野田2033番地1", "url": "https://www.kaigokensaku.mhlw.go.jp/24/index.php?action_kouhyou_detail_004_kani=true&JigyosyoCd=2410515171-00&ServiceCd=140&Type=search", "url2": "http://www.pmc.or.jp/ymcg/shiori/" }, "geometry": { "type": "Point", "coordinates": [ 136.462589799999932, 34.7093463 ] } },
{ "type": "Feature", "properties": { "内容": "永井病院デイケアセンター【訪問リハビリテーション】津市西丸之内29番29号", "url": "https://www.kaigokensaku.mhlw.go.jp/24/index.php?action_kouhyou_detail_004_kani=true&JigyosyoCd=2410505115-00&ServiceCd=140&Type=search", "url2": "https://nagai-hp.or.jp/" }, "geometry": { "type": "Point", "coordinates": [ 136.501579099999987, 34.719182 ] } },
{ "type": "Feature", "properties": { "内容": "三重県立一志病院【訪問リハビリテーション】三重県津市白山町南家城616", "url": "https://www.kaigokensaku.mhlw.go.jp/24/index.php?action_kouhyou_detail_004_kani=true&JigyosyoCd=2410515106-00&ServiceCd=140&Type=search", "url2": "http://www.pref.mie.lg.jp/IHOS/HP/" }, "geometry": { "type": "Point", "coordinates": [ 136.31406590000006, 34.6256934 ] } },
{ "type": "Feature", "properties": { "内容": "医療法人　富田浜病院　訪問リハビリテーション事業所【訪問リハビリテーション】四日市市富田浜町26-14", "url": "https://www.kaigokensaku.mhlw.go.jp/24/index.php?action_kouhyou_detail_004_kani=true&JigyosyoCd=2410205112-00&ServiceCd=140&Type=search", "url2": "http://tomidahama.jp" }, "geometry": { "type": "Point", "coordinates": [ 136.6517569, 34.9981112 ] } },
{ "type": "Feature", "properties": { "内容": "主体会病院訪問リハビリテーション【訪問リハビリテーション】四日市市城北町8番1号", "url": "https://www.kaigokensaku.mhlw.go.jp/24/index.php?action_kouhyou_detail_004_kani=true&JigyosyoCd=2410205336-00&ServiceCd=140&Type=search", "url2": "http://www.syutaikai.jp" }, "geometry": { "type": "Point", "coordinates": [ 136.611582799475087, 34.964971708013657 ] } },
{ "type": "Feature", "properties": { "内容": "小山田記念温泉病院【訪問リハビリテーション】三重県四日市市山田町5538番地1", "url": "https://www.kaigokensaku.mhlw.go.jp/24/index.php?action_kouhyou_detail_004_kani=true&JigyosyoCd=2410205419-00&ServiceCd=140&Type=search", "url2": "http://www.syutaikai.jp/htm_oya/houmon.html" }, "geometry": { "type": "Point", "coordinates": [ 136.526484096819985, 34.944756524693837 ] } },
{ "type": "Feature", "properties": { "内容": "みたき総合病院【訪問リハビリテーション】三重県四日市市生桑町菰池458-1", "url": "https://www.kaigokensaku.mhlw.go.jp/24/index.php?action_kouhyou_detail_004_kani=true&JigyosyoCd=2410205989-00&ServiceCd=140&Type=search", "url2": "https://mitaki.or.jp/" }, "geometry": { "type": "Point", "coordinates": [ 136.603533011561552, 34.980567248201901 ] } },
{ "type": "Feature", "properties": { "内容": "介護老人保健施設みえ川村老健【訪問リハビリテーション】四日市市城東町3-21", "url": "https://www.kaigokensaku.mhlw.go.jp/24/index.php?action_kouhyou_detail_004_kani=true&JigyosyoCd=2450280033-00&ServiceCd=140&Type=search", "url2": "http://www.syutaikai.jp/htm_mro/top-mro.htm" }, "geometry": { "type": "Point", "coordinates": [ 136.609692700000011, 34.9646202 ] } },
{ "type": "Feature", "properties": { "内容": "いしが在宅ケアクリニック【訪問リハビリテーション】三重県四日市市山城町749番地37", "url": "https://www.kaigokensaku.mhlw.go.jp/24/index.php?action_kouhyou_detail_004_kani=true&JigyosyoCd=2410215590-00&ServiceCd=140&Type=search", "url2": "http://www.ishiga-cl.com/" }, "geometry": { "type": "Point", "coordinates": [ 136.585365374205054, 35.032007554424936 ] } },
{ "type": "Feature", "properties": { "内容": "四日市羽津医療センター　訪問リハビリテーション【訪問リハビリテーション】四日市市羽津山町10番8号", "url": "https://www.kaigokensaku.mhlw.go.jp/24/index.php?action_kouhyou_detail_004_kani=true&JigyosyoCd=2410205013-00&ServiceCd=140&Type=search", "url2": "http://www.hazu-yokkaichihp.jp/" }, "geometry": { "type": "Point", "coordinates": [ 136.626350399999978, 34.9896899 ] } },
{ "type": "Feature", "properties": { "内容": "すずらん診療所【訪問リハビリテーション】三重県四日市市日永一丁目3番18号", "url": "https://www.kaigokensaku.mhlw.go.jp/24/index.php?action_kouhyou_detail_004_kani=true&JigyosyoCd=2410215673-00&ServiceCd=140&Type=search", "url2": "www.suzuranclinic.com" }, "geometry": { "type": "Point", "coordinates": [ 136.6095272, 34.9547403 ] } },
{ "type": "Feature", "properties": { "内容": "訪問リハビリテーション山咲苑【訪問リハビリテーション】三重県伊勢市楠部町若ノ山2605-13", "url": "https://www.kaigokensaku.mhlw.go.jp/24/index.php?action_kouhyou_detail_004_kani=true&JigyosyoCd=2450880014-00&ServiceCd=140&Type=search", "url2": "http://yamasakien.biz" }, "geometry": { "type": "Point", "coordinates": [ 136.7224104, 34.4846505 ] } },
{ "type": "Feature", "properties": { "内容": "医療法人　海野内科【訪問リハビリテーション】浦口2丁目2番13号", "url": "https://www.kaigokensaku.mhlw.go.jp/24/index.php?action_kouhyou_detail_004_kani=true&JigyosyoCd=2410805283-00&ServiceCd=140&Type=search", "url2": "http://www.ise-ics.co.jp/unno/" }, "geometry": { "type": "Point", "coordinates": [ 136.6949816, 34.4929769 ] } },
{ "type": "Feature", "properties": { "内容": "医療法人社団愛敬会　山崎外科内科【訪問リハビリテーション】三重県伊勢市楠部町乙77", "url": "https://www.kaigokensaku.mhlw.go.jp/24/index.php?action_kouhyou_detail_004_kani=true&JigyosyoCd=2410805630-00&ServiceCd=140&Type=search", "url2": "http://yamazaki-gekanaika.com" }, "geometry": { "type": "Point", "coordinates": [ 136.7293621, 34.4761776 ] } },
{ "type": "Feature", "properties": { "内容": "医療法人全心会　伊勢ひかり病院【訪問リハビリテーション】三重県伊勢市御薗町810-1", "url": "https://www.kaigokensaku.mhlw.go.jp/24/index.php?action_kouhyou_detail_004_kani=true&JigyosyoCd=2410805465-00&ServiceCd=140&Type=search", "url2": "https://ise-hikari.com" }, "geometry": { "type": "Point", "coordinates": [ 136.698208167399486, 34.50006023191424 ] } },
{ "type": "Feature", "properties": { "内容": "医療法人全心会　伊勢老健ひかり　訪問リハビリテーション【訪問リハビリテーション】三重県伊勢市御薗町高向775-1", "url": "https://www.kaigokensaku.mhlw.go.jp/24/index.php?action_kouhyou_detail_004_kani=true&JigyosyoCd=2470803020-00&ServiceCd=140&Type=search", "url2": "https://ise-rouken-hikari.com/" }, "geometry": { "type": "Point", "coordinates": [ 136.69722040000002, 34.501057399999986 ] } },
{ "type": "Feature", "properties": { "内容": "伊勢志摩クリニック　訪問リハビリテーション【訪問リハビリテーション】御薗町高向1746-2", "url": "https://www.kaigokensaku.mhlw.go.jp/24/index.php?action_kouhyou_detail_004_kani=true&JigyosyoCd=2410805697-00&ServiceCd=140&Type=search", "url2": "http://www.kyoeigakuen.ac.jp/rehacenter/" }, "geometry": { "type": "Point", "coordinates": [ 136.695134400000029, 34.5065694 ] } },
{ "type": "Feature", "properties": { "内容": "上野の郷（介護予防）訪問リハビリテーション事業所【訪問リハビリテーション】三重県伊勢市上野町2855-1", "url": "https://www.kaigokensaku.mhlw.go.jp/24/index.php?action_kouhyou_detail_004_kani=true&JigyosyoCd=2450880022-00&ServiceCd=140&Type=search", "url2": "www.uenonosato.jｐ" }, "geometry": { "type": "Point", "coordinates": [ 136.653411, 34.4352079 ] } },
{ "type": "Feature", "properties": { "内容": "医療法人　田中病院　伊勢田中病院【訪問リハビリテーション】伊勢市大世古4丁目6番47号", "url": "https://www.kaigokensaku.mhlw.go.jp/24/index.php?action_kouhyou_detail_004_kani=true&JigyosyoCd=2410805267-00&ServiceCd=140&Type=search", "url2": "https://www.isetanaka.jp" }, "geometry": { "type": "Point", "coordinates": [ 136.7020179366165, 34.500040101156976 ] } },
{ "type": "Feature", "properties": { "内容": "あらおと整形クリニック訪問リハビリテーション事業所【訪問リハビリテーション】三重県松阪市久保田町5-7", "url": "https://www.kaigokensaku.mhlw.go.jp/24/index.php?action_kouhyou_detail_004_kani=true&JigyosyoCd=2410702498-00&ServiceCd=140&Type=search", "url2": null }, "geometry": { "type": "Point", "coordinates": [ 136.528284, 34.5828601 ] } },
{ "type": "Feature", "properties": { "内容": "医療法人　西井医院　訪問リハビリステーション【訪問リハビリテーション】三重県松阪市曽原町８１１‐１", "url": "https://www.kaigokensaku.mhlw.go.jp/24/index.php?action_kouhyou_detail_004_kani=true&JigyosyoCd=2410705988-00&ServiceCd=140&Type=search", "url2": "http://nishii-hospital.com/" }, "geometry": { "type": "Point", "coordinates": [ 136.5173949, 34.6312518 ] } },
{ "type": "Feature", "properties": { "内容": "訪問リハビリテーションセンターやまゆりの里【訪問リハビリテーション】三重県松阪市嬉野中川町１５２９番地１", "url": "https://www.kaigokensaku.mhlw.go.jp/24/index.php?action_kouhyou_detail_004_kani=true&JigyosyoCd=2450780040-00&ServiceCd=140&Type=search", "url2": "http://www.akeai.or.jp/" }, "geometry": { "type": "Point", "coordinates": [ 136.475372099999959, 34.6341892 ] } },
{ "type": "Feature", "properties": { "内容": "花の丘病院訪問リハビリテーション【訪問リハビリテーション】三重県松阪市山室町707-3", "url": "https://www.kaigokensaku.mhlw.go.jp/24/index.php?action_kouhyou_detail_004_kani=true&JigyosyoCd=2410705624-00&ServiceCd=140&Type=search", "url2": "https://www.shoutoku.or.jp/hananooka/" }, "geometry": { "type": "Point", "coordinates": [ 136.502568699999983, 34.5306588 ] } },
{ "type": "Feature", "properties": { "内容": "嘉祥苑訪問リハビリテーション事業所【訪問リハビリテーション】三重県松阪市鎌田町234-10", "url": "https://www.kaigokensaku.mhlw.go.jp/24/index.php?action_kouhyou_detail_004_kani=true&JigyosyoCd=2450780016-00&ServiceCd=140&Type=search", "url2": null }, "geometry": { "type": "Point", "coordinates": [ 136.535940887696853, 34.582167631955514 ] } },
{ "type": "Feature", "properties": { "内容": "訪問リハビリテーションさくらんぼ【訪問リハビリテーション】三重県松阪市飯南町粥見5471-18", "url": "https://www.kaigokensaku.mhlw.go.jp/24/index.php?action_kouhyou_detail_004_kani=true&JigyosyoCd=2450780057-00&ServiceCd=140&Type=search", "url2": "http://www.sakuraen.com/sakuranbo/" }, "geometry": { "type": "Point", "coordinates": [ 136.375915099999929, 34.4456662 ] } },
{ "type": "Feature", "properties": { "内容": "医療法人KMCかいばな内科クリニック【訪問リハビリテーション】三重県松阪市垣鼻町1761-23", "url": "https://www.kaigokensaku.mhlw.go.jp/24/index.php?action_kouhyou_detail_004_kani=true&JigyosyoCd=2410705996-00&ServiceCd=140&Type=search", "url2": "http://kaibanaclinic.jp" }, "geometry": { "type": "Point", "coordinates": [ 136.534952213491835, 34.56257225873803 ] } },
{ "type": "Feature", "properties": { "内容": "介護老人保健施設まとかた【訪問リハビリテーション】三重県松阪市東黒部町835", "url": "https://www.kaigokensaku.mhlw.go.jp/24/index.php?action_kouhyou_detail_004_kani=true&JigyosyoCd=2450780065-00&ServiceCd=140&Type=search", "url2": "http://www.matokata.com" }, "geometry": { "type": "Point", "coordinates": [ 136.591329080426021, 34.591543847437272 ] } },
{ "type": "Feature", "properties": { "内容": "ヨナハ丘の上病院【訪問リハビリテーション】桑名市さくらの丘1番地", "url": "https://www.kaigokensaku.mhlw.go.jp/24/index.php?action_kouhyou_detail_004_kani=true&JigyosyoCd=2410105130-00&ServiceCd=140&Type=search", "url2": "https://yonaha.or.jp/zc/houriha.html" }, "geometry": { "type": "Point", "coordinates": [ 136.655225289944951, 35.067350244410221 ] } },
{ "type": "Feature", "properties": { "内容": "医療法人（社団）佐藤病院　長島中央病院【訪問リハビリテーション】桑名市長島町福吉271", "url": "https://www.kaigokensaku.mhlw.go.jp/24/index.php?action_kouhyou_detail_004_kani=true&JigyosyoCd=2410105643-00&ServiceCd=140&Type=search", "url2": "http://www.sato-group.jp/nagasimatyu-o-.html" }, "geometry": { "type": "Point", "coordinates": [ 136.715471358860782, 35.057633293430889 ] } },
{ "type": "Feature", "properties": { "内容": "医療法人　桑名病院【訪問リハビリテーション】三重県桑名市京橋町３０番地", "url": "https://www.kaigokensaku.mhlw.go.jp/24/index.php?action_kouhyou_detail_004_kani=true&JigyosyoCd=2410105080-00&ServiceCd=140&Type=search", "url2": "http://www.kuwana-hosp.or.jp" }, "geometry": { "type": "Point", "coordinates": [ 136.691680305557298, 35.063382917006351 ] } },
{ "type": "Feature", "properties": { "内容": "医療法人普照会もりえい病院【訪問リハビリテーション】三重県桑名市内堀28番地の1", "url": "https://www.kaigokensaku.mhlw.go.jp/24/index.php?action_kouhyou_detail_004_kani=true&JigyosyoCd=2410105569-00&ServiceCd=140&Type=search", "url2": "https://www.moriei.jp/" }, "geometry": { "type": "Point", "coordinates": [ 136.6936632, 35.0625595 ] } },
{ "type": "Feature", "properties": { "内容": "医療法人白鳳会　白鳳クリニック【訪問リハビリテーション】三重県鈴鹿市庄野町2550番地", "url": "https://www.kaigokensaku.mhlw.go.jp/24/index.php?action_kouhyou_detail_004_kani=true&JigyosyoCd=2410305730-00&ServiceCd=140&Type=search", "url2": "http://www.mecha.ne.jp/~suzu-oka/" }, "geometry": { "type": "Point", "coordinates": [ 136.509097293254058, 34.887986594704564 ] } },
{ "type": "Feature", "properties": { "内容": "玉田クリニック　訪問リハビリテーション【訪問リハビリテーション】三重県鈴鹿市稲生四丁目4878番2", "url": "https://www.kaigokensaku.mhlw.go.jp/24/index.php?action_kouhyou_detail_004_kani=true&JigyosyoCd=2410305920-00&ServiceCd=140&Type=search", "url2": "https://tamada-group.jp/" }, "geometry": { "type": "Point", "coordinates": [ 136.559842, 34.8424304 ] } },
{ "type": "Feature", "properties": { "内容": "訪問リハビリテーション　アルテハイム鈴鹿【訪問リハビリテーション】三重県鈴鹿市平田１丁目３番５号", "url": "https://www.kaigokensaku.mhlw.go.jp/24/index.php?action_kouhyou_detail_004_kani=true&JigyosyoCd=2450380015-00&ServiceCd=140&Type=search", "url2": null }, "geometry": { "type": "Point", "coordinates": [ 136.539811900000018, 34.8745216 ] } },
{ "type": "Feature", "properties": { "内容": "訪問リハビリテーション事業所パークヒルズ高塚【訪問リハビリテーション】三重県鈴鹿市高塚町字北新地2036", "url": "https://www.kaigokensaku.mhlw.go.jp/24/index.php?action_kouhyou_detail_004_kani=true&JigyosyoCd=2450380049-00&ServiceCd=140&Type=search", "url2": "www.shiokawa-hp.jp" }, "geometry": { "type": "Point", "coordinates": [ 136.5140083, 34.9058271 ] } },
{ "type": "Feature", "properties": { "内容": "医療法人福慈会　夢眠クリニック名張　訪問リハビリテーション事業所【訪問リハビリテーション】三重県名張市東町1901-1", "url": "https://www.kaigokensaku.mhlw.go.jp/24/index.php?action_kouhyou_detail_004_kani=true&JigyosyoCd=2411305085-00&ServiceCd=140&Type=search", "url2": null }, "geometry": { "type": "Point", "coordinates": [ 136.1001205, 34.6316156 ] } },
{ "type": "Feature", "properties": { "内容": "医療法人寺田病院　訪問リハビリテーション事業所【訪問リハビリテーション】三重県名張市夏見3260番地1", "url": "https://www.kaigokensaku.mhlw.go.jp/24/index.php?action_kouhyou_detail_004_kani=true&JigyosyoCd=2411305036-00&ServiceCd=140&Type=search", "url2": "http://www.terada-hp.or.jp" }, "geometry": { "type": "Point", "coordinates": [ 136.105818699999986, 34.620096 ] } },
{ "type": "Feature", "properties": { "内容": "訪問リハビリテーション　みえ【訪問リハビリテーション】アイリス町14-7", "url": "https://www.kaigokensaku.mhlw.go.jp/24/index.php?action_kouhyou_detail_004_kani=true&JigyosyoCd=2410400572-00&ServiceCd=140&Type=search", "url2": "http:/www.mie-engejp/" }, "geometry": { "type": "Point", "coordinates": [ 136.460604600000011, 34.8671265 ] } },
{ "type": "Feature", "properties": { "内容": "亀山回生病院訪問リハビリテーション【訪問リハビリテーション】亀山市東御幸町２３２番地", "url": "https://www.kaigokensaku.mhlw.go.jp/24/index.php?action_kouhyou_detail_004_kani=true&JigyosyoCd=2410405134-00&ServiceCd=140&Type=search", "url2": "http://www.kaiseihp.com/1_kameyama/index.html" }, "geometry": { "type": "Point", "coordinates": [ 136.458489474204953, 34.850048216187446 ] } },
{ "type": "Feature", "properties": { "内容": "亀山市立医療センター【訪問リハビリテーション】三重県亀山市亀田町466番地1", "url": "https://www.kaigokensaku.mhlw.go.jp/24/index.php?action_kouhyou_detail_004_kani=true&JigyosyoCd=2410405050-00&ServiceCd=140&Type=search", "url2": "https://www.city.kameyama.mie.jp/" }, "geometry": { "type": "Point", "coordinates": [ 136.450697600000012, 34.8667514 ] } },
{ "type": "Feature", "properties": { "内容": "訪問リハビリテーション　鳥羽豊和苑【訪問リハビリテーション】三重県鳥羽市安楽島町字腰掛1045-77", "url": "https://www.kaigokensaku.mhlw.go.jp/24/index.php?action_kouhyou_detail_004_kani=true&JigyosyoCd=2450980038-00&ServiceCd=140&Type=search", "url2": "https://houwakai.or.jp/" }, "geometry": { "type": "Point", "coordinates": [ 136.8622526, 34.4743849 ] } },
{ "type": "Feature", "properties": { "内容": "鳥羽市立長岡診療所【訪問リハビリテーション】三重県鳥羽市相差町1028-1", "url": "https://www.kaigokensaku.mhlw.go.jp/24/index.php?action_kouhyou_detail_004_kani=true&JigyosyoCd=2410905042-00&ServiceCd=140&Type=search", "url2": "https://nagaoka.jadecom.or.jp/" }, "geometry": { "type": "Point", "coordinates": [ 136.9022995, 34.3895987 ] } },
{ "type": "Feature", "properties": { "内容": "協立内科外科医院【訪問リハビリテーション】三重県熊野市井戸町378番地", "url": "https://www.kaigokensaku.mhlw.go.jp/24/index.php?action_kouhyou_detail_004_kani=true&JigyosyoCd=2411105212-00&ServiceCd=140&Type=search", "url2": "https://koide-gi-clinic.jp/" }, "geometry": { "type": "Point", "coordinates": [ 136.0941812, 33.888090700000021 ] } },
{ "type": "Feature", "properties": { "内容": "みやきリハビリテーションクリニック【訪問リハビリテーション】三重県熊野市久生屋町５４１", "url": "https://www.kaigokensaku.mhlw.go.jp/24/index.php?action_kouhyou_detail_004_kani=true&JigyosyoCd=2411105220-00&ServiceCd=140&Type=search", "url2": "https://www.akane-kai.jp/" }, "geometry": { "type": "Point", "coordinates": [ 136.069146, 33.861837700000024 ] } },
{ "type": "Feature", "properties": { "内容": "日下病院【訪問リハビリテーション】三重県いなべ市北勢町阿下喜680", "url": "https://www.kaigokensaku.mhlw.go.jp/24/index.php?action_kouhyou_detail_004_kani=true&JigyosyoCd=2411405034-00&ServiceCd=140&Type=search", "url2": "http://www.kusaka-hp.jp" }, "geometry": { "type": "Point", "coordinates": [ 136.517776799999979, 35.1450803 ] } },
{ "type": "Feature", "properties": { "内容": "志摩地域医療福祉センター　志摩市立前島診療所【訪問リハビリテーション】三重県志摩市志摩町和具1066", "url": "https://www.kaigokensaku.mhlw.go.jp/24/index.php?action_kouhyou_detail_004_kani=true&JigyosyoCd=2412905313-00&ServiceCd=140&Type=search", "url2": "https://sakishima.jadecom.or.jp/" }, "geometry": { "type": "Point", "coordinates": [ 136.81140640000001, 34.2568846 ] } },
{ "type": "Feature", "properties": { "内容": "志摩市介護老人保健施設志摩の里【訪問リハビリテーション】三重県志摩市志摩町片田4807-1", "url": "https://www.kaigokensaku.mhlw.go.jp/24/index.php?action_kouhyou_detail_004_kani=true&JigyosyoCd=2472900899-00&ServiceCd=140&Type=search", "url2": "https://www.jadecom.or.jp/jadecomhp/shimanosato/html/" }, "geometry": { "type": "Point", "coordinates": [ 136.832035217196676, 34.261115645255984 ] } },
{ "type": "Feature", "properties": { "内容": "訪問リハビリテーション　志摩豊和苑【訪問リハビリテーション】三重県志摩市阿児町国府1061-152", "url": "https://www.kaigokensaku.mhlw.go.jp/24/index.php?action_kouhyou_detail_004_kani=true&JigyosyoCd=2452980036-00&ServiceCd=140&Type=search", "url2": "http:houwakai.or.jp/" }, "geometry": { "type": "Point", "coordinates": [ 136.85636, 34.330785 ] } },
{ "type": "Feature", "properties": { "内容": "国民健康保険志摩市民病院【訪問リハビリテーション】三重県志摩市大王町波切１９４１番地１", "url": "https://www.kaigokensaku.mhlw.go.jp/24/index.php?action_kouhyou_detail_004_kani=true&JigyosyoCd=2412905040-00&ServiceCd=140&Type=search", "url2": "https://shimacityhospital.jp/" }, "geometry": { "type": "Point", "coordinates": [ 136.878440299999966, 34.2786892 ] } },
{ "type": "Feature", "properties": { "内容": "西岡記念セントラルクリニック【訪問リハビリテーション】三重県志摩市磯部町迫間３７５番地", "url": "https://www.kaigokensaku.mhlw.go.jp/24/index.php?action_kouhyou_detail_004_kani=true&JigyosyoCd=2412905206-00&ServiceCd=140&Type=search", "url2": "http://www.nishiokafc.com" }, "geometry": { "type": "Point", "coordinates": [ 136.8009781, 34.3729244 ] } },
{ "type": "Feature", "properties": { "内容": "志摩市立国民健康保険浜島診療所【訪問リハビリテーション】浜島町浜島3261番地1", "url": "https://www.kaigokensaku.mhlw.go.jp/24/index.php?action_kouhyou_detail_004_kani=true&JigyosyoCd=2412905149-00&ServiceCd=140&Type=search", "url2": "https://hamajima.jadecom.or.jp/" }, "geometry": { "type": "Point", "coordinates": [ 136.748783800000012, 34.2982911 ] } },
{ "type": "Feature", "properties": { "内容": "医療法人アクアクリニック伊賀訪問リハビリテーションセンター【訪問リハビリテーション】伊賀市上野丸之内１０番地の８", "url": "https://www.kaigokensaku.mhlw.go.jp/24/index.php?action_kouhyou_detail_004_kani=true&JigyosyoCd=2411205384-00&ServiceCd=140&Type=search", "url2": "http://www.myclinic.ne.jp/aqua_iga/" }, "geometry": { "type": "Point", "coordinates": [ 136.125913399999945, 34.766812 ] } },
{ "type": "Feature", "properties": { "内容": "岡波総合病院訪問リハビリテーションセンター【訪問リハビリテーション】三重県伊賀市上之庄2711番地1", "url": "https://www.kaigokensaku.mhlw.go.jp/24/index.php?action_kouhyou_detail_004_kani=true&JigyosyoCd=2411205186-00&ServiceCd=140&Type=search", "url2": "https://www.okanami.com/" }, "geometry": { "type": "Point", "coordinates": [ 136.114182852050845, 34.729894452821924 ] } },
{ "type": "Feature", "properties": { "内容": "医療法人普照会もりえい病院附属伊勢湾岸クリニック【訪問リハビリテーション】三重県桑名郡木曽岬町大字和富10番17", "url": "https://www.kaigokensaku.mhlw.go.jp/24/index.php?action_kouhyou_detail_004_kani=true&JigyosyoCd=2412005106-00&ServiceCd=140&Type=search", "url2": "http://wangansakuraclinic.jp/" }, "geometry": { "type": "Point", "coordinates": [ 136.751218200000039, 35.0668622 ] } },
{ "type": "Feature", "properties": { "内容": "医療法人　康誠会　東員病院【訪問リハビリテーション】穴太2400", "url": "https://www.kaigokensaku.mhlw.go.jp/24/index.php?action_kouhyou_detail_004_kani=true&JigyosyoCd=2412105104-00&ServiceCd=140&Type=search", "url2": "http://www.toin-hosp.jp" }, "geometry": { "type": "Point", "coordinates": [ 136.604601300000013, 35.086384 ] } },
{ "type": "Feature", "properties": { "内容": "介護老人保健施設友愛トピア　訪問リハビリテーション【訪問リハビリテーション】三重県三重郡菰野町大字宿野字神明田371", "url": "https://www.kaigokensaku.mhlw.go.jp/24/index.php?action_kouhyou_detail_004_kani=true&JigyosyoCd=2452280064-00&ServiceCd=140&Type=search", "url2": "http://www.yuuaitopia.com" }, "geometry": { "type": "Point", "coordinates": [ 136.527739400524894, 35.005958585368809 ] } },
{ "type": "Feature", "properties": { "内容": "介護老人保健施設　聖十字ハイツ　訪問リハビリテーション【訪問リハビリテーション】三重県三重郡菰野町宿野1641-10", "url": "https://www.kaigokensaku.mhlw.go.jp/24/index.php?action_kouhyou_detail_004_kani=true&JigyosyoCd=2452280023-00&ServiceCd=140&Type=search", "url2": "https://www.suzukaseijujikai.jp/seijuji.php" }, "geometry": { "type": "Point", "coordinates": [ 136.518670899999989, 35.0038327 ] } },
{ "type": "Feature", "properties": { "内容": "なごみの里　訪問リハビリテーション事業所【訪問リハビリテーション】三重県多気郡多気町古江大字東山1512-1", "url": "https://www.kaigokensaku.mhlw.go.jp/24/index.php?action_kouhyou_detail_004_kani=true&JigyosyoCd=2452780022-00&ServiceCd=140&Type=search", "url2": "http://www.pmc.or.jp/nagomi/" }, "geometry": { "type": "Point", "coordinates": [ 136.480439100000012, 34.4610221 ] } },
{ "type": "Feature", "properties": { "内容": "介護老人保健施設みずほの里【訪問リハビリテーション】三重県多気郡多気町仁田706-7", "url": "https://www.kaigokensaku.mhlw.go.jp/24/index.php?action_kouhyou_detail_004_kani=true&JigyosyoCd=2452780014-00&ServiceCd=140&Type=search", "url2": "http://www.mizuhonosato.or.jp" }, "geometry": { "type": "Point", "coordinates": [ 136.545707200000038, 34.4922008 ] } },
{ "type": "Feature", "properties": { "内容": "アコラス訪問リハビリテーション事業所【訪問リハビリテーション】三重県多気郡明和町大字南藤原字一水口751番地", "url": "https://www.kaigokensaku.mhlw.go.jp/24/index.php?action_kouhyou_detail_004_kani=true&JigyosyoCd=2452780030-00&ServiceCd=140&Type=search", "url2": "http://www.kashouen.or.jp" }, "geometry": { "type": "Point", "coordinates": [ 136.620263521009861, 34.583800634275121 ] } },
{ "type": "Feature", "properties": { "内容": "済生会明和病院訪問リハビリテーション事業所【訪問リハビリテーション】三重県多気郡明和町大字上野435番地", "url": "https://www.kaigokensaku.mhlw.go.jp/24/index.php?action_kouhyou_detail_004_kani=true&JigyosyoCd=2412705150-00&ServiceCd=140&Type=search", "url2": "http://www.meiwa-saiseikai.jp" }, "geometry": { "type": "Point", "coordinates": [ 136.631467899999961, 34.5315811 ] } },
{ "type": "Feature", "properties": { "内容": "大台厚生病院【訪問リハビリテーション】三重県多気郡大台町上三瀬663-2", "url": "https://www.kaigokensaku.mhlw.go.jp/24/index.php?action_kouhyou_detail_004_kani=true&JigyosyoCd=2412705069-00&ServiceCd=140&Type=search", "url2": "http://www.miekosei.or.jp/5_okh/index.html" }, "geometry": { "type": "Point", "coordinates": [ 136.417782100000068, 34.3975621 ] } },
{ "type": "Feature", "properties": { "内容": "訪問リハビリテーションセンターみやがわ【訪問リハビリテーション】三重県多気郡大台町江馬１１４番地", "url": "https://www.kaigokensaku.mhlw.go.jp/24/index.php?action_kouhyou_detail_004_kani=true&JigyosyoCd=2472700976-00&ServiceCd=140&Type=search", "url2": "http://www.akeai.or.jp/" }, "geometry": { "type": "Point", "coordinates": [ 136.339492381120294, 34.364200420122046 ] } },
{ "type": "Feature", "properties": { "内容": "大台町報徳診療所【訪問リハビリテーション】三重県多気郡大台町江馬１２７", "url": "https://www.kaigokensaku.mhlw.go.jp/24/index.php?action_kouhyou_detail_004_kani=true&JigyosyoCd=2412705234-00&ServiceCd=140&Type=search", "url2": "https://www.odaitown.jp/soshiki/houtokushinryosho/421.html" }, "geometry": { "type": "Point", "coordinates": [ 136.338882900000044, 34.3633843 ] } },
{ "type": "Feature", "properties": { "内容": "あゆみ診療所【訪問リハビリテーション】三重県度会郡大紀町滝原873番地", "url": "https://www.kaigokensaku.mhlw.go.jp/24/index.php?action_kouhyou_detail_004_kani=true&JigyosyoCd=2412805455-00&ServiceCd=140&Type=search", "url2": "http://www.kissoukai.com/" }, "geometry": { "type": "Point", "coordinates": [ 136.419568900000058, 34.3669353 ] } },
{ "type": "Feature", "properties": { "内容": "介護老人保健施設　輝【訪問リハビリテーション】三重県北牟婁郡紀北町東長島2482", "url": "https://www.kaigokensaku.mhlw.go.jp/24/index.php?action_kouhyou_detail_004_kani=true&JigyosyoCd=2453080026-00&ServiceCd=140&Type=search", "url2": "http://www.kaiseihp.com/kirari/index.html" }, "geometry": { "type": "Point", "coordinates": [ 136.339835200000039, 34.2082228 ] } },
{ "type": "Feature", "properties": { "内容": "介護老人保健施設きなん苑訪問リハビリテーション【訪問リハビリテーション】三重県南牟婁郡御浜町阿田和177", "url": "https://www.kaigokensaku.mhlw.go.jp/24/index.php?action_kouhyou_detail_004_kani=true&JigyosyoCd=2453180016-00&ServiceCd=140&Type=search", "url2": "http://www.kinan-hp-mie.jp" }, "geometry": { "type": "Point", "coordinates": [ 136.035325300000068, 33.8017149 ] } },
{ "type": "Feature", "properties": { "内容": "谷口クリニック【訪問リハビリテーション】三重県南牟婁郡御浜町大字阿田和６０６６", "url": "https://www.kaigokensaku.mhlw.go.jp/24/index.php?action_kouhyou_detail_004_kani=true&JigyosyoCd=2413100278-00&ServiceCd=140&Type=search", "url2": null }, "geometry": { "type": "Point", "coordinates": [ 136.047349100000019, 33.8123195 ] } },
{ "type": "Feature", "properties": { "内容": "医療法人とみむろクリニック【訪問リハビリテーション】三重県南牟婁郡紀宝町成川44-1", "url": "https://www.kaigokensaku.mhlw.go.jp/24/index.php?action_kouhyou_detail_004_kani=true&JigyosyoCd=2413105228-00&ServiceCd=140&Type=search", "url2": null }, "geometry": { "type": "Point", "coordinates": [ 136.0042493, 33.74128 ] } }
]
}
