{
"type": "FeatureCollection",
"name": "geo_24_1",
"crs": { "type": "name", "properties": { "name": "urn:ogc:def:crs:OGC:1.3:CRS84" } },
"features": [
{ "type": "Feature", "properties": { "ID": 2411240000010, "正式名称": "青木記念病院", "機関区分": 1, "都道府県コード": 24, "市区町村コード": 205, "所在地": "三重県桑名市中央町５－７", "緯度": 35.061986, "経度": 136.685797, "url": "https://www.iryou.teikyouseido.mhlw.go.jp/znk-web/juminkanja/S2430/initialize?prefCd=24&kikanCd=1240000010&kikanKbn=1", "url2": "http://www.aoki-hp.com/", "内容": "青木記念病院【1:病院】【診療科目:内科_内分泌内科_脳神経内科_呼吸器内科_循環器内科_消化器内科_外科_脳神経外科_心臓血管外科_消化器外科_乳腺・内分泌外科_整形外科_形成外科_小児科_皮膚科_泌尿器科_リウマチ科_リハビリテーション科_救急科_麻酔科】【一般病床数:106療養病床数:0精神病床数:0感染症病床数:0合計病床数:106】三重県桑名市中央町５－７" }, "geometry": { "type": "Point", "coordinates": [ 136.685797, 35.061986 ] } },
{ "type": "Feature", "properties": { "ID": 2411240000020, "正式名称": "市立伊勢総合病院", "機関区分": 1, "都道府県コード": 24, "市区町村コード": 203, "所在地": "三重県伊勢市楠部町３０３８", "緯度": 34.482909, "経度": 136.727626, "url": "https://www.iryou.teikyouseido.mhlw.go.jp/znk-web/juminkanja/S2430/initialize?prefCd=24&kikanCd=1240000020&kikanKbn=1", "url2": "https://hospital.city.ise.mie.jp/", "内容": "市立伊勢総合病院【1:病院】【診療科目:内科_脳神経内科_循環器内科_緩和ケア内科_外科_脳神経外科_消化器外科_整形外科_形成外科_小児科_婦人科_眼科_耳鼻いんこう科_皮膚科_泌尿器科_精神科_歯科口腔外科_リハビリテーション科_放射線科_麻酔科】【一般病床数:260療養病床数:40精神病床数:0感染症病床数:0合計病床数:300】三重県伊勢市楠部町３０３８" }, "geometry": { "type": "Point", "coordinates": [ 136.727626, 34.482909 ] } },
{ "type": "Feature", "properties": { "ID": 2411240000030, "正式名称": "三重県立一志病院", "機関区分": 1, "都道府県コード": 24, "市区町村コード": 201, "所在地": "三重県津市白山町南家城６１６", "緯度": 34.626053, "経度": 136.313765, "url": "https://www.iryou.teikyouseido.mhlw.go.jp/znk-web/juminkanja/S2430/initialize?prefCd=24&kikanCd=1240000030&kikanKbn=1", "url2": "http://www.pref.mie.lg.jp/IHOS/HP/", "内容": "三重県立一志病院【1:病院】【診療科目:内科_外科_整形外科_眼科】【一般病床数:46療養病床数:0精神病床数:0感染症病床数:0合計病床数:46】三重県津市白山町南家城６１６" }, "geometry": { "type": "Point", "coordinates": [ 136.313765, 34.626053 ] } },
{ "type": "Feature", "properties": { "ID": 2411240000040, "正式名称": "三重県厚生農業協同組合連合会　三重北医療センターいなべ総合病院", "機関区分": 1, "都道府県コード": 24, "市区町村コード": 214, "所在地": "三重県いなべ市北勢町阿下喜７７１", "緯度": 35.146696, "経度": 136.514252, "url": "https://www.iryou.teikyouseido.mhlw.go.jp/znk-web/juminkanja/S2430/initialize?prefCd=24&kikanCd=1240000040&kikanKbn=1", "url2": "https://www.miekosei.or.jp/4_ish/index.html", "内容": "三重県厚生農業協同組合連合会　三重北医療センターいなべ総合病院【1:病院】【診療科目:内科_脳神経内科_外科_脳神経外科_整形外科_小児科_産婦人科_眼科_耳鼻いんこう科_皮膚科_泌尿器科】【一般病床数:220療養病床数:0精神病床数:0感染症病床数:0合計病床数:220】三重県いなべ市北勢町阿下喜７７１" }, "geometry": { "type": "Point", "coordinates": [ 136.514252, 35.146696 ] } },
{ "type": "Feature", "properties": { "ID": 2411240000050, "正式名称": "医療法人　思源会　岩崎病院", "機関区分": 1, "都道府県コード": 24, "市区町村コード": 201, "所在地": "三重県津市一身田町３３３", "緯度": 34.75907, "経度": 136.50927, "url": "https://www.iryou.teikyouseido.mhlw.go.jp/znk-web/juminkanja/S2430/initialize?prefCd=24&kikanCd=1240000050&kikanKbn=1", "url2": "http://www.iwasaki-hosp.or.jp", "内容": "医療法人　思源会　岩崎病院【1:病院】【診療科目:内科_呼吸器内科_循環器内科_消化器内科_神経内科_外科_脳神経外科_整形外科_皮膚科_リハビリテーション科】【一般病床数:52療養病床数:0精神病床数:0感染症病床数:0合計病床数:52】三重県津市一身田町３３３" }, "geometry": { "type": "Point", "coordinates": [ 136.50927, 34.75907 ] } },
{ "type": "Feature", "properties": { "ID": 2411240000060, "正式名称": "伊賀市立上野総合市民病院", "機関区分": 1, "都道府県コード": 24, "市区町村コード": 216, "所在地": "三重県伊賀市四十九町８３１", "緯度": 34.745954, "経度": 136.133163, "url": "https://www.iryou.teikyouseido.mhlw.go.jp/znk-web/juminkanja/S2430/initialize?prefCd=24&kikanCd=1240000060&kikanKbn=1", "url2": "http://www.cgh-iga.jp/", "内容": "伊賀市立上野総合市民病院【1:病院】【診療科目:内科_脳神経内科_循環器内科_消化器内科_腫瘍内科_外科_脳神経外科_整形外科_小児科_婦人科_眼科_耳鼻いんこう科_皮膚科_泌尿器科_リハビリテーション科_救急科】【一般病床数:241療養病床数:40精神病床数:0感染症病床数:0合計病床数:281】三重県伊賀市四十九町８３１" }, "geometry": { "type": "Point", "coordinates": [ 136.133163, 34.745954 ] } },
{ "type": "Feature", "properties": { "ID": 2411240000080, "正式名称": "三重県厚生農業協同組合連合会　大台厚生病院", "機関区分": 1, "都道府県コード": 24, "市区町村コード": 443, "所在地": "三重県多気郡大台町上三瀬６６３－２", "緯度": 34.397663, "経度": 136.417072, "url": "https://www.iryou.teikyouseido.mhlw.go.jp/znk-web/juminkanja/S2430/initialize?prefCd=24&kikanCd=1240000080&kikanKbn=1", "url2": "http://www.miekosei.or.jp/5_okh/", "内容": "三重県厚生農業協同組合連合会　大台厚生病院【1:病院】【診療科目:内科_循環器内科_胃腸内科_脳神経外科_整形外科_形成外科_眼科_耳鼻いんこう科_皮膚科_泌尿器科】【一般病床数:57療養病床数:53精神病床数:0感染症病床数:0合計病床数:110】三重県多気郡大台町上三瀬６６３－２" }, "geometry": { "type": "Point", "coordinates": [ 136.417072, 34.397663 ] } },
{ "type": "Feature", "properties": { "ID": 2411240000110, "正式名称": "医療法人社団主体会　小山田記念温泉病院", "機関区分": 1, "都道府県コード": 24, "市区町村コード": 202, "所在地": "三重県四日市市山田町５５３８－１", "緯度": 34.944718, "経度": 136.526538, "url": "https://www.iryou.teikyouseido.mhlw.go.jp/znk-web/juminkanja/S2430/initialize?prefCd=24&kikanCd=1240000110&kikanKbn=1", "url2": "http://www.syutaikai.jp", "内容": "医療法人社団主体会　小山田記念温泉病院【1:病院】【診療科目:内科_脳神経内科_循環器内科_整形外科_眼科_耳鼻いんこう科_皮膚科_泌尿器科_歯科】【一般病床数:222療養病床数:155精神病床数:0感染症病床数:0合計病床数:377】三重県四日市市山田町５５３８－１" }, "geometry": { "type": "Point", "coordinates": [ 136.526538, 34.944718 ] } },
{ "type": "Feature", "properties": { "ID": 2411240000120, "正式名称": "尾鷲総合病院", "機関区分": 1, "都道府県コード": 24, "市区町村コード": 209, "所在地": "三重県尾鷲市上野町５－２５", "緯度": 34.069916, "経度": 136.188662, "url": "https://www.iryou.teikyouseido.mhlw.go.jp/znk-web/juminkanja/S2430/initialize?prefCd=24&kikanCd=1240000120&kikanKbn=1", "url2": "https://owasehp.jp/", "内容": "尾鷲総合病院【1:病院】【診療科目:内科_脳神経内科_循環器内科_外科_脳神経外科_整形外科_小児科_産婦人科_眼科_耳鼻いんこう科_皮膚科_泌尿器科_精神科_放射線科】【一般病床数:143療養病床数:56精神病床数:0感染症病床数:0合計病床数:199】三重県尾鷲市上野町５－２５" }, "geometry": { "type": "Point", "coordinates": [ 136.188662, 34.069916 ] } },
{ "type": "Feature", "properties": { "ID": 2411240000130, "正式名称": "社会福祉法人　恩賜財団　済生会松阪総合病院", "機関区分": 1, "都道府県コード": 24, "市区町村コード": 204, "所在地": "三重県松阪市朝日町一区１５番地６", "緯度": 34.579757, "経度": 136.537026, "url": "https://www.iryou.teikyouseido.mhlw.go.jp/znk-web/juminkanja/S2430/initialize?prefCd=24&kikanCd=1240000130&kikanKbn=1", "url2": "https://www.matsusaka.saiseikai.or.jp/", "内容": "社会福祉法人　恩賜財団　済生会松阪総合病院【1:病院】【診療科目:内科_血液内科_脳神経内科_呼吸器内科_循環器内科_消化器内科_腎臓内科_緩和ケア内科_外科_脳神経外科_消化器外科_乳腺外科_整形外科_形成外科_小児科_新生児内科_産婦人科_産婦人科（生殖医療）_眼科_耳鼻いんこう科_皮膚科_泌尿器科_精神科_歯科_歯科口腔外科_リウマチ科_リハビリテーション科_放射線科_病理診断科_臨床検査科_救急科_麻酔科】【一般病床数:380療養病床数:0精神病床数:0感染症病床数:0合計病床数:380】三重県松阪市朝日町一区１５番地６" }, "geometry": { "type": "Point", "coordinates": [ 136.537026, 34.579757 ] } },
{ "type": "Feature", "properties": { "ID": 2411240000140, "正式名称": "社会医療法人　峰和会　鈴鹿回生病院", "機関区分": 1, "都道府県コード": 24, "市区町村コード": 207, "所在地": "三重県鈴鹿市国府町１１２番地１", "緯度": 34.860448, "経度": 136.49535, "url": "https://www.iryou.teikyouseido.mhlw.go.jp/znk-web/juminkanja/S2430/initialize?prefCd=24&kikanCd=1240000140&kikanKbn=1", "url2": "http://www.kaiseihp.com", "内容": "社会医療法人　峰和会　鈴鹿回生病院【1:病院】【診療科目:内科_血液内科_循環器内科_消化器内科_腎臓内科_神経内科_外科_脳神経外科_呼吸器外科_心臓血管外科_消化器外科_整形外科_小児科_婦人科_眼科_耳鼻いんこう科_泌尿器科_精神科_リハビリテーション科_放射線科_麻酔科】【一般病床数:379療養病床数:0精神病床数:0感染症病床数:0合計病床数:379】三重県鈴鹿市国府町１１２番地１" }, "geometry": { "type": "Point", "coordinates": [ 136.49535, 34.860448 ] } },
{ "type": "Feature", "properties": { "ID": 2411240000150, "正式名称": "亀山市立医療センター", "機関区分": 1, "都道府県コード": 24, "市区町村コード": 210, "所在地": "三重県亀山市亀田町４６６－１", "緯度": 34.866752, "経度": 136.45052, "url": "https://www.iryou.teikyouseido.mhlw.go.jp/znk-web/juminkanja/S2430/initialize?prefCd=24&kikanCd=1240000150&kikanKbn=1", "url2": "http://www.city.kameyama.mie.jp/iryo/", "内容": "亀山市立医療センター【1:病院】【診療科目:内科_外科_整形外科_眼科】【一般病床数:90療養病床数:0精神病床数:0感染症病床数:0合計病床数:90】三重県亀山市亀田町４６６－１" }, "geometry": { "type": "Point", "coordinates": [ 136.45052, 34.866752 ] } },
{ "type": "Feature", "properties": { "ID": 2411240000180, "正式名称": "医療法人社団主体会　主体会病院", "機関区分": 1, "都道府県コード": 24, "市区町村コード": 202, "所在地": "三重県四日市市城北町８－１", "緯度": 34.964856, "経度": 136.610863, "url": "https://www.iryou.teikyouseido.mhlw.go.jp/znk-web/juminkanja/S2430/initialize?prefCd=24&kikanCd=1240000180&kikanKbn=1", "url2": "http://www.syutaikai.jp", "内容": "医療法人社団主体会　主体会病院【1:病院】【診療科目:内科_脳神経内科_呼吸器内科_循環器内科_消化器内科_腎臓内科_人工透析内科_外科_脳神経外科_整形外科_皮膚科_リハビリテーション科_放射線科】【一般病床数:105療養病床数:123精神病床数:0感染症病床数:0合計病床数:228】三重県四日市市城北町８－１" }, "geometry": { "type": "Point", "coordinates": [ 136.610863, 34.964856 ] } },
{ "type": "Feature", "properties": { "ID": 2411240000190, "正式名称": "紀南病院", "機関区分": 1, "都道府県コード": 24, "市区町村コード": 561, "所在地": "三重県南牟婁郡御浜町阿田和４７５０", "緯度": 33.802553, "経度": 136.038742, "url": "https://www.iryou.teikyouseido.mhlw.go.jp/znk-web/juminkanja/S2430/initialize?prefCd=24&kikanCd=1240000190&kikanKbn=1", "url2": "http://www.kinan-hp-mie.jp/", "内容": "紀南病院【1:病院】【診療科目:内科_脳神経内科_外科_脳神経外科_整形外科_小児科_産婦人科_眼科_耳鼻いんこう科_皮膚科_泌尿器科_歯科口腔外科_リハビリテーション科_放射線科】【一般病床数:200療養病床数:40精神病床数:0感染症病床数:4合計病床数:244】三重県南牟婁郡御浜町阿田和４７５０" }, "geometry": { "type": "Point", "coordinates": [ 136.038742, 33.802553 ] } },
{ "type": "Feature", "properties": { "ID": 2411240000210, "正式名称": "日下病院", "機関区分": 1, "都道府県コード": 24, "市区町村コード": 214, "所在地": "三重県いなべ市北勢町阿下喜６８０", "緯度": 35.145363, "経度": 136.517641, "url": "https://www.iryou.teikyouseido.mhlw.go.jp/znk-web/juminkanja/S2430/initialize?prefCd=24&kikanCd=1240000210&kikanKbn=1", "url2": "http://www.kusaka-hp.jp", "内容": "日下病院【1:病院】【診療科目:内科_糖尿病・代謝内科_呼吸器内科_循環器内科_消化器内科_外科_脳神経外科_大腸・肛門外科_整形外科_婦人科_眼科_耳鼻いんこう科_皮膚科_泌尿器科_リウマチ科_リハビリテーション科_放射線科】【一般病床数:106療養病床数:48精神病床数:0感染症病床数:0合計病床数:154】三重県いなべ市北勢町阿下喜６８０" }, "geometry": { "type": "Point", "coordinates": [ 136.517641, 35.145363 ] } },
{ "type": "Feature", "properties": { "ID": 2411240000230, "正式名称": "医療法人　桑名病院", "機関区分": 1, "都道府県コード": 24, "市区町村コード": 205, "所在地": "三重県桑名市京橋町３０", "緯度": 35.063208, "経度": 136.691463, "url": "https://www.iryou.teikyouseido.mhlw.go.jp/znk-web/juminkanja/S2430/initialize?prefCd=24&kikanCd=1240000230&kikanKbn=1", "url2": "http://kuwana-hosp.jp/", "内容": "医療法人　桑名病院【1:病院】【診療科目:内科_呼吸器内科_循環器内科_消化器内科_胃腸内科_外科_整形外科_小児科_耳鼻いんこう科_リハビリテーション科】【一般病床数:0療養病床数:50精神病床数:0感染症病床数:0合計病床数:50】三重県桑名市京橋町３０" }, "geometry": { "type": "Point", "coordinates": [ 136.691463, 35.063208 ] } },
{ "type": "Feature", "properties": { "ID": 2411240000240, "正式名称": "独立行政法人国立病院機構　三重中央医療センター", "機関区分": 1, "都道府県コード": 24, "市区町村コード": 201, "所在地": "三重県津市久居明神町２１５８－５", "緯度": 34.685855, "経度": 136.465083, "url": "https://www.iryou.teikyouseido.mhlw.go.jp/znk-web/juminkanja/S2430/initialize?prefCd=24&kikanCd=1240000240&kikanKbn=1", "url2": "https://miechuo.hosp.go.jp", "内容": "独立行政法人国立病院機構　三重中央医療センター【1:病院】【診療科目:糖尿病内科_呼吸器内科_循環器内科_消化器内科_腎臓内科_肝臓内科_神経内科_外科_脳神経外科_呼吸器外科_心臓血管外科_消化器外科_乳腺外科_整形外科_形成外科_小児科_産科_婦人科_眼科_耳鼻いんこう科_皮膚科_泌尿器科_精神科_歯科_歯科口腔外科_リウマチ科_リハビリテーション科_放射線科_麻酔科】【一般病床数:450療養病床数:0精神病床数:0感染症病床数:6合計病床数:486】三重県津市久居明神町２１５８－５" }, "geometry": { "type": "Point", "coordinates": [ 136.465083, 34.685855 ] } },
{ "type": "Feature", "properties": { "ID": 2411240000250, "正式名称": "独立行政法人　国立病院機構　三重病院", "機関区分": 1, "都道府県コード": 24, "市区町村コード": 201, "所在地": "三重県津市大里窪田町３５７番地", "緯度": 34.76968, "経度": 136.479522, "url": "https://www.iryou.teikyouseido.mhlw.go.jp/znk-web/juminkanja/S2430/initialize?prefCd=24&kikanCd=1240000250&kikanKbn=1", "url2": "https://mie.hosp.go.jp/", "内容": "独立行政法人　国立病院機構　三重病院【1:病院】【診療科目:内科_脳神経内科_呼吸器内科_整形外科_小児科_小児外科_眼科_耳鼻いんこう科_心療内科_歯科口腔外科_アレルギー科_リハビリテーション科】【一般病床数:258療養病床数:0精神病床数:0感染症病床数:2合計病床数:260】三重県津市大里窪田町３５７番地" }, "geometry": { "type": "Point", "coordinates": [ 136.479522, 34.76968 ] } },
{ "type": "Feature", "properties": { "ID": 2411240000260, "正式名称": "三重県厚生農業協同組合連合会三重北医療センター　菰野厚生病院", "機関区分": 1, "都道府県コード": 24, "市区町村コード": 341, "所在地": "三重県三重郡菰野町福村７５", "緯度": 35.008711, "経度": 136.520786, "url": "https://www.iryou.teikyouseido.mhlw.go.jp/znk-web/juminkanja/S2430/initialize?prefCd=24&kikanCd=1240000260&kikanKbn=1", "url2": "http://www.miekosei.or.jp/3_kkh/", "内容": "三重県厚生農業協同組合連合会三重北医療センター　菰野厚生病院【1:病院】【診療科目:内科_脳神経内科_呼吸器内科_循環器内科_消化器内科_外科_脳神経外科_血管外科_肛門外科_整形外科_婦人科_眼科_耳鼻いんこう科_皮膚科_泌尿器科_リハビリテーション科_放射線科】【一般病床数:146療養病床数:84精神病床数:0感染症病床数:0合計病床数:230】三重県三重郡菰野町福村７５" }, "geometry": { "type": "Point", "coordinates": [ 136.520786, 35.008711 ] } },
{ "type": "Feature", "properties": { "ID": 2411240000270, "正式名称": "榊原温泉病院", "機関区分": 1, "都道府県コード": 24, "市区町村コード": 201, "所在地": "三重県津市榊原町１０３３－４", "緯度": 34.70238, "経度": 136.3837, "url": "https://www.iryou.teikyouseido.mhlw.go.jp/znk-web/juminkanja/S2430/initialize?prefCd=24&kikanCd=1240000270&kikanKbn=1", "url2": "http://www.sakaki-hosp.jp/", "内容": "榊原温泉病院【1:病院】【診療科目:内科_脳神経内科_泌尿器科】【一般病床数:49療養病床数:150精神病床数:0感染症病床数:0合計病床数:199】三重県津市榊原町１０３３－４" }, "geometry": { "type": "Point", "coordinates": [ 136.3837, 34.70238 ] } },
{ "type": "Feature", "properties": { "ID": 2411240000300, "正式名称": "医療法人　誠仁会　塩川病院", "機関区分": 1, "都道府県コード": 24, "市区町村コード": 207, "所在地": "三重県鈴鹿市平田１－３－７", "緯度": 34.874503, "経度": 136.539457, "url": "https://www.iryou.teikyouseido.mhlw.go.jp/znk-web/juminkanja/S2430/initialize?prefCd=24&kikanCd=1240000300&kikanKbn=1", "url2": "http://www.shiokawa-hp.jp", "内容": "医療法人　誠仁会　塩川病院【1:病院】【診療科目:内科_消化器内科_脳神経外科_整形外科_皮膚科】【一般病床数:62療養病床数:0精神病床数:0感染症病床数:0合計病床数:57】三重県鈴鹿市平田１－３－７" }, "geometry": { "type": "Point", "coordinates": [ 136.539457, 34.874503 ] } },
{ "type": "Feature", "properties": { "ID": 2411240000320, "正式名称": "市立四日市病院", "機関区分": 1, "都道府県コード": 24, "市区町村コード": 202, "所在地": "三重県四日市市芝田２－２－３７", "緯度": 34.971938, "経度": 136.607836, "url": "https://www.iryou.teikyouseido.mhlw.go.jp/znk-web/juminkanja/S2430/initialize?prefCd=24&kikanCd=1240000320&kikanKbn=1", "url2": "http://www.city.yokkaichi.mie.jp/hospital/", "内容": "市立四日市病院【1:病院】【診療科目:内科_血液内科_糖尿病・内分泌内科_脳神経内科_呼吸器内科_循環器内科_消化器内科_腎臓内科_外科_脳神経外科_呼吸器外科_心臓血管外科_消化器外科_乳腺外科_整形外科_形成外科_小児科_産婦人科_眼科_耳鼻いんこう科_皮膚科_泌尿器科_精神科_歯科口腔外科_リハビリテーション科_放射線科_病理診断科_麻酔科】【一般病床数:535療養病床数:0精神病床数:0感染症病床数:2合計病床数:537】三重県四日市市芝田２－２－３７" }, "geometry": { "type": "Point", "coordinates": [ 136.607836, 34.971938 ] } },
{ "type": "Feature", "properties": { "ID": 2411240000330, "正式名称": "三重県厚生農業協同組合連合会　鈴鹿中央総合病院", "機関区分": 1, "都道府県コード": 24, "市区町村コード": 207, "所在地": "三重県鈴鹿市安塚町山之花１２７５－５３", "緯度": 34.865859, "経度": 136.569953, "url": "https://www.iryou.teikyouseido.mhlw.go.jp/znk-web/juminkanja/S2430/initialize?prefCd=24&kikanCd=1240000330&kikanKbn=1", "url2": "http://www.miekosei.or.jp/2_sch/", "内容": "三重県厚生農業協同組合連合会　鈴鹿中央総合病院【1:病院】【診療科目:内科_血液・腫瘍内科_呼吸器内科_循環器内科_消化器内科_腎臓内科_神経内科_緩和ケア内科_腫瘍内科_外科_脳神経外科_呼吸器外科_心臓血管外科_消化器外科_整形外科_小児科_産婦人科_眼科_耳鼻いんこう科_皮膚科_泌尿器科_精神科_リウマチ科_リハビリテーション科_放射線科_放射線治療科_病理診断科_麻酔科】【一般病床数:460療養病床数:0精神病床数:0感染症病床数:0合計病床数:460】三重県鈴鹿市安塚町山之花１２７５－５３" }, "geometry": { "type": "Point", "coordinates": [ 136.569953, 34.865859 ] } },
{ "type": "Feature", "properties": { "ID": 2411240000340, "正式名称": "国民健康保険志摩市民病院", "機関区分": 1, "都道府県コード": 24, "市区町村コード": 215, "所在地": "三重県志摩市大王町波切１９４１－１", "緯度": 34.278656, "経度": 136.878039, "url": "https://www.iryou.teikyouseido.mhlw.go.jp/znk-web/juminkanja/S2430/initialize?prefCd=24&kikanCd=1240000340&kikanKbn=1", "url2": "https://shimacityhospital.jp", "内容": "国民健康保険志摩市民病院【1:病院】【診療科目:内科_循環器内科_消化器内科_外科_整形外科_皮膚科_リハビリテーション科】【一般病床数:17療養病床数:60精神病床数:0感染症病床数:0合計病床数:77】三重県志摩市大王町波切１９４１－１" }, "geometry": { "type": "Point", "coordinates": [ 136.878039, 34.278656 ] } },
{ "type": "Feature", "properties": { "ID": 2411240000360, "正式名称": "医療法人社団　雄飛会　大門病院", "機関区分": 1, "都道府県コード": 24, "市区町村コード": 201, "所在地": "三重県津市大門１－３", "緯度": 34.717353, "経度": 136.514549, "url": "https://www.iryou.teikyouseido.mhlw.go.jp/znk-web/juminkanja/S2430/initialize?prefCd=24&kikanCd=1240000360&kikanKbn=1", "url2": "http://daimon-hp.sakura.ne.jp/", "内容": "医療法人社団　雄飛会　大門病院【1:病院】【診療科目:内科_外科_脳神経外科_整形外科_リハビリテーション科_麻酔科】【一般病床数:82療養病床数:24精神病床数:0感染症病床数:0合計病床数:106】三重県津市大門１－３" }, "geometry": { "type": "Point", "coordinates": [ 136.514549, 34.717353 ] } },
{ "type": "Feature", "properties": { "ID": 2411240000370, "正式名称": "高木病院", "機関区分": 1, "都道府県コード": 24, "市区町村コード": 207, "所在地": "三重県鈴鹿市高岡町５５０", "緯度": 34.897752, "経度": 136.594368, "url": "https://www.iryou.teikyouseido.mhlw.go.jp/znk-web/juminkanja/S2430/initialize?prefCd=24&kikanCd=1240000370&kikanKbn=1", "url2": "http://takagihp.jp/", "内容": "高木病院【1:病院】【診療科目:内科_消化器内科_外科_肛門外科_皮膚科_リハビリテーション科】【一般病床数:0療養病床数:79精神病床数:0感染症病床数:0合計病床数:79】三重県鈴鹿市高岡町５５０" }, "geometry": { "type": "Point", "coordinates": [ 136.594368, 34.897752 ] } },
{ "type": "Feature", "properties": { "ID": 2411240000400, "正式名称": "医療法人　同心会　遠山病院", "機関区分": 1, "都道府県コード": 24, "市区町村コード": 201, "所在地": "三重県津市南新町１７－２２", "緯度": 34.714075, "経度": 136.498412, "url": "https://www.iryou.teikyouseido.mhlw.go.jp/znk-web/juminkanja/S2430/initialize?prefCd=24&kikanCd=1240000400&kikanKbn=1", "url2": "http://www.toyama-hp.jp/", "内容": "医療法人　同心会　遠山病院【1:病院】【診療科目:内科_血液内科_糖尿病・代謝内科_呼吸器内科_循環器内科_消化器内科_腎臓内科_腫瘍内科_外科_消化器外科_乳腺外科_大腸・肛門外科_放射線科_麻酔科】【一般病床数:160療養病床数:0精神病床数:0感染症病床数:0合計病床数:160】三重県津市南新町１７－２２" }, "geometry": { "type": "Point", "coordinates": [ 136.498412, 34.714075 ] } },
{ "type": "Feature", "properties": { "ID": 2411240000410, "正式名称": "医療法人　富田浜病院", "機関区分": 1, "都道府県コード": 24, "市区町村コード": 202, "所在地": "三重県四日市市富田浜町２６－１４", "緯度": 34.998158, "経度": 136.651831, "url": "https://www.iryou.teikyouseido.mhlw.go.jp/znk-web/juminkanja/S2430/initialize?prefCd=24&kikanCd=1240000410&kikanKbn=1", "url2": "http://www.tomidahama.jp", "内容": "医療法人　富田浜病院【1:病院】【診療科目:内科_脳神経内科_消化器内科_外科_脳神経外科_乳腺外科_整形外科_リウマチ科_リハビリテーション科_放射線科_麻酔科_循環器科、呼吸器科】【一般病床数:47療養病床数:106精神病床数:0感染症病床数:0合計病床数:153】三重県四日市市富田浜町２６－１４" }, "geometry": { "type": "Point", "coordinates": [ 136.651831, 34.998158 ] } },
{ "type": "Feature", "properties": { "ID": 2411240000420, "正式名称": "医療法人　永井病院", "機関区分": 1, "都道府県コード": 24, "市区町村コード": 201, "所在地": "三重県津市西丸之内２９－２９", "緯度": 34.719047, "経度": 136.501439, "url": "https://www.iryou.teikyouseido.mhlw.go.jp/znk-web/juminkanja/S2430/initialize?prefCd=24&kikanCd=1240000420&kikanKbn=1", "url2": "http://www.nagai-hp.or.jp/", "内容": "医療法人　永井病院【1:病院】【診療科目:内科_呼吸器内科_循環器内科_消化器内科_腎臓内科_神経内科_外科_心臓血管外科_消化器外科_乳腺外科_整形外科_形成外科_婦人科_泌尿器科_リハビリテーション科_放射線科_救急科_麻酔科】【一般病床数:184療養病床数:15精神病床数:0感染症病床数:0合計病床数:199】三重県津市西丸之内２９－２９" }, "geometry": { "type": "Point", "coordinates": [ 136.501439, 34.719047 ] } },
{ "type": "Feature", "properties": { "ID": 2411240000430, "正式名称": "社会医療法人峰和会　長島回生病院", "機関区分": 1, "都道府県コード": 24, "市区町村コード": 543, "所在地": "三重県北牟婁郡紀北町東長島２", "緯度": 34.208126, "経度": 136.338226, "url": "https://www.iryou.teikyouseido.mhlw.go.jp/znk-web/juminkanja/S2430/initialize?prefCd=24&kikanCd=1240000430&kikanKbn=1", "url2": "http://www.kaiseihp.com/1_nagashima/", "内容": "社会医療法人峰和会　長島回生病院【1:病院】【診療科目:内科】【一般病床数:27療養病床数:47精神病床数:0感染症病床数:0合計病床数:74】三重県北牟婁郡紀北町東長島２" }, "geometry": { "type": "Point", "coordinates": [ 136.338226, 34.208126 ] } },
{ "type": "Feature", "properties": { "ID": 2411240000500, "正式名称": "松阪市民病院", "機関区分": 1, "都道府県コード": 24, "市区町村コード": 204, "所在地": "三重県松阪市殿町１５５０", "緯度": 34.577785, "経度": 136.525749, "url": "https://www.iryou.teikyouseido.mhlw.go.jp/znk-web/juminkanja/S2430/initialize?prefCd=24&kikanCd=1240000500&kikanKbn=1", "url2": "http://www.city.matsusaka.mie.jp/site/hosannai/", "内容": "松阪市民病院【1:病院】【診療科目:内科_呼吸器内科_循環器内科_消化器内科_神経内科_外科_脳神経外科_呼吸器外科_消化器外科_整形外科_形成外科_小児科_産婦人科_眼科_耳鼻いんこう科_皮膚科_泌尿器科_精神科_歯科口腔外科_リウマチ科_リハビリテーション科_放射線科_病理診断科_救急科_麻酔科】【一般病床数:326療養病床数:0精神病床数:0感染症病床数:2合計病床数:328】三重県松阪市殿町１５５０" }, "geometry": { "type": "Point", "coordinates": [ 136.525749, 34.577785 ] } },
{ "type": "Feature", "properties": { "ID": 2411240000510, "正式名称": "三重県厚生農業協同組合連合会　松阪中央総合病院", "機関区分": 1, "都道府県コード": 24, "市区町村コード": 204, "所在地": "三重県松阪市川井町字小望１０２", "緯度": 34.582506, "経度": 136.511445, "url": "https://www.iryou.teikyouseido.mhlw.go.jp/znk-web/juminkanja/S2430/initialize?prefCd=24&kikanCd=1240000510&kikanKbn=1", "url2": "https://www.miekosei.or.jp/1_mch/index.html", "内容": "三重県厚生農業協同組合連合会　松阪中央総合病院【1:病院】【診療科目:内科_血液内科_脳神経内科_呼吸器内科_循環器内科_消化器内科_外科_脳神経外科_心臓血管外科_胸部外科_整形外科_小児科_産婦人科_眼科_耳鼻いんこう科_皮膚科_泌尿器科_精神科_リハビリテーション科_放射線治療科_病理診断科_救急科_麻酔科】【一般病床数:440療養病床数:0精神病床数:0感染症病床数:0合計病床数:440】三重県松阪市川井町字小望１０２" }, "geometry": { "type": "Point", "coordinates": [ 136.511445, 34.582506 ] } },
{ "type": "Feature", "properties": { "ID": 2411240000530, "正式名称": "三重県立志摩病院", "機関区分": 1, "都道府県コード": 24, "市区町村コード": 215, "所在地": "三重県志摩市阿児町鵜方１２５７", "緯度": 34.335093, "経度": 136.819653, "url": "https://www.iryou.teikyouseido.mhlw.go.jp/znk-web/juminkanja/S2430/initialize?prefCd=24&kikanCd=1240000530&kikanKbn=1", "url2": "http://kenritsushima.jadecom.or.jp/", "内容": "三重県立志摩病院【1:病院】【診療科目:内科_脳神経内科_循環器内科_漢方内科_外科_脳神経外科_整形外科_形成外科_小児科_産婦人科_眼科_耳鼻いんこう科_皮膚科_泌尿器科_精神科_放射線科】【一般病床数:236療養病床数:0精神病床数:100感染症病床数:0合計病床数:336】三重県志摩市阿児町鵜方１２５７" }, "geometry": { "type": "Point", "coordinates": [ 136.819653, 34.335093 ] } },
{ "type": "Feature", "properties": { "ID": 2411240000540, "正式名称": "三重県立総合医療センター", "機関区分": 1, "都道府県コード": 24, "市区町村コード": 202, "所在地": "三重県四日市市大字日永５４５０－１３２", "緯度": 34.943219, "経度": 136.589699, "url": "https://www.iryou.teikyouseido.mhlw.go.jp/znk-web/juminkanja/S2430/initialize?prefCd=24&kikanCd=1240000540&kikanKbn=1", "url2": "https://www.mie-gmc.jp/", "内容": "三重県立総合医療センター【1:病院】【診療科目:内科_感染症内科_血液内科_糖尿病・内分泌内科_脳神経内科_呼吸器内科_循環器内科_消化器内科_腎臓内科_疼痛緩和内科_外科_脳神経外科_脳外科_脳・血管外科_呼吸器外科_心臓血管外科_消化器外科_乳腺外科_整形外科_形成外科_小児科_小児外科_産婦人科_眼科_耳鼻いんこう科_皮膚科_泌尿器科_精神科_放射線診断科_放射線治療科_病理診断科_救急科_麻酔科】【一般病床数:409療養病床数:0精神病床数:0感染症病床数:4合計病床数:413】三重県四日市市大字日永５４５０－１３２" }, "geometry": { "type": "Point", "coordinates": [ 136.589699, 34.943219 ] } },
{ "type": "Feature", "properties": { "ID": 2411240000550, "正式名称": "国立大学法人　三重大学医学部附属病院", "機関区分": 1, "都道府県コード": 24, "市区町村コード": 201, "所在地": "三重県津市江戸橋２－１７４", "緯度": 34.742684, "経度": 136.521798, "url": "https://www.iryou.teikyouseido.mhlw.go.jp/znk-web/juminkanja/S2430/initialize?prefCd=24&kikanCd=1240000550&kikanKbn=1", "url2": "https://www.hosp.mie-u.ac.jp", "内容": "国立大学法人　三重大学医学部附属病院【1:病院】【診療科目:内科_感染症内科_血液内科_糖尿病・内分泌内科_脳神経内科_呼吸器内科_循環器内科_消化器内科_腎臓内科_腫瘍内科_漢方内科_緩和ケア内科_外科_脳神経外科_呼吸器外科_心臓血管外科_消化器外科_乳腺外科_移植外科_整形外科_形成外科_小児科_小児外科_産婦人科_眼科_頭頸部・耳鼻いんこう科_皮膚科_腎臓・泌尿器科_精神科_歯科口腔外科_リウマチ科_リハビリテーション科_放射線科_病理診断科_救急科_麻酔科】【一般病床数:655療養病床数:0精神病床数:30感染症病床数:0合計病床数:685】三重県津市江戸橋２－１７４" }, "geometry": { "type": "Point", "coordinates": [ 136.521798, 34.742684 ] } },
{ "type": "Feature", "properties": { "ID": 2411240000560, "正式名称": "村瀬病院", "機関区分": 1, "都道府県コード": 24, "市区町村コード": 207, "所在地": "三重県鈴鹿市神戸３－１２－１０", "緯度": 34.878448, "経度": 136.584147, "url": "https://www.iryou.teikyouseido.mhlw.go.jp/znk-web/juminkanja/S2430/initialize?prefCd=24&kikanCd=1240000560&kikanKbn=1", "url2": "https://www.murase.or.jp", "内容": "村瀬病院【1:病院】【診療科目:内科_糖尿病内科_脳神経内科_呼吸器内科_循環器内科_消化器内科_腎臓内科_ペインクリニック内科_外科_整形外科_皮膚科_泌尿器科_リハビリテーション科_放射線科_麻酔科】【一般病床数:60療養病床数:160精神病床数:0感染症病床数:0合計病床数:220】三重県鈴鹿市神戸３－１２－１０" }, "geometry": { "type": "Point", "coordinates": [ 136.584147, 34.878448 ] } },
{ "type": "Feature", "properties": { "ID": 2411240000570, "正式名称": "医療法人　普照会　もりえい病院", "機関区分": 1, "都道府県コード": 24, "市区町村コード": 205, "所在地": "三重県桑名市内堀２８－１", "緯度": 35.062541, "経度": 136.69363, "url": "https://www.iryou.teikyouseido.mhlw.go.jp/znk-web/juminkanja/S2430/initialize?prefCd=24&kikanCd=1240000570&kikanKbn=1", "url2": "http://www.moriei.jp", "内容": "医療法人　普照会　もりえい病院【1:病院】【診療科目:内科_循環器内科_消化器内科_外科_気管食道外科_血管外科_消化器外科_肛門外科_整形外科_緩和ケア外科_小児科_婦人科_皮膚科_心療内科_歯科_矯正歯科_歯科口腔外科_小児歯科_アレルギー科_リハビリテーション科_放射線科_麻酔科】【一般病床数:58療養病床数:0精神病床数:0感染症病床数:0合計病床数:58】三重県桑名市内堀２８－１" }, "geometry": { "type": "Point", "coordinates": [ 136.69363, 35.062541 ] } },
{ "type": "Feature", "properties": { "ID": 2411240000580, "正式名称": "医療法人　森川病院", "機関区分": 1, "都道府県コード": 24, "市区町村コード": 216, "所在地": "三重県伊賀市上野忍町２５１６－７", "緯度": 34.763647, "経度": 136.130607, "url": "https://www.iryou.teikyouseido.mhlw.go.jp/znk-web/juminkanja/S2430/initialize?prefCd=24&kikanCd=1240000580&kikanKbn=1", "url2": "http://www.morikawa-wh.jp/", "内容": "医療法人　森川病院【1:病院】【診療科目:内科_整形外科_小児科_産科_婦人科】【一般病床数:52療養病床数:0精神病床数:0感染症病床数:0合計病床数:52】三重県伊賀市上野忍町２５１６－７" }, "geometry": { "type": "Point", "coordinates": [ 136.130607, 34.763647 ] } },
{ "type": "Feature", "properties": { "ID": 2411240000590, "正式名称": "医療法人　誠会　山崎病院", "機関区分": 1, "都道府県コード": 24, "市区町村コード": 205, "所在地": "三重県桑名市江場１３６５", "緯度": 35.055847, "経度": 136.686603, "url": "https://www.iryou.teikyouseido.mhlw.go.jp/znk-web/juminkanja/S2430/initialize?prefCd=24&kikanCd=1240000590&kikanKbn=1", "url2": null, "内容": "医療法人　誠会　山崎病院【1:病院】【診療科目:内科_消化器内科_外科_整形外科_泌尿器科_リハビリテーション科】【一般病床数:0療養病床数:48精神病床数:0感染症病床数:0合計病床数:48】三重県桑名市江場１３６５" }, "geometry": { "type": "Point", "coordinates": [ 136.686603, 35.055847 ] } },
{ "type": "Feature", "properties": { "ID": 2411240000610, "正式名称": "医療法人社団　山中胃腸科病院", "機関区分": 1, "都道府県コード": 24, "市区町村コード": 202, "所在地": "三重県四日市市小古曽３－５－３３", "緯度": 34.926221, "経度": 136.587089, "url": "https://www.iryou.teikyouseido.mhlw.go.jp/znk-web/juminkanja/S2430/initialize?prefCd=24&kikanCd=1240000610&kikanKbn=1", "url2": "http://www.yamanaka-hsp.or.jp/index.php", "内容": "医療法人社団　山中胃腸科病院【1:病院】【診療科目:内科_循環器内科_消化器内科_漢方内科_外科_消化器外科_整形外科_眼科_泌尿器科_リハビリテーション科_放射線科_臨床検査科】【一般病床数:48療養病床数:45精神病床数:0感染症病床数:0合計病床数:93】三重県四日市市小古曽３－５－３３" }, "geometry": { "type": "Point", "coordinates": [ 136.587089, 34.926221 ] } },
{ "type": "Feature", "properties": { "ID": 2411240000620, "正式名称": "桑名市総合医療センター", "機関区分": 1, "都道府県コード": 24, "市区町村コード": 205, "所在地": "三重県桑名市寿町３－１１", "緯度": 35.065291, "経度": 136.68688, "url": "https://www.iryou.teikyouseido.mhlw.go.jp/znk-web/juminkanja/S2430/initialize?prefCd=24&kikanCd=1240000620&kikanKbn=1", "url2": "https://www.kuwanacmc.or.jp", "内容": "桑名市総合医療センター【1:病院】【診療科目:内科_血液内科_糖尿病・内分泌内科_脳神経内科_呼吸器内科_循環器内科_消化器内科_腎臓内科_肝臓内科_膠原病リウマチ内科_外科_脳神経外科_呼吸器外科_心臓血管外科_消化器外科_乳腺外科_整形外科_形成外科_小児科_産婦人科_眼科_耳鼻いんこう科_皮膚科_泌尿器科_精神科_歯科口腔外科_リウマチ科_リハビリテーション科_放射線科_病理診断科_救急科_麻酔科_総合診療科】【一般病床数:400療養病床数:0精神病床数:0感染症病床数:0合計病床数:400】三重県桑名市寿町３－１１" }, "geometry": { "type": "Point", "coordinates": [ 136.68688, 35.065291 ] } },
{ "type": "Feature", "properties": { "ID": 2411240000630, "正式名称": "医療法人　吉田クリニック", "機関区分": 1, "都道府県コード": 24, "市区町村コード": 201, "所在地": "三重県津市栗真中山町下沢７９－５", "緯度": 34.757543, "経度": 136.524047, "url": "https://www.iryou.teikyouseido.mhlw.go.jp/znk-web/juminkanja/S2430/initialize?prefCd=24&kikanCd=1240000630&kikanKbn=1", "url2": "https://yoshida-clinic.or.jp", "内容": "医療法人　吉田クリニック【1:病院】【診療科目:内科_呼吸器内科_循環器内科_胃腸内科_神経内科_外科_肛門外科_整形外科_小児科_リハビリテーション科】【一般病床数:35療養病床数:45精神病床数:0感染症病床数:0合計病床数:80】三重県津市栗真中山町下沢７９－５" }, "geometry": { "type": "Point", "coordinates": [ 136.524047, 34.757543 ] } },
{ "type": "Feature", "properties": { "ID": 2411240000640, "正式名称": "独立行政法人　地域医療機能推進機構　四日市羽津医療センター", "機関区分": 1, "都道府県コード": 24, "市区町村コード": 202, "所在地": "三重県四日市市羽津山町１０－８", "緯度": 34.989381, "経度": 136.626417, "url": "https://www.iryou.teikyouseido.mhlw.go.jp/znk-web/juminkanja/S2430/initialize?prefCd=24&kikanCd=1240000640&kikanKbn=1", "url2": "http://yokkaichi.jcho.go.jp/", "内容": "独立行政法人　地域医療機能推進機構　四日市羽津医療センター【1:病院】【診療科目:内科_糖尿病・内分泌内科_代謝・内分泌内科_脳神経内科_呼吸器内科_循環器内科_消化器内科_腎臓内科_外科_乳腺外科_整形外科_小児科_婦人科_眼科_耳鼻いんこう科_皮膚科_泌尿器科_精神科_リウマチ科_放射線科_病理診断科_麻酔科_緩和ケア科】【一般病床数:226療養病床数:0精神病床数:0感染症病床数:0合計病床数:226】三重県四日市市羽津山町１０－８" }, "geometry": { "type": "Point", "coordinates": [ 136.626417, 34.989381 ] } },
{ "type": "Feature", "properties": { "ID": 2411240000670, "正式名称": "医療法人　石田会　石田胃腸科病院", "機関区分": 1, "都道府県コード": 24, "市区町村コード": 202, "所在地": "三重県四日市市朝日町１－１５", "緯度": 34.962801, "経度": 136.627251, "url": "https://www.iryou.teikyouseido.mhlw.go.jp/znk-web/juminkanja/S2430/initialize?prefCd=24&kikanCd=1240000670&kikanKbn=1", "url2": "http://www.myclinic.ne.jp/ishida_i/", "内容": "医療法人　石田会　石田胃腸科病院【1:病院】【診療科目:内科_消化器内科_胃腸内科_外科_肛門外科】【一般病床数:38療養病床数:0精神病床数:0感染症病床数:0合計病床数:38】三重県四日市市朝日町１－１５" }, "geometry": { "type": "Point", "coordinates": [ 136.627251, 34.962801 ] } },
{ "type": "Feature", "properties": { "ID": 2411240000680, "正式名称": "医療法人（社団）　寺田病院", "機関区分": 1, "都道府県コード": 24, "市区町村コード": 208, "所在地": "三重県名張市夏見３２６０番地１", "緯度": 34.619689, "経度": 136.105949, "url": "https://www.iryou.teikyouseido.mhlw.go.jp/znk-web/juminkanja/S2430/initialize?prefCd=24&kikanCd=1240000680&kikanKbn=1", "url2": "http://www.terada-hp.or.jp", "内容": "医療法人（社団）　寺田病院【1:病院】【診療科目:内科_循環器内科_消化器内科_外科_消化器外科_乳腺外科_肛門外科_整形外科_泌尿器科_リウマチ科_リハビリテーション科】【一般病床数:55療養病床数:40精神病床数:0感染症病床数:0合計病床数:95】三重県名張市夏見３２６０番地１" }, "geometry": { "type": "Point", "coordinates": [ 136.105949, 34.619689 ] } },
{ "type": "Feature", "properties": { "ID": 2411240000690, "正式名称": "医療法人　凰林会　榊原白鳳病院", "機関区分": 1, "都道府県コード": 24, "市区町村コード": 201, "所在地": "三重県津市榊原町５６３０", "緯度": 34.701269, "経度": 136.368923, "url": "https://www.iryou.teikyouseido.mhlw.go.jp/znk-web/juminkanja/S2430/initialize?prefCd=24&kikanCd=1240000690&kikanKbn=1", "url2": "http://www.ohrin-mc.jp/hakuho", "内容": "医療法人　凰林会　榊原白鳳病院【1:病院】【診療科目:内科_脳神経内科_循環器内科_外科_整形外科_歯科_リウマチ科】【一般病床数:48療養病床数:151精神病床数:0感染症病床数:0合計病床数:199】三重県津市榊原町５６３０" }, "geometry": { "type": "Point", "coordinates": [ 136.368923, 34.701269 ] } },
{ "type": "Feature", "properties": { "ID": 2411240000720, "正式名称": "医療法人　桜木記念病院", "機関区分": 1, "都道府県コード": 24, "市区町村コード": 204, "所在地": "三重県松阪市南町４４３－４", "緯度": 34.56673, "経度": 136.534999, "url": "https://www.iryou.teikyouseido.mhlw.go.jp/znk-web/juminkanja/S2430/initialize?prefCd=24&kikanCd=1240000720&kikanKbn=1", "url2": "http://www.sakuragi-hp.com/", "内容": "医療法人　桜木記念病院【1:病院】【診療科目:内科_呼吸器内科_循環器内科_胃腸内科_小児科_皮膚科_リハビリテーション科】【一般病床数:0療養病床数:60精神病床数:0感染症病床数:0合計病床数:60】三重県松阪市南町４４３－４" }, "geometry": { "type": "Point", "coordinates": [ 136.534999, 34.56673 ] } },
{ "type": "Feature", "properties": { "ID": 2411240000740, "正式名称": "第一病院", "機関区分": 1, "都道府県コード": 24, "市区町村コード": 543, "所在地": "三重県北牟婁郡紀北町上里２２５－８", "緯度": 34.143326, "経度": 136.234432, "url": "https://www.iryou.teikyouseido.mhlw.go.jp/znk-web/juminkanja/S2430/initialize?prefCd=24&kikanCd=1240000740&kikanKbn=1", "url2": "https://www.daiichi-hp.mie.jp/", "内容": "第一病院【1:病院】【診療科目:内科_外科_整形外科_リハビリテーション科】【一般病床数:0療養病床数:190精神病床数:0感染症病床数:0合計病床数:190】三重県北牟婁郡紀北町上里２２５－８" }, "geometry": { "type": "Point", "coordinates": [ 136.234432, 34.143326 ] } },
{ "type": "Feature", "properties": { "ID": 2411240000750, "正式名称": "玉城町国民健康保険　玉城病院", "機関区分": 1, "都道府県コード": 24, "市区町村コード": 461, "所在地": "三重県度会郡玉城町佐田８８１", "緯度": 34.489546, "経度": 136.639411, "url": "https://www.iryou.teikyouseido.mhlw.go.jp/znk-web/juminkanja/S2430/initialize?prefCd=24&kikanCd=1240000750&kikanKbn=1", "url2": "http://www.amigo2.ne.jp/~tamakihp/index.htm", "内容": "玉城町国民健康保険　玉城病院【1:病院】【診療科目:内科_外科_整形外科_眼科_皮膚科_リハビリテーション科_麻酔科】【一般病床数:0療養病床数:50精神病床数:0感染症病床数:0合計病床数:50】三重県度会郡玉城町佐田８８１" }, "geometry": { "type": "Point", "coordinates": [ 136.639411, 34.489546 ] } },
{ "type": "Feature", "properties": { "ID": 2411240000770, "正式名称": "藤田医科大学七栗記念病院", "機関区分": 1, "都道府県コード": 24, "市区町村コード": 201, "所在地": "三重県津市大鳥町４２４番地の－１", "緯度": 34.687298, "経度": 136.394866, "url": "https://www.iryou.teikyouseido.mhlw.go.jp/znk-web/juminkanja/S2430/initialize?prefCd=24&kikanCd=1240000770&kikanKbn=1", "url2": "https://nanakuri.fujita-hu.ac.jp", "内容": "藤田医科大学七栗記念病院【1:病院】【診療科目:内科_緩和ケア外科_歯科_リハビリテーション科】【一般病床数:177療養病床数:41精神病床数:0感染症病床数:0合計病床数:218】三重県津市大鳥町４２４番地の－１" }, "geometry": { "type": "Point", "coordinates": [ 136.394866, 34.687298 ] } },
{ "type": "Feature", "properties": { "ID": 2411240000780, "正式名称": "松阪厚生病院", "機関区分": 1, "都道府県コード": 24, "市区町村コード": 204, "所在地": "三重県松阪市久保町１９２７－２", "緯度": 34.538455, "経度": 136.527279, "url": "https://www.iryou.teikyouseido.mhlw.go.jp/znk-web/juminkanja/S2430/initialize?prefCd=24&kikanCd=1240000780&kikanKbn=1", "url2": "http://www.matsusaka-kousei.com", "内容": "松阪厚生病院【1:病院】【診療科目:内科_糖尿病内科_呼吸器内科_循環器内科_消化器内科_腎臓内科_人工透析内科_ペインクリニック内科_外科_整形外科_眼科_皮膚科_精神科_心療内科_歯科_リハビリテーション科】【一般病床数:75療養病床数:115精神病床数:590感染症病床数:0合計病床数:780】三重県松阪市久保町１９２７－２" }, "geometry": { "type": "Point", "coordinates": [ 136.527279, 34.538455 ] } },
{ "type": "Feature", "properties": { "ID": 2411240000790, "正式名称": "医療法人　尚豊会　みたき総合病院", "機関区分": 1, "都道府県コード": 24, "市区町村コード": 202, "所在地": "三重県四日市市生桑町菰池４５８－１", "緯度": 34.980076, "経度": 136.603502, "url": "https://www.iryou.teikyouseido.mhlw.go.jp/znk-web/juminkanja/S2430/initialize?prefCd=24&kikanCd=1240000790&kikanKbn=1", "url2": "https://mitaki.or.jp/", "内容": "医療法人　尚豊会　みたき総合病院【1:病院】【診療科目:内科_糖尿病内科_循環器内科_消化器内科_腎臓内科_神経内科_緩和ケア内科_外科_脳神経外科_血管外科_乳腺外科_整形外科_小児科_産婦人科_眼科_耳鼻いんこう科_泌尿器科_歯科口腔外科_小児歯科_アレルギー科_リウマチ科_リハビリテーション科_麻酔科】【一般病床数:111療養病床数:88精神病床数:0感染症病床数:0合計病床数:199】三重県四日市市生桑町菰池４５８－１" }, "geometry": { "type": "Point", "coordinates": [ 136.603502, 34.980076 ] } },
{ "type": "Feature", "properties": { "ID": 2411240000820, "正式名称": "医療法人（社団）　佐藤病院　長島中央病院", "機関区分": 1, "都道府県コード": 24, "市区町村コード": 205, "所在地": "三重県桑名市長島町福吉２７１", "緯度": 35.057653, "経度": 136.715795, "url": "https://www.iryou.teikyouseido.mhlw.go.jp/znk-web/juminkanja/S2430/initialize?prefCd=24&kikanCd=1240000820&kikanKbn=1", "url2": "https://www.sato-group.jp/cyuo/", "内容": "医療法人（社団）　佐藤病院　長島中央病院【1:病院】【診療科目:内科_老年内科_外科_精神科_歯科_リハビリテーション科】【一般病床数:0療養病床数:160精神病床数:0感染症病床数:0合計病床数:160】三重県桑名市長島町福吉２７１" }, "geometry": { "type": "Point", "coordinates": [ 136.715795, 35.057653 ] } },
{ "type": "Feature", "properties": { "ID": 2411240000830, "正式名称": "医療法人　大仲会　大仲さつき病院", "機関区分": 1, "都道府県コード": 24, "市区町村コード": 324, "所在地": "三重県員弁郡東員町穴太２０００", "緯度": 35.085454, "経度": 136.60983, "url": "https://www.iryou.teikyouseido.mhlw.go.jp/znk-web/juminkanja/S2430/initialize?prefCd=24&kikanCd=1240000830&kikanKbn=1", "url2": "http://www.ohnaka-h.jp", "内容": "医療法人　大仲会　大仲さつき病院【1:病院】【診療科目:精神科_児童思春期外来_歯科】【一般病床数:0療養病床数:0精神病床数:242感染症病床数:0合計病床数:242】三重県員弁郡東員町穴太２０００" }, "geometry": { "type": "Point", "coordinates": [ 136.60983, 35.085454 ] } },
{ "type": "Feature", "properties": { "ID": 2411240000850, "正式名称": "東員病院", "機関区分": 1, "都道府県コード": 24, "市区町村コード": 324, "所在地": "三重県員弁郡東員町穴太２４００", "緯度": 35.086787, "経度": 136.604831, "url": "https://www.iryou.teikyouseido.mhlw.go.jp/znk-web/juminkanja/S2430/initialize?prefCd=24&kikanCd=1240000850&kikanKbn=1", "url2": "https://toin-hosp.jp", "内容": "東員病院【1:病院】【診療科目:内科_精神科_神経科】【一般病床数:0療養病床数:0精神病床数:247感染症病床数:0合計病床数:247】三重県員弁郡東員町穴太２４００" }, "geometry": { "type": "Point", "coordinates": [ 136.604831, 35.086787 ] } },
{ "type": "Feature", "properties": { "ID": 2411240000860, "正式名称": "北勢病院", "機関区分": 1, "都道府県コード": 24, "市区町村コード": 214, "所在地": "三重県いなべ市北勢町麻生田１５２５", "緯度": 35.141391, "経度": 136.535112, "url": "https://www.iryou.teikyouseido.mhlw.go.jp/znk-web/juminkanja/S2430/initialize?prefCd=24&kikanCd=1240000860&kikanKbn=1", "url2": "https://www.hokusei-hospital.jp", "内容": "北勢病院【1:病院】【診療科目:内科_精神科_心療内科】【一般病床数:0療養病床数:0精神病床数:174感染症病床数:0合計病床数:174】三重県いなべ市北勢町麻生田１５２５" }, "geometry": { "type": "Point", "coordinates": [ 136.535112, 35.141391 ] } },
{ "type": "Feature", "properties": { "ID": 2411240000890, "正式名称": "医療法人安仁会　水沢病院", "機関区分": 1, "都道府県コード": 24, "市区町村コード": 202, "所在地": "三重県四日市市水沢町６３８－３", "緯度": 34.978574, "経度": 136.464819, "url": "https://www.iryou.teikyouseido.mhlw.go.jp/znk-web/juminkanja/S2430/initialize?prefCd=24&kikanCd=1240000890&kikanKbn=1", "url2": "http://suizawahp.com/", "内容": "医療法人安仁会　水沢病院【1:病院】【診療科目:内科_循環器内科_精神科_神経科】【一般病床数:0療養病床数:38精神病床数:174感染症病床数:0合計病床数:212】三重県四日市市水沢町６３８－３" }, "geometry": { "type": "Point", "coordinates": [ 136.464819, 34.978574 ] } },
{ "type": "Feature", "properties": { "ID": 2411240000900, "正式名称": "社会医療法人　居仁会　総合心療センターひなが", "機関区分": 1, "都道府県コード": 24, "市区町村コード": 202, "所在地": "三重県四日市市日永５０３９番地", "緯度": 34.949774, "経度": 136.592616, "url": "https://www.iryou.teikyouseido.mhlw.go.jp/znk-web/juminkanja/S2430/initialize?prefCd=24&kikanCd=1240000900&kikanKbn=1", "url2": "https://hinaga.or.jp", "内容": "社会医療法人　居仁会　総合心療センターひなが【1:病院】【診療科目:内科_児童精神科_美容皮膚科_精神科_心療内科_歯科】【一般病床数:0療養病床数:0精神病床数:480感染症病床数:0合計病床数:480】三重県四日市市日永５０３９番地" }, "geometry": { "type": "Point", "coordinates": [ 136.592616, 34.949774 ] } },
{ "type": "Feature", "properties": { "ID": 2411240000920, "正式名称": "三重県厚生農業協同組合連合会　鈴鹿厚生病院", "機関区分": 1, "都道府県コード": 24, "市区町村コード": 207, "所在地": "三重県鈴鹿市岸岡町５８９－２", "緯度": 34.857506, "経度": 136.602758, "url": "https://www.iryou.teikyouseido.mhlw.go.jp/znk-web/juminkanja/S2430/initialize?prefCd=24&kikanCd=1240000920&kikanKbn=1", "url2": "http://www.miekosei.or.jp/7_skh/", "内容": "三重県厚生農業協同組合連合会　鈴鹿厚生病院【1:病院】【診療科目:精神科】【一般病床数:0療養病床数:0精神病床数:320感染症病床数:0合計病床数:320】三重県鈴鹿市岸岡町５８９－２" }, "geometry": { "type": "Point", "coordinates": [ 136.602758, 34.857506 ] } },
{ "type": "Feature", "properties": { "ID": 2411240000940, "正式名称": "独立行政法人　国立病院機構　鈴鹿病院", "機関区分": 1, "都道府県コード": 24, "市区町村コード": 207, "所在地": "三重県鈴鹿市加佐登３－２－１", "緯度": 34.892723, "経度": 136.526124, "url": "https://www.iryou.teikyouseido.mhlw.go.jp/znk-web/juminkanja/S2430/initialize?prefCd=24&kikanCd=1240000940&kikanKbn=1", "url2": "https://suzuka.hosp.go.jp/", "内容": "独立行政法人　国立病院機構　鈴鹿病院【1:病院】【診療科目:内科_循環器内科_神経内科_整形外科_小児科_皮膚科_歯科_リハビリテーション科】【一般病床数:290療養病床数:0精神病床数:0感染症病床数:0合計病床数:290】三重県鈴鹿市加佐登３－２－１" }, "geometry": { "type": "Point", "coordinates": [ 136.526124, 34.892723 ] } },
{ "type": "Feature", "properties": { "ID": 2411240000980, "正式名称": "三重県立こころの医療センター", "機関区分": 1, "都道府県コード": 24, "市区町村コード": 201, "所在地": "三重県津市城山１－１２－１", "緯度": 34.675262, "経度": 136.507392, "url": "https://www.iryou.teikyouseido.mhlw.go.jp/znk-web/juminkanja/S2430/initialize?prefCd=24&kikanCd=1240000980&kikanKbn=1", "url2": "http://www.pref.mie.lg.jp/KOKOROHP/HP/index.htm", "内容": "三重県立こころの医療センター【1:病院】【診療科目:内科_脳神経内科_精神科_歯科】【一般病床数:0療養病床数:0精神病床数:318感染症病床数:0合計病床数:318】三重県津市城山１－１２－１" }, "geometry": { "type": "Point", "coordinates": [ 136.507392, 34.675262 ] } },
{ "type": "Feature", "properties": { "ID": 2411240001000, "正式名称": "ひさい内科病院", "機関区分": 1, "都道府県コード": 24, "市区町村コード": 201, "所在地": "三重県津市久居井戸山町７５９", "緯度": 34.669107, "経度": 136.482888, "url": "https://www.iryou.teikyouseido.mhlw.go.jp/znk-web/juminkanja/S2430/initialize?prefCd=24&kikanCd=1240001000&kikanKbn=1", "url2": "http://www.inoue-med.com", "内容": "ひさい内科病院【1:病院】【診療科目:内科_呼吸器内科】【一般病床数:0療養病床数:32精神病床数:0感染症病床数:0合計病床数:32】三重県津市久居井戸山町７５９" }, "geometry": { "type": "Point", "coordinates": [ 136.482888, 34.669107 ] } },
{ "type": "Feature", "properties": { "ID": 2411240001020, "正式名称": "独立行政法人　国立病院機構　榊原病院", "機関区分": 1, "都道府県コード": 24, "市区町村コード": 201, "所在地": "三重県津市榊原町７７７", "緯度": 34.706213, "経度": 136.380672, "url": "https://www.iryou.teikyouseido.mhlw.go.jp/znk-web/juminkanja/S2430/initialize?prefCd=24&kikanCd=1240001020&kikanKbn=1", "url2": "https://sakakibara.hosp.go.jp/", "内容": "独立行政法人　国立病院機構　榊原病院【1:病院】【診療科目:精神科】【一般病床数:0療養病床数:0精神病床数:175感染症病床数:0合計病床数:175】三重県津市榊原町７７７" }, "geometry": { "type": "Point", "coordinates": [ 136.380672, 34.706213 ] } },
{ "type": "Feature", "properties": { "ID": 2411240001030, "正式名称": "医療法人　久居病院", "機関区分": 1, "都道府県コード": 24, "市区町村コード": 201, "所在地": "三重県津市戸木町５０４３", "緯度": 34.680217, "経度": 136.445946, "url": "https://www.iryou.teikyouseido.mhlw.go.jp/znk-web/juminkanja/S2430/initialize?prefCd=24&kikanCd=1240001030&kikanKbn=1", "url2": "https://hisai-hospital.or.jp", "内容": "医療法人　久居病院【1:病院】【診療科目:精神科_心療内科】【一般病床数:0療養病床数:0精神病床数:225感染症病床数:0合計病床数:225】三重県津市戸木町５０４３" }, "geometry": { "type": "Point", "coordinates": [ 136.445946, 34.680217 ] } },
{ "type": "Feature", "properties": { "ID": 2411240001060, "正式名称": "社会福祉法人　恩賜財団　済生会　明和病院", "機関区分": 1, "都道府県コード": 24, "市区町村コード": 442, "所在地": "三重県多気郡明和町上野４３５", "緯度": 34.531652, "経度": 136.630632, "url": "https://www.iryou.teikyouseido.mhlw.go.jp/znk-web/juminkanja/S2430/initialize?prefCd=24&kikanCd=1240001060&kikanKbn=1", "url2": "http://www.meiwa-saiseikai.jp", "内容": "社会福祉法人　恩賜財団　済生会　明和病院【1:病院】【診療科目:内科_脳神経内科_呼吸器内科_外科_脳神経外科_消化器外科_整形外科_小児科_眼科_泌尿器科_リハビリテーション科】【一般病床数:84療養病床数:180精神病床数:0感染症病床数:0合計病床数:264】三重県多気郡明和町上野４３５" }, "geometry": { "type": "Point", "coordinates": [ 136.630632, 34.531652 ] } },
{ "type": "Feature", "properties": { "ID": 2411240001080, "正式名称": "南勢病院", "機関区分": 1, "都道府県コード": 24, "市区町村コード": 204, "所在地": "三重県松阪市山室町２２７５", "緯度": 34.544844, "経度": 136.526723, "url": "https://www.iryou.teikyouseido.mhlw.go.jp/znk-web/juminkanja/S2430/initialize?prefCd=24&kikanCd=1240001080&kikanKbn=1", "url2": "https://www.nansei-hospital.jp", "内容": "南勢病院【1:病院】【診療科目:内科_脳神経内科_児童精神科_皮膚科_泌尿器科_精神科_心療内科_老年精神科_歯科_リハビリテーション科】【一般病床数:0療養病床数:51精神病床数:205感染症病床数:0合計病床数:256】三重県松阪市山室町２２７５" }, "geometry": { "type": "Point", "coordinates": [ 136.526723, 34.544844 ] } },
{ "type": "Feature", "properties": { "ID": 2411240001100, "正式名称": "花の丘病院", "機関区分": 1, "都道府県コード": 24, "市区町村コード": 204, "所在地": "三重県松阪市山室町７０７－３", "緯度": 34.530595, "経度": 136.502642, "url": "https://www.iryou.teikyouseido.mhlw.go.jp/znk-web/juminkanja/S2430/initialize?prefCd=24&kikanCd=1240001100&kikanKbn=1", "url2": "https://www.shoutoku.or.jp/", "内容": "花の丘病院【1:病院】【診療科目:内科_人工透析内科_整形外科_婦人科_リハビリテーション科】【一般病床数:0療養病床数:96精神病床数:0感染症病床数:0合計病床数:96】三重県松阪市山室町７０７－３" }, "geometry": { "type": "Point", "coordinates": [ 136.502642, 34.530595 ] } },
{ "type": "Feature", "properties": { "ID": 2411240001150, "正式名称": "医療法人　豊和会　豊和病院", "機関区分": 1, "都道府県コード": 24, "市区町村コード": 215, "所在地": "三重県志摩市阿児町鵜方２５５５－９", "緯度": 34.332733, "経度": 136.835124, "url": "https://www.iryou.teikyouseido.mhlw.go.jp/znk-web/juminkanja/S2430/initialize?prefCd=24&kikanCd=1240001150&kikanKbn=1", "url2": "https://houwakai.or.jp/", "内容": "医療法人　豊和会　豊和病院【1:病院】【診療科目:内科_循環器内科_消化器内科_婦人科_皮膚科_泌尿器科】【一般病床数:30療養病床数:30精神病床数:0感染症病床数:0合計病床数:60】三重県志摩市阿児町鵜方２５５５－９" }, "geometry": { "type": "Point", "coordinates": [ 136.835124, 34.332733 ] } },
{ "type": "Feature", "properties": { "ID": 2411240001160, "正式名称": "医療法人紀南会　熊野病院", "機関区分": 1, "都道府県コード": 24, "市区町村コード": 212, "所在地": "三重県熊野市久生屋町８６８番地", "緯度": 33.865325, "経度": 136.07507, "url": "https://www.iryou.teikyouseido.mhlw.go.jp/znk-web/juminkanja/S2430/initialize?prefCd=24&kikanCd=1240001160&kikanKbn=1", "url2": "https://www.kumano-hp.jp/", "内容": "医療法人紀南会　熊野病院【1:病院】【診療科目:内科_精神科】【一般病床数:0療養病床数:0精神病床数:295感染症病床数:0合計病床数:295】三重県熊野市久生屋町８６８番地" }, "geometry": { "type": "Point", "coordinates": [ 136.07507, 33.865325 ] } },
{ "type": "Feature", "properties": { "ID": 2411240001170, "正式名称": "一般財団法人　信貴山病院　分院　上野病院", "機関区分": 1, "都道府県コード": 24, "市区町村コード": 216, "所在地": "三重県伊賀市四十九町２８８８", "緯度": 34.75187, "経度": 136.146801, "url": "https://www.iryou.teikyouseido.mhlw.go.jp/znk-web/juminkanja/S2430/initialize?prefCd=24&kikanCd=1240001170&kikanKbn=1", "url2": "http://www.heartland.or.jp/ueno/", "内容": "一般財団法人　信貴山病院　分院　上野病院【1:病院】【診療科目:精神科_神経科_心療内科】【一般病床数:0療養病床数:0精神病床数:410感染症病床数:0合計病床数:410】三重県伊賀市四十九町２８８８" }, "geometry": { "type": "Point", "coordinates": [ 136.146801, 34.75187 ] } },
{ "type": "Feature", "properties": { "ID": 2411240001180, "正式名称": "三重ハートセンター", "機関区分": 1, "都道府県コード": 24, "市区町村コード": 442, "所在地": "三重県多気郡明和町大淀２２２７－１", "緯度": 34.557678, "経度": 136.649879, "url": "https://www.iryou.teikyouseido.mhlw.go.jp/znk-web/juminkanja/S2430/initialize?prefCd=24&kikanCd=1240001180&kikanKbn=1", "url2": "http://www.mie-heartcenter.com", "内容": "三重ハートセンター【1:病院】【診療科目:内科_循環器内科_心臓血管外科_リハビリテーション科_放射線科_麻酔科】【一般病床数:45療養病床数:0精神病床数:0感染症病床数:0合計病床数:45】三重県多気郡明和町大淀２２２７－１" }, "geometry": { "type": "Point", "coordinates": [ 136.649879, 34.557678 ] } },
{ "type": "Feature", "properties": { "ID": 2411240001190, "正式名称": "若葉病院", "機関区分": 1, "都道府県コード": 24, "市区町村コード": 201, "所在地": "三重県津市南中央２８－１３", "緯度": 34.707826, "経度": 136.509689, "url": "https://www.iryou.teikyouseido.mhlw.go.jp/znk-web/juminkanja/S2430/initialize?prefCd=24&kikanCd=1240001190&kikanKbn=1", "url2": "http://www.wakabahsp.jp/", "内容": "若葉病院【1:病院】【診療科目:内科_外科_脳神経外科_整形外科_形成外科_リハビリテーション科】【一般病床数:50療養病床数:80精神病床数:0感染症病床数:0合計病床数:130】三重県津市南中央２８－１３" }, "geometry": { "type": "Point", "coordinates": [ 136.509689, 34.707826 ] } },
{ "type": "Feature", "properties": { "ID": 2411240001210, "正式名称": "亀山回生病院", "機関区分": 1, "都道府県コード": 24, "市区町村コード": 210, "所在地": "三重県亀山市東御幸町２３２番地", "緯度": 34.852115, "経度": 136.455548, "url": "https://www.iryou.teikyouseido.mhlw.go.jp/znk-web/juminkanja/S2430/initialize?prefCd=24&kikanCd=1240001210&kikanKbn=1", "url2": "http://www.kaiseihp.com/1_kameyama/", "内容": "亀山回生病院【1:病院】【診療科目:内科_整形外科】【一般病床数:0療養病床数:76精神病床数:0感染症病床数:0合計病床数:76】三重県亀山市東御幸町２３２番地" }, "geometry": { "type": "Point", "coordinates": [ 136.455548, 34.852115 ] } },
{ "type": "Feature", "properties": { "ID": 2411240001250, "正式名称": "伊勢赤十字病院", "機関区分": 1, "都道府県コード": 24, "市区町村コード": 203, "所在地": "三重県伊勢市船江１丁目４７１番２", "緯度": 34.500546, "経度": 136.712987, "url": "https://www.iryou.teikyouseido.mhlw.go.jp/znk-web/juminkanja/S2430/initialize?prefCd=24&kikanCd=1240001250&kikanKbn=1", "url2": "https://www.ise.jrc.or.jp", "内容": "伊勢赤十字病院【1:病院】【診療科目:感染症内科_血液内科_糖尿病・代謝内科_脳神経内科_呼吸器内科_循環器内科_消化器内科_腎臓内科_肝臓内科_腫瘍内科_緩和ケア内科_外科_脳神経外科_呼吸器外科_心臓血管外科_乳腺外科_整形外科_形成外科_小児科_産婦人科_眼科_頭頸部・耳鼻いんこう科_皮膚科_泌尿器科_精神科_歯科口腔外科_リハビリテーション科_放射線診断科_放射線治療科_病理診断科_麻酔科】【一般病床数:607療養病床数:0精神病床数:9感染症病床数:4合計病床数:620】三重県伊勢市船江１丁目４７１番２" }, "geometry": { "type": "Point", "coordinates": [ 136.712987, 34.500546 ] } },
{ "type": "Feature", "properties": { "ID": 2411240001260, "正式名称": "鈴鹿さくら病院", "機関区分": 1, "都道府県コード": 24, "市区町村コード": 207, "所在地": "三重県鈴鹿市中冨田町中谷５１８", "緯度": 34.883085, "経度": 136.504709, "url": "https://www.iryou.teikyouseido.mhlw.go.jp/znk-web/juminkanja/S2430/initialize?prefCd=24&kikanCd=1240001260&kikanKbn=1", "url2": "http://www.mecha.ne.jp/~h-sakura", "内容": "鈴鹿さくら病院【1:病院】【診療科目:内科_精神科】【一般病床数:0療養病床数:0精神病床数:219感染症病床数:0合計病床数:0】三重県鈴鹿市中冨田町中谷５１８" }, "geometry": { "type": "Point", "coordinates": [ 136.504709, 34.883085 ] } },
{ "type": "Feature", "properties": { "ID": 2411240001280, "正式名称": "医療法人　徳新会　四日市徳新会病院", "機関区分": 1, "都道府県コード": 24, "市区町村コード": 202, "所在地": "三重県四日市市久保田二丁目１番２号", "緯度": 34.973275, "経度": 136.612241, "url": "https://www.iryou.teikyouseido.mhlw.go.jp/znk-web/juminkanja/S2430/initialize?prefCd=24&kikanCd=1240001280&kikanKbn=1", "url2": "http://yok-toku.jp", "内容": "医療法人　徳新会　四日市徳新会病院【1:病院】【診療科目:内科_呼吸器内科_神経内科_精神科_リハビリテーション科】【一般病床数:0療養病床数:30精神病床数:0感染症病床数:0合計病床数:30】三重県四日市市久保田二丁目１番２号" }, "geometry": { "type": "Point", "coordinates": [ 136.612241, 34.973275 ] } },
{ "type": "Feature", "properties": { "ID": 2411240001300, "正式名称": "医療法人社団プログレス四日市消化器病センター", "機関区分": 1, "都道府県コード": 24, "市区町村コード": 202, "所在地": "三重県四日市市下海老町字高松１８５－３", "緯度": 35.020683, "経度": 136.576003, "url": "https://www.iryou.teikyouseido.mhlw.go.jp/znk-web/juminkanja/S2430/initialize?prefCd=24&kikanCd=1240001300&kikanKbn=1", "url2": "http://www.yokkaichi-shoukaki.com/news/745/", "内容": "医療法人社団プログレス四日市消化器病センター【1:病院】【診療科目:糖尿病内科_胃腸内科_腎臓内科_人工透析内科_肝臓内科_内視鏡内科_整形外科_眼科_リハビリテーション科】【一般病床数:20療養病床数:20精神病床数:0感染症病床数:0合計病床数:40】三重県四日市市下海老町字高松１８５－３" }, "geometry": { "type": "Point", "coordinates": [ 136.576003, 35.020683 ] } },
{ "type": "Feature", "properties": { "ID": 2411240001310, "正式名称": "三重県立子ども心身発達医療センター", "機関区分": 1, "都道府県コード": 24, "市区町村コード": 201, "所在地": "三重県津市大里窪田町３４０番５", "緯度": 34.769958, "経度": 136.479022, "url": "https://www.iryou.teikyouseido.mhlw.go.jp/znk-web/juminkanja/S2430/initialize?prefCd=24&kikanCd=1240001310&kikanKbn=1", "url2": "http://www.pref.mie.lg.jp/CHILDC/", "内容": "三重県立子ども心身発達医療センター【1:病院】【診療科目:整形外科_児童精神科_リハビリテーション科】【一般病床数:30療養病床数:0精神病床数:80感染症病床数:0合計病床数:0】三重県津市大里窪田町３４０番５" }, "geometry": { "type": "Point", "coordinates": [ 136.479022, 34.769958 ] } },
{ "type": "Feature", "properties": { "ID": 2411249000004, "正式名称": "伊勢田中病院", "機関区分": 1, "都道府県コード": 24, "市区町村コード": 203, "所在地": "三重県伊勢市大世古４丁目６番４７号", "緯度": 34.500232, "経度": 136.702309, "url": "https://www.iryou.teikyouseido.mhlw.go.jp/znk-web/juminkanja/S2430/initialize?prefCd=24&kikanCd=1249000004&kikanKbn=1", "url2": "https://www.isetanaka.jp/", "内容": "伊勢田中病院【1:病院】【診療科目:内科_呼吸器内科_循環器内科_腎臓内科_外科_消化器外科_整形外科】【一般病床数:83療養病床数:0精神病床数:0感染症病床数:0合計病床数:83】三重県伊勢市大世古４丁目６番４７号" }, "geometry": { "type": "Point", "coordinates": [ 136.702309, 34.500232 ] } },
{ "type": "Feature", "properties": { "ID": 2411249000005, "正式名称": "倉本内科病院", "機関区分": 1, "都道府県コード": 24, "市区町村コード": 201, "所在地": "三重県津市下弁財町津興３０４０", "緯度": 34.704768, "経度": 136.510745, "url": "https://www.iryou.teikyouseido.mhlw.go.jp/znk-web/juminkanja/S2430/initialize?prefCd=24&kikanCd=1249000005&kikanKbn=1", "url2": "https://www.kuramotohospital.net/", "内容": "倉本内科病院【1:病院】【診療科目:内科_呼吸器内科_循環器内科_消化器内科】【一般病床数:0療養病床数:23精神病床数:0感染症病床数:0合計病床数:23】三重県津市下弁財町津興３０４０" }, "geometry": { "type": "Point", "coordinates": [ 136.510745, 34.704768 ] } },
{ "type": "Feature", "properties": { "ID": 2411249000007, "正式名称": "町立南伊勢病院", "機関区分": 1, "都道府県コード": 24, "市区町村コード": 472, "所在地": "三重県度会郡南伊勢町船越２５４５", "緯度": 34.35704, "経度": 136.689795, "url": "https://www.iryou.teikyouseido.mhlw.go.jp/znk-web/juminkanja/S2430/initialize?prefCd=24&kikanCd=1249000007&kikanKbn=1", "url2": "https://minamiise-hospital.com/", "内容": "町立南伊勢病院【1:病院】【診療科目:内科_脳神経内科_外科_整形外科_小児科_眼科_皮膚科】【一般病床数:50療養病床数:0精神病床数:0感染症病床数:0合計病床数:50】三重県度会郡南伊勢町船越２５４５" }, "geometry": { "type": "Point", "coordinates": [ 136.689795, 34.35704 ] } },
{ "type": "Feature", "properties": { "ID": 2411249000008, "正式名称": "鈴鹿医療科学大学附属桜の森病院", "機関区分": 1, "都道府県コード": 24, "市区町村コード": 207, "所在地": "三重県鈴鹿市南玉垣町７３００番地１", "緯度": 34.849492, "経度": 136.583854, "url": "https://www.iryou.teikyouseido.mhlw.go.jp/znk-web/juminkanja/S2430/initialize?prefCd=24&kikanCd=1249000008&kikanKbn=1", "url2": "https://www.suzuka-u.ac.jp/facilities/kanwa_hosp/", "内容": "鈴鹿医療科学大学附属桜の森病院【1:病院】【診療科目:緩和ケア内科】【一般病床数:25療養病床数:0精神病床数:0感染症病床数:0合計病床数:25】三重県鈴鹿市南玉垣町７３００番地１" }, "geometry": { "type": "Point", "coordinates": [ 136.583854, 34.849492 ] } },
{ "type": "Feature", "properties": { "ID": 2411249000010, "正式名称": "医療法人社団　橘会　多度あやめ病院", "機関区分": 1, "都道府県コード": 24, "市区町村コード": 205, "所在地": "三重県桑名市多度町柚井１７０２", "緯度": 35.136853, "経度": 136.635163, "url": "https://www.iryou.teikyouseido.mhlw.go.jp/znk-web/juminkanja/S2430/initialize?prefCd=24&kikanCd=1249000010&kikanKbn=1", "url2": "http://www.tadoayame.or.jp/index.htm", "内容": "医療法人社団　橘会　多度あやめ病院【1:病院】【診療科目:内科_児童精神科_精神科】【一般病床数:0療養病床数:0精神病床数:222感染症病床数:0合計病床数:222】三重県桑名市多度町柚井１７０２" }, "geometry": { "type": "Point", "coordinates": [ 136.635163, 35.136853 ] } },
{ "type": "Feature", "properties": { "ID": 2411249000012, "正式名称": "ヨナハ丘の上病院", "機関区分": 1, "都道府県コード": 24, "市区町村コード": 205, "所在地": "三重県桑名市さくらの丘１番地", "緯度": 35.067246, "経度": 136.654696, "url": "https://www.iryou.teikyouseido.mhlw.go.jp/znk-web/juminkanja/S2430/initialize?prefCd=24&kikanCd=1249000012&kikanKbn=1", "url2": "https://yonaha.or.jp", "内容": "ヨナハ丘の上病院【1:病院】【診療科目:内科_呼吸器内科_循環器内科_消化器内科_胃腸内科_外科_脳神経外科_肛門外科_整形外科_小児科_産婦人科_眼科_泌尿器科_リウマチ科_リハビリテーション科_麻酔科】【一般病床数:86療養病床数:99精神病床数:0感染症病床数:0合計病床数:185】三重県桑名市さくらの丘１番地" }, "geometry": { "type": "Point", "coordinates": [ 136.654696, 35.067246 ] } },
{ "type": "Feature", "properties": { "ID": 2411249000013, "正式名称": "武内病院", "機関区分": 1, "都道府県コード": 24, "市区町村コード": 201, "所在地": "三重県津市一色町２１５－１", "緯度": 34.73017, "経度": 136.480303, "url": "https://www.iryou.teikyouseido.mhlw.go.jp/znk-web/juminkanja/S2430/initialize?prefCd=24&kikanCd=1249000013&kikanKbn=1", "url2": "https://takeuchi-hosp.jp", "内容": "武内病院【1:病院】【診療科目:内科_血液内科_糖尿病内科_糖尿病・内分泌内科_脳神経内科_循環器内科_消化器内科_腎臓内科_神経内科_外科_脳神経外科_肝臓・胆のう・膵臓外科_整形外科_泌尿器科_リハビリテーション科_放射線科】【一般病床数:180療養病床数:0精神病床数:0感染症病床数:0合計病床数:180】三重県津市一色町２１５－１" }, "geometry": { "type": "Point", "coordinates": [ 136.480303, 34.73017 ] } },
{ "type": "Feature", "properties": { "ID": 2411249000014, "正式名称": "社会医療法人　畿内会　岡波総合病院", "機関区分": 1, "都道府県コード": 24, "市区町村コード": 216, "所在地": "三重県伊賀市上之庄２７１１番地１", "緯度": 34.729762, "経度": 136.11413, "url": "https://www.iryou.teikyouseido.mhlw.go.jp/znk-web/juminkanja/S2430/initialize?prefCd=24&kikanCd=1249000014&kikanKbn=1", "url2": "http://www.okanami.com/", "内容": "社会医療法人　畿内会　岡波総合病院【1:病院】【診療科目:内科_脳神経内科_呼吸器内科_循環器内科_消化器内科_外科_脳神経外科_心臓血管外科_乳腺外科_整形外科_小児科_婦人科_眼科_耳鼻いんこう科_皮膚科_泌尿器科_歯科口腔外科_放射線科_麻酔科】【一般病床数:335療養病床数:0精神病床数:0感染症病床数:0合計病床数:335】三重県伊賀市上之庄２７１１番地１" }, "geometry": { "type": "Point", "coordinates": [ 136.11413, 34.729762 ] } },
{ "type": "Feature", "properties": { "ID": 2411249000015, "正式名称": "白子ウィメンズホスピタル", "機関区分": 1, "都道府県コード": 24, "市区町村コード": 207, "所在地": "三重県鈴鹿市南江島町９－１５", "緯度": 34.839701, "経度": 136.592593, "url": "https://www.iryou.teikyouseido.mhlw.go.jp/znk-web/juminkanja/S2430/initialize?prefCd=24&kikanCd=1249000015&kikanKbn=1", "url2": "https://www.shiroko-clinic.com", "内容": "白子ウィメンズホスピタル【1:病院】【診療科目:女性乳腺外科_小児科_産科_婦人科】【一般病床数:29療養病床数:0精神病床数:0感染症病床数:0合計病床数:29】三重県鈴鹿市南江島町９－１５" }, "geometry": { "type": "Point", "coordinates": [ 136.592593, 34.839701 ] } },
{ "type": "Feature", "properties": { "ID": 2411249000016, "正式名称": "医療法人全心会　伊勢ひかり病院", "機関区分": 1, "都道府県コード": 24, "市区町村コード": 203, "所在地": "三重県伊勢市御薗町高向８１０番地１", "緯度": 34.499982, "経度": 136.698216, "url": "https://www.iryou.teikyouseido.mhlw.go.jp/znk-web/juminkanja/S2430/initialize?prefCd=24&kikanCd=1249000016&kikanKbn=1", "url2": "https://ise-hikari.com", "内容": "医療法人全心会　伊勢ひかり病院【1:病院】【診療科目:内科_神経内科_外科_脳神経外科_整形外科_形成外科_小児科_婦人科_皮膚科_泌尿器科_リハビリテーション科】【一般病床数:40療養病床数:153精神病床数:0感染症病床数:0合計病床数:193】三重県伊勢市御薗町高向８１０番地１" }, "geometry": { "type": "Point", "coordinates": [ 136.698216, 34.499982 ] } },
{ "type": "Feature", "properties": { "ID": 2411249000017, "正式名称": "みえ医療福祉生活協同組合　津生協病院", "機関区分": 1, "都道府県コード": 24, "市区町村コード": 201, "所在地": "三重県津市寿町１６－２４", "緯度": 34.715746, "経度": 136.517409, "url": "https://www.iryou.teikyouseido.mhlw.go.jp/znk-web/juminkanja/S2430/initialize?prefCd=24&kikanCd=1249000017&kikanKbn=1", "url2": "http://www.tsucoop.jp", "内容": "みえ医療福祉生活協同組合　津生協病院【1:病院】【診療科目:内科_糖尿病内科_循環器内科_消化器内科_神経内科_外科_乳腺外科_肛門外科_小児科_リウマチ科】【一般病床数:120療養病床数:0精神病床数:0感染症病床数:0合計病床数:120】三重県津市寿町１６－２４" }, "geometry": { "type": "Point", "coordinates": [ 136.517409, 34.715746 ] } },
{ "type": "Feature", "properties": { "ID": 2411249000018, "正式名称": "医療法人真正会　田中病院", "機関区分": 1, "都道府県コード": 24, "市区町村コード": 210, "所在地": "三重県亀山市西丸町５３９", "緯度": 34.854892, "経度": 136.449832, "url": "https://www.iryou.teikyouseido.mhlw.go.jp/znk-web/juminkanja/S2430/initialize?prefCd=24&kikanCd=1249000018&kikanKbn=1", "url2": null, "内容": "医療法人真正会　田中病院【1:病院】【診療科目:内科_皮膚科】【一般病床数:0療養病床数:79精神病床数:0感染症病床数:0合計病床数:79】三重県亀山市西丸町５３９" }, "geometry": { "type": "Point", "coordinates": [ 136.449832, 34.854892 ] } },
{ "type": "Feature", "properties": { "ID": 2411249000019, "正式名称": "地方独立行政法人　名張市立病院", "機関区分": 1, "都道府県コード": 24, "市区町村コード": 208, "所在地": "三重県名張市百合が丘西１番町１７８", "緯度": 34.608879, "経度": 136.097721, "url": "https://www.iryou.teikyouseido.mhlw.go.jp/znk-web/juminkanja/S2430/initialize?prefCd=24&kikanCd=1249000019&kikanKbn=1", "url2": "http://nabari-city-hospital.jp/", "内容": "地方独立行政法人　名張市立病院【1:病院】【診療科目:内科_感染症内科_糖尿病内科_脳神経内科_呼吸器内科_循環器内科_消化器内科_腎臓内科_外科_脳神経外科_整形外科_小児科_眼科_皮膚科_泌尿器科_リウマチ科_放射線科_救急科_麻酔科】【一般病床数:200療養病床数:0精神病床数:0感染症病床数:0合計病床数:200】三重県名張市百合が丘西１番町１７８" }, "geometry": { "type": "Point", "coordinates": [ 136.097721, 34.608879 ] } }
]
}
