{
"type": "FeatureCollection",
"name": "geo_24_大学",
"crs": { "type": "name", "properties": { "name": "urn:ogc:def:crs:EPSG::6668" } },
"features": [
{ "type": "Feature", "properties": { "P29_001": "24201", "P29_002": "F124110107141", "P29_003": "16007", "P29_004": "三重大学", "P29_005": "三重県津市栗真町屋町1577", "P29_006": "1", "P29_007": "0", "P29_008": "00", "P29_009": null }, "geometry": { "type": "Point", "coordinates": [ 136.523096412381477, 34.745639760090725 ] } },
{ "type": "Feature", "properties": { "P29_001": "24201", "P29_002": "F124210107158", "P29_003": "16007", "P29_004": "三重県立看護大学", "P29_005": "三重県津市夢が丘1-1-1", "P29_006": "2", "P29_007": "0", "P29_008": "00", "P29_009": null }, "geometry": { "type": "Point", "coordinates": [ 136.489005101482917, 34.760763793077381 ] } },
{ "type": "Feature", "properties": { "P29_001": "24202", "P29_002": "F124310107165", "P29_003": "16007", "P29_004": "四日市大学", "P29_005": "三重県四日市市萱生町1200", "P29_006": "4", "P29_007": "0", "P29_008": "00", "P29_009": null }, "geometry": { "type": "Point", "coordinates": [ 136.607732083595806, 35.021766815463629 ] } },
{ "type": "Feature", "properties": { "P29_001": "24203", "P29_002": "F124310107174", "P29_003": "16007", "P29_004": "皇學館大学", "P29_005": "三重県伊勢市神田久志本町1704", "P29_006": "4", "P29_007": "0", "P29_008": "00", "P29_009": null }, "geometry": { "type": "Point", "coordinates": [ 136.730671956897709, 34.487442354945131 ] } },
{ "type": "Feature", "properties": { "P29_001": "24207", "P29_002": "F124310107183", "P29_003": "16007", "P29_004": "鈴鹿医療科学大学", "P29_005": "三重県鈴鹿市岸岡町1001-1", "P29_006": "4", "P29_007": "0", "P29_008": "00", "P29_009": null }, "geometry": { "type": "Point", "coordinates": [ 136.599054699567631, 34.858906006242869 ] } },
{ "type": "Feature", "properties": { "P29_001": "24207", "P29_002": "F124310107192", "P29_003": "16007", "P29_004": "鈴鹿大学", "P29_005": "三重県鈴鹿市郡山町663-222", "P29_006": "4", "P29_007": "0", "P29_008": "00", "P29_009": null }, "geometry": { "type": "Point", "coordinates": [ 136.53841552310513, 34.808496959667757 ] } },
{ "type": "Feature", "properties": { "P29_001": "24202", "P29_002": "F124310107209", "P29_003": "16007", "P29_004": "四日市看護医療大学", "P29_005": "三重県四日市市萱生町1200", "P29_006": "4", "P29_007": "0", "P29_008": "00", "P29_009": null }, "geometry": { "type": "Point", "coordinates": [ 136.608346002134397, 35.022523997732009 ] } }
]
}
