{
"type": "FeatureCollection",
"name": "geo_24_訪問入浴介護",
"crs": { "type": "name", "properties": { "name": "urn:ogc:def:crs:OGC:1.3:CRS84" } },
"features": [
{ "type": "Feature", "properties": { "内容": "ニチイケアセンター八町【訪問入浴介護】三重県津市新町２－８－１２", "url": "https://www.kaigokensaku.mhlw.go.jp/24/index.php?action_kouhyou_detail_004_kani=true&JigyosyoCd=2470501756-00&ServiceCd=120&Type=search", "url2": "http://www.nichiigakkann.co.jp" }, "geometry": { "type": "Point", "coordinates": [ 136.494710199999986, 34.7181292 ] } },
{ "type": "Feature", "properties": { "内容": "アサヒサンクリーン在宅介護センター津【訪問入浴介護】三重県津市東丸之内26-14", "url": "https://www.kaigokensaku.mhlw.go.jp/24/index.php?action_kouhyou_detail_004_kani=true&JigyosyoCd=2470504222-00&ServiceCd=120&Type=search", "url2": "http://www.asahi-sun-clean.co.jp" }, "geometry": { "type": "Point", "coordinates": [ 136.512616100000059, 34.7174407 ] } },
{ "type": "Feature", "properties": { "内容": "パナソニックエイジフリーケアセンター津・訪問入浴【訪問入浴介護】三重県津市藤方1668", "url": "https://www.kaigokensaku.mhlw.go.jp/24/index.php?action_kouhyou_detail_004_kani=true&JigyosyoCd=2470500964-00&ServiceCd=120&Type=search", "url2": "http://panasonic.co.jp/es/pesaf/" }, "geometry": { "type": "Point", "coordinates": [ 136.515800940475401, 34.689079596351355 ] } },
{ "type": "Feature", "properties": { "内容": "アサヒサンクリーン在宅介護センター四日市【訪問入浴介護】四日市市栄町6-5", "url": "https://www.kaigokensaku.mhlw.go.jp/24/index.php?action_kouhyou_detail_004_kani=true&JigyosyoCd=2470202843-00&ServiceCd=120&Type=search", "url2": "http://www.asahi-sun-clean.co.jp" }, "geometry": { "type": "Point", "coordinates": [ 136.627103857502789, 34.965255371193805 ] } },
{ "type": "Feature", "properties": { "内容": "パナソニックエイジフリーケアセンター四日市芝田・訪問入浴【訪問入浴介護】三重県四日市市芝田1丁目10番11号", "url": "https://www.kaigokensaku.mhlw.go.jp/24/index.php?action_kouhyou_detail_004_kani=true&JigyosyoCd=2470200763-00&ServiceCd=120&Type=search", "url2": "http://www.net-kaigo.com" }, "geometry": { "type": "Point", "coordinates": [ 136.6101665, 34.9698141 ] } },
{ "type": "Feature", "properties": { "内容": "アサヒサンクリーン在宅介護センター伊勢【訪問入浴介護】三重県伊勢市神久５丁目8-45さくらビル１階", "url": "https://www.kaigokensaku.mhlw.go.jp/24/index.php?action_kouhyou_detail_004_kani=true&JigyosyoCd=2470802485-00&ServiceCd=120&Type=search", "url2": "http://www.asahi-sun-clean.co.jp" }, "geometry": { "type": "Point", "coordinates": [ 136.724370037581508, 34.497070713559971 ] } },
{ "type": "Feature", "properties": { "内容": "社会福祉法人　伊勢市社会福祉協議会　伊勢訪問入浴介護事業所【訪問入浴介護】三重県伊勢市御薗町長屋２７６７", "url": "https://www.kaigokensaku.mhlw.go.jp/24/index.php?action_kouhyou_detail_004_kani=true&JigyosyoCd=2470800224-00&ServiceCd=120&Type=search", "url2": "https://ise-shakyo.jp" }, "geometry": { "type": "Point", "coordinates": [ 136.707624799999962, 34.509978 ] } },
{ "type": "Feature", "properties": { "内容": "スマイルケア訪問入浴【訪問入浴介護】三重県伊勢市御薗町高向3508番地", "url": "https://www.kaigokensaku.mhlw.go.jp/24/index.php?action_kouhyou_detail_004_kani=true&JigyosyoCd=2470802840-00&ServiceCd=120&Type=search", "url2": null }, "geometry": { "type": "Point", "coordinates": [ 136.6999305, 34.50961310000001 ] } },
{ "type": "Feature", "properties": { "内容": "訪問入浴サービス兆【訪問入浴介護】三重県松阪市駅部田町909番地7", "url": "https://www.kaigokensaku.mhlw.go.jp/24/index.php?action_kouhyou_detail_004_kani=true&JigyosyoCd=2470704251-00&ServiceCd=120&Type=search", "url2": null }, "geometry": { "type": "Point", "coordinates": [ 136.521814299999988, 34.5530688 ] } },
{ "type": "Feature", "properties": { "内容": "アサヒサンクリーン在宅介護センター松阪【訪問入浴介護】三重県松阪市立田町279-2", "url": "https://www.kaigokensaku.mhlw.go.jp/24/index.php?action_kouhyou_detail_004_kani=true&JigyosyoCd=2470701828-00&ServiceCd=120&Type=search", "url2": "http://www.asahi-sun-clean.co.jp" }, "geometry": { "type": "Point", "coordinates": [ 136.566639367730915, 34.561026962674312 ] } },
{ "type": "Feature", "properties": { "内容": "訪問入浴ま心【訪問入浴介護】鈴鹿市末広北2丁目1番3号", "url": "https://www.kaigokensaku.mhlw.go.jp/24/index.php?action_kouhyou_detail_004_kani=true&JigyosyoCd=2470302544-00&ServiceCd=120&Type=search", "url2": null }, "geometry": { "type": "Point", "coordinates": [ 136.563727534687814, 34.862245422096883 ] } },
{ "type": "Feature", "properties": { "内容": "アースサポート鈴鹿【訪問入浴介護】三重県鈴鹿市白子駅前5番16号", "url": "https://www.kaigokensaku.mhlw.go.jp/24/index.php?action_kouhyou_detail_004_kani=true&JigyosyoCd=2470302098-00&ServiceCd=120&Type=search", "url2": "http://www.earthsupport.co.jp" }, "geometry": { "type": "Point", "coordinates": [ 136.590639399999986, 34.8369486 ] } },
{ "type": "Feature", "properties": { "内容": "ニチイケアセンター鈴鹿【訪問入浴介護】三重県鈴鹿市南江島町１２番２０号", "url": "https://www.kaigokensaku.mhlw.go.jp/24/index.php?action_kouhyou_detail_004_kani=true&JigyosyoCd=2470300654-00&ServiceCd=120&Type=search", "url2": "http://www.nichiigakkan.ne.jp" }, "geometry": { "type": "Point", "coordinates": [ 136.59175879999998, 34.8395565 ] } },
{ "type": "Feature", "properties": { "内容": "熊社協井戸訪問入浴介護事業所【訪問入浴介護】熊野市井戸町1150熊野市保健福祉センター", "url": "https://www.kaigokensaku.mhlw.go.jp/24/index.php?action_kouhyou_detail_004_kani=true&JigyosyoCd=2471100020-00&ServiceCd=120&Type=search", "url2": "http://www.k-shakyo.com/" }, "geometry": { "type": "Point", "coordinates": [ 136.088468, 33.8937556 ] } },
{ "type": "Feature", "properties": { "内容": "志摩市社会福祉協議会　阿児訪問入浴介護事業所【訪問入浴介護】三重県志摩市浜島町桧山路3", "url": "https://www.kaigokensaku.mhlw.go.jp/24/index.php?action_kouhyou_detail_004_kani=true&JigyosyoCd=2472900055-00&ServiceCd=120&Type=search", "url2": "http://shima-fukushikyo.or.jp/" }, "geometry": { "type": "Point", "coordinates": [ 136.758269104341281, 34.314410948894526 ] } },
{ "type": "Feature", "properties": { "内容": "訪問入浴福寿【訪問入浴介護】三重県志摩市阿児町小向井4919", "url": "https://www.kaigokensaku.mhlw.go.jp/24/index.php?action_kouhyou_detail_004_kani=true&JigyosyoCd=2472901848-00&ServiceCd=120&Type=search", "url2": null }, "geometry": { "type": "Point", "coordinates": [ 136.81300730000001, 34.327911 ] } },
{ "type": "Feature", "properties": { "内容": "アースサポート伊賀【訪問入浴介護】三重県伊賀市上野東町2959番地の1", "url": "https://www.kaigokensaku.mhlw.go.jp/24/index.php?action_kouhyou_detail_004_kani=true&JigyosyoCd=2471200937-00&ServiceCd=120&Type=search", "url2": "http://www.earthsupport.co.jp" }, "geometry": { "type": "Point", "coordinates": [ 136.130996500000037, 34.7658289 ] } }
]
}
