{
"type": "FeatureCollection",
"name": "geo_24_中学校",
"crs": { "type": "name", "properties": { "name": "urn:ogc:def:crs:EPSG::6668" } },
"features": [
{ "type": "Feature", "properties": { "P29_001": "24201", "P29_002": "C124110000011", "P29_003": "16002", "P29_004": "三重大学教育学部附属中学校", "P29_005": "三重県津市観音寺町471", "P29_006": "1", "P29_007": "1", "P29_008": "00", "P29_009": null }, "geometry": { "type": "Point", "coordinates": [ 136.50148992802562, 34.72794725636976 ] } },
{ "type": "Feature", "properties": { "P29_001": "24201", "P29_002": "C124220130011", "P29_003": "16002", "P29_004": "津市立橋北中学校", "P29_005": "三重県津市桜橋2-38-1", "P29_006": "3", "P29_007": "1", "P29_008": "00", "P29_009": null }, "geometry": { "type": "Point", "coordinates": [ 136.518295570108364, 34.731879863605748 ] } },
{ "type": "Feature", "properties": { "P29_001": "24201", "P29_002": "C124220130020", "P29_003": "16002", "P29_004": "津市立東橋内中学校", "P29_005": "三重県津市中河原356-2", "P29_006": "3", "P29_007": "1", "P29_008": "00", "P29_009": null }, "geometry": { "type": "Point", "coordinates": [ 136.518953002134594, 34.721103003820055 ] } },
{ "type": "Feature", "properties": { "P29_001": "24201", "P29_002": "C124220130039", "P29_003": "16002", "P29_004": "津市立西橋内中学校", "P29_005": "三重県津市東古河町7-1", "P29_006": "3", "P29_007": "1", "P29_008": "00", "P29_009": null }, "geometry": { "type": "Point", "coordinates": [ 136.499777137270797, 34.720823085520998 ] } },
{ "type": "Feature", "properties": { "P29_001": "24201", "P29_002": "C124220130048", "P29_003": "16002", "P29_004": "津市立橋南中学校", "P29_005": "三重県津市上弁財町津興2537-4", "P29_006": "3", "P29_007": "1", "P29_008": "00", "P29_009": null }, "geometry": { "type": "Point", "coordinates": [ 136.510677002001557, 34.702801003474853 ] } },
{ "type": "Feature", "properties": { "P29_001": "24201", "P29_002": "C124220130057", "P29_003": "16002", "P29_004": "津市立南郊中学校", "P29_005": "三重県津市高茶屋4-44-1", "P29_006": "3", "P29_007": "1", "P29_008": "00", "P29_009": null }, "geometry": { "type": "Point", "coordinates": [ 136.509012994326298, 34.669359996707023 ] } },
{ "type": "Feature", "properties": { "P29_001": "24201", "P29_002": "C124220130066", "P29_003": "16002", "P29_004": "津市立西郊中学校", "P29_005": "三重県津市一色町219", "P29_006": "3", "P29_007": "1", "P29_008": "00", "P29_009": null }, "geometry": { "type": "Point", "coordinates": [ 136.476621080119685, 34.730646476335487 ] } },
{ "type": "Feature", "properties": { "P29_001": "24201", "P29_002": "C124220130075", "P29_003": "16002", "P29_004": "津市立一身田中学校", "P29_005": "三重県津市一身田中野880-1", "P29_006": "3", "P29_007": "1", "P29_008": "00", "P29_009": null }, "geometry": { "type": "Point", "coordinates": [ 136.505757560264328, 34.754263561572472 ] } },
{ "type": "Feature", "properties": { "P29_001": "24201", "P29_002": "C124220130084", "P29_003": "16002", "P29_004": "津市立一身田中学校国児分校", "P29_005": "三重県津市栗真町屋町524", "P29_006": "3", "P29_007": "1", "P29_008": "00", "P29_009": null }, "geometry": { "type": "Point", "coordinates": [ 136.523081339410766, 34.747981419556709 ] } },
{ "type": "Feature", "properties": { "P29_001": "24201", "P29_002": "C124220130093", "P29_003": "16002", "P29_004": "津市立豊里中学校", "P29_005": "三重県津市大里睦合町820-1", "P29_006": "3", "P29_007": "1", "P29_008": "00", "P29_009": null }, "geometry": { "type": "Point", "coordinates": [ 136.483900004210085, 34.777150001929016 ] } },
{ "type": "Feature", "properties": { "P29_001": "24201", "P29_002": "C124220130100", "P29_003": "16002", "P29_004": "津市立南が丘中学校", "P29_005": "三重県津市垂水2622-1", "P29_006": "3", "P29_007": "1", "P29_008": "00", "P29_009": null }, "geometry": { "type": "Point", "coordinates": [ 136.494469689116414, 34.688760599382938 ] } },
{ "type": "Feature", "properties": { "P29_001": "24201", "P29_002": "C124220130119", "P29_003": "16002", "P29_004": "津市立朝陽中学校", "P29_005": "三重県津市河芸町上野2010", "P29_006": "3", "P29_007": "1", "P29_008": "00", "P29_009": null }, "geometry": { "type": "Point", "coordinates": [ 136.536094168732888, 34.784366875530729 ] } },
{ "type": "Feature", "properties": { "P29_001": "24201", "P29_002": "C124220130128", "P29_003": "16002", "P29_004": "津市立芸濃中学校", "P29_005": "三重県津市芸濃町椋本5147", "P29_006": "3", "P29_007": "1", "P29_008": "00", "P29_009": null }, "geometry": { "type": "Point", "coordinates": [ 136.425093177876533, 34.811782708557217 ] } },
{ "type": "Feature", "properties": { "P29_001": "24201", "P29_002": "C124220130137", "P29_003": "16002", "P29_004": "津市立東観中学校", "P29_005": "三重県津市安濃町東観音寺494-1", "P29_006": "3", "P29_007": "1", "P29_008": "00", "P29_009": null }, "geometry": { "type": "Point", "coordinates": [ 136.446023417708062, 34.760796786712547 ] } },
{ "type": "Feature", "properties": { "P29_001": "24201", "P29_002": "C124220130146", "P29_003": "16002", "P29_004": "津市立久居中学校", "P29_005": "三重県津市久居西鷹跡町494", "P29_006": "3", "P29_007": "1", "P29_008": "00", "P29_009": null }, "geometry": { "type": "Point", "coordinates": [ 136.46028118707855, 34.67517571049116 ] } },
{ "type": "Feature", "properties": { "P29_001": "24201", "P29_002": "C124220130155", "P29_003": "16002", "P29_004": "津市立久居西中学校", "P29_005": "三重県津市久居一色町940", "P29_006": "3", "P29_007": "1", "P29_008": "00", "P29_009": null }, "geometry": { "type": "Point", "coordinates": [ 136.406444359459869, 34.687642983823622 ] } },
{ "type": "Feature", "properties": { "P29_001": "24201", "P29_002": "C124220130164", "P29_003": "16002", "P29_004": "津市立久居東中学校", "P29_005": "三重県津市久居井戸山町721-1", "P29_006": "3", "P29_007": "1", "P29_008": "00", "P29_009": null }, "geometry": { "type": "Point", "coordinates": [ 136.485444584945014, 34.668904891210381 ] } },
{ "type": "Feature", "properties": { "P29_001": "24201", "P29_002": "C124220130173", "P29_003": "16002", "P29_004": "津市立香海中学校", "P29_005": "三重県津市香良洲町128", "P29_006": "3", "P29_007": "1", "P29_008": "00", "P29_009": null }, "geometry": { "type": "Point", "coordinates": [ 136.531377945502982, 34.651810555397148 ] } },
{ "type": "Feature", "properties": { "P29_001": "24201", "P29_002": "C124220130182", "P29_003": "16002", "P29_004": "津市立一志中学校", "P29_005": "三重県津市一志町高野2609", "P29_006": "3", "P29_007": "1", "P29_008": "00", "P29_009": null }, "geometry": { "type": "Point", "coordinates": [ 136.4221610352933, 34.656315090550287 ] } },
{ "type": "Feature", "properties": { "P29_001": "24201", "P29_002": "C124220130191", "P29_003": "16002", "P29_004": "津市立白山中学校", "P29_005": "三重県津市白山町川口471-6", "P29_006": "3", "P29_007": "1", "P29_008": "00", "P29_009": null }, "geometry": { "type": "Point", "coordinates": [ 136.33672568699734, 34.644306320954861 ] } },
{ "type": "Feature", "properties": { "P29_001": "24201", "P29_002": "C124220130208", "P29_003": "16002", "P29_004": "津市立美杉中学校", "P29_005": "三重県津市美杉町八知5800", "P29_006": "3", "P29_007": "1", "P29_008": "00", "P29_009": null }, "geometry": { "type": "Point", "coordinates": [ 136.264565793186591, 34.55487162383524 ] } },
{ "type": "Feature", "properties": { "P29_001": "24202", "P29_002": "C124220230010", "P29_003": "16002", "P29_004": "四日市市立中部中学校", "P29_005": "三重県四日市市西浦2-5-36", "P29_006": "3", "P29_007": "1", "P29_008": "00", "P29_009": null }, "geometry": { "type": "Point", "coordinates": [ 136.618778489882942, 34.97249783978944 ] } },
{ "type": "Feature", "properties": { "P29_001": "24202", "P29_002": "C124220230029", "P29_003": "16002", "P29_004": "四日市市立橋北中学校", "P29_005": "三重県四日市市高浜町1-4", "P29_006": "3", "P29_007": "1", "P29_008": "00", "P29_009": null }, "geometry": { "type": "Point", "coordinates": [ 136.635367028543556, 34.977676421613729 ] } },
{ "type": "Feature", "properties": { "P29_001": "24202", "P29_002": "C124220230038", "P29_003": "16002", "P29_004": "四日市市立港中学校", "P29_005": "三重県四日市市十七軒町10-41", "P29_006": "3", "P29_007": "1", "P29_008": "00", "P29_009": null }, "geometry": { "type": "Point", "coordinates": [ 136.623437527161343, 34.957140037979052 ] } },
{ "type": "Feature", "properties": { "P29_001": "24202", "P29_002": "C124220230047", "P29_003": "16002", "P29_004": "四日市市立塩浜中学校", "P29_005": "三重県四日市市塩浜4096", "P29_006": "3", "P29_007": "1", "P29_008": "00", "P29_009": null }, "geometry": { "type": "Point", "coordinates": [ 136.620747958299091, 34.927022797013237 ] } },
{ "type": "Feature", "properties": { "P29_001": "24202", "P29_002": "C124220230056", "P29_003": "16002", "P29_004": "四日市市立山手中学校", "P29_005": "三重県四日市市東阿倉川70", "P29_006": "3", "P29_007": "1", "P29_008": "00", "P29_009": null }, "geometry": { "type": "Point", "coordinates": [ 136.623574805036583, 34.990136607755282 ] } },
{ "type": "Feature", "properties": { "P29_001": "24202", "P29_002": "C124220230065", "P29_003": "16002", "P29_004": "四日市市立富洲原中学校", "P29_005": "三重県四日市市天カ須賀5-3-10", "P29_006": "3", "P29_007": "1", "P29_008": "00", "P29_009": null }, "geometry": { "type": "Point", "coordinates": [ 136.667581949727065, 35.014535305375347 ] } },
{ "type": "Feature", "properties": { "P29_001": "24202", "P29_002": "C124220230074", "P29_003": "16002", "P29_004": "四日市市立富田中学校", "P29_005": "三重県四日市市東茂福町4-19", "P29_006": "3", "P29_007": "1", "P29_008": "00", "P29_009": null }, "geometry": { "type": "Point", "coordinates": [ 136.649322065823384, 34.997894678882361 ] } },
{ "type": "Feature", "properties": { "P29_001": "24202", "P29_002": "C124220230083", "P29_003": "16002", "P29_004": "四日市市立笹川中学校", "P29_005": "三重県四日市市西日野町268-2", "P29_006": "3", "P29_007": "1", "P29_008": "00", "P29_009": null }, "geometry": { "type": "Point", "coordinates": [ 136.589623562054811, 34.95150720547656 ] } },
{ "type": "Feature", "properties": { "P29_001": "24202", "P29_002": "C124220230092", "P29_003": "16002", "P29_004": "四日市市立南中学校", "P29_005": "三重県四日市市前田町18-17", "P29_006": "3", "P29_007": "1", "P29_008": "00", "P29_009": null }, "geometry": { "type": "Point", "coordinates": [ 136.595402781953538, 34.935687352204781 ] } },
{ "type": "Feature", "properties": { "P29_001": "24202", "P29_002": "C124220230109", "P29_003": "16002", "P29_004": "四日市市立西陵中学校", "P29_005": "三重県四日市市西山町7229", "P29_006": "3", "P29_007": "1", "P29_008": "00", "P29_009": null }, "geometry": { "type": "Point", "coordinates": [ 136.522783016083224, 34.958205635134362 ] } },
{ "type": "Feature", "properties": { "P29_001": "24202", "P29_002": "C124220230118", "P29_003": "16002", "P29_004": "四日市市立三滝中学校", "P29_005": "三重県四日市市高角町2068-2", "P29_006": "3", "P29_007": "1", "P29_008": "00", "P29_009": null }, "geometry": { "type": "Point", "coordinates": [ 136.549431584504987, 34.9842689630172 ] } },
{ "type": "Feature", "properties": { "P29_001": "24202", "P29_002": "C124220230127", "P29_003": "16002", "P29_004": "四日市市立大池中学校", "P29_005": "三重県四日市市下海老町2662-1", "P29_006": "3", "P29_007": "1", "P29_008": "00", "P29_009": null }, "geometry": { "type": "Point", "coordinates": [ 136.571341526713496, 35.004659509009187 ] } },
{ "type": "Feature", "properties": { "P29_001": "24202", "P29_002": "C124220230136", "P29_003": "16002", "P29_004": "四日市市立朝明中学校", "P29_005": "三重県四日市市平津町409-2", "P29_006": "3", "P29_007": "1", "P29_008": "00", "P29_009": null }, "geometry": { "type": "Point", "coordinates": [ 136.616689765938105, 35.026918052066875 ] } },
{ "type": "Feature", "properties": { "P29_001": "24202", "P29_002": "C124220230145", "P29_003": "16002", "P29_004": "四日市市立保々中学校", "P29_005": "三重県四日市市西村町2787-2", "P29_006": "3", "P29_007": "1", "P29_008": "00", "P29_009": null }, "geometry": { "type": "Point", "coordinates": [ 136.560669460532182, 35.052472824456913 ] } },
{ "type": "Feature", "properties": { "P29_001": "24202", "P29_002": "C124220230154", "P29_003": "16002", "P29_004": "四日市市立常磐中学校", "P29_005": "三重県四日市市大字松本810", "P29_006": "3", "P29_007": "1", "P29_008": "00", "P29_009": null }, "geometry": { "type": "Point", "coordinates": [ 136.585474017080713, 34.963119936793845 ] } },
{ "type": "Feature", "properties": { "P29_001": "24202", "P29_002": "C124220230163", "P29_003": "16002", "P29_004": "四日市市立西笹川中学校", "P29_005": "三重県四日市市笹川4-104", "P29_006": "3", "P29_007": "1", "P29_008": "00", "P29_009": null }, "geometry": { "type": "Point", "coordinates": [ 136.569467494088116, 34.945498765983018 ] } },
{ "type": "Feature", "properties": { "P29_001": "24202", "P29_002": "C124220230172", "P29_003": "16002", "P29_004": "四日市市立三重平中学校", "P29_005": "三重県四日市市三重8-1", "P29_006": "3", "P29_007": "1", "P29_008": "00", "P29_009": null }, "geometry": { "type": "Point", "coordinates": [ 136.583189087360211, 34.987255985373054 ] } },
{ "type": "Feature", "properties": { "P29_001": "24202", "P29_002": "C124220230181", "P29_003": "16002", "P29_004": "四日市市立羽津中学校", "P29_005": "三重県四日市市羽津甲26", "P29_006": "3", "P29_007": "1", "P29_008": "00", "P29_009": null }, "geometry": { "type": "Point", "coordinates": [ 136.621967171133718, 34.997891140740158 ] } },
{ "type": "Feature", "properties": { "P29_001": "24202", "P29_002": "C124220230190", "P29_003": "16002", "P29_004": "四日市市立西朝明中学校", "P29_005": "三重県四日市市北山町1169", "P29_006": "3", "P29_007": "1", "P29_008": "00", "P29_009": null }, "geometry": { "type": "Point", "coordinates": [ 136.596781643681936, 35.036774179094991 ] } },
{ "type": "Feature", "properties": { "P29_001": "24202", "P29_002": "C124220230207", "P29_003": "16002", "P29_004": "四日市市立桜中学校", "P29_005": "三重県四日市市桜町1604", "P29_006": "3", "P29_007": "1", "P29_008": "00", "P29_009": null }, "geometry": { "type": "Point", "coordinates": [ 136.524308977002647, 34.992144387366373 ] } },
{ "type": "Feature", "properties": { "P29_001": "24202", "P29_002": "C124220230216", "P29_003": "16002", "P29_004": "四日市市立内部中学校", "P29_005": "三重県四日市市波木町697", "P29_006": "3", "P29_007": "1", "P29_008": "00", "P29_009": null }, "geometry": { "type": "Point", "coordinates": [ 136.569537432297068, 34.935184990760497 ] } },
{ "type": "Feature", "properties": { "P29_001": "24202", "P29_002": "C124220230225", "P29_003": "16002", "P29_004": "四日市市立楠中学校", "P29_005": "三重県四日市市楠町北五味塚2092", "P29_006": "3", "P29_007": "1", "P29_008": "00", "P29_009": null }, "geometry": { "type": "Point", "coordinates": [ 136.627327635837275, 34.913118777349489 ] } },
{ "type": "Feature", "properties": { "P29_001": "24203", "P29_002": "C124220330019", "P29_003": "16002", "P29_004": "伊勢市立倉田山中学校", "P29_005": "三重県伊勢市神田久志本町1645-2", "P29_006": "3", "P29_007": "1", "P29_008": "00", "P29_009": null }, "geometry": { "type": "Point", "coordinates": [ 136.727051251350417, 34.489434297865849 ] } },
{ "type": "Feature", "properties": { "P29_001": "24203", "P29_002": "C124220330028", "P29_003": "16002", "P29_004": "伊勢市立厚生中学校", "P29_005": "三重県伊勢市一之木5-5-3", "P29_006": "3", "P29_007": "1", "P29_008": "00", "P29_009": null }, "geometry": { "type": "Point", "coordinates": [ 136.708957736030641, 34.501466568214511 ] } },
{ "type": "Feature", "properties": { "P29_001": "24203", "P29_002": "C124220330037", "P29_003": "16002", "P29_004": "伊勢市立港中学校", "P29_005": "三重県伊勢市竹ヶ鼻町78-10", "P29_006": "3", "P29_007": "1", "P29_008": "00", "P29_009": null }, "geometry": { "type": "Point", "coordinates": [ 136.732756078015456, 34.510986145365678 ] } },
{ "type": "Feature", "properties": { "P29_001": "24203", "P29_002": "C124220330046", "P29_003": "16002", "P29_004": "伊勢市立城田中学校", "P29_005": "三重県伊勢市粟野町472", "P29_006": "3", "P29_007": "1", "P29_008": "00", "P29_009": null }, "geometry": { "type": "Point", "coordinates": [ 136.672138065329193, 34.486414058640712 ] } },
{ "type": "Feature", "properties": { "P29_001": "24203", "P29_002": "C124220330055", "P29_003": "16002", "P29_004": "伊勢市立五十鈴中学校", "P29_005": "三重県伊勢市中村町444", "P29_006": "3", "P29_007": "1", "P29_008": "00", "P29_009": null }, "geometry": { "type": "Point", "coordinates": [ 136.724843004106845, 34.473608000789518 ] } },
{ "type": "Feature", "properties": { "P29_001": "24203", "P29_002": "C124220330064", "P29_003": "16002", "P29_004": "伊勢市立伊勢宮川中学校", "P29_005": "三重県伊勢市二俣4-5-3", "P29_006": "3", "P29_007": "1", "P29_008": "00", "P29_009": null }, "geometry": { "type": "Point", "coordinates": [ 136.690009777041723, 34.482655397336572 ] } },
{ "type": "Feature", "properties": { "P29_001": "24203", "P29_002": "C124220330073", "P29_003": "16002", "P29_004": "伊勢市立桜浜中学校", "P29_005": "三重県伊勢市植山町461", "P29_006": "3", "P29_007": "1", "P29_008": "00", "P29_009": null }, "geometry": { "type": "Point", "coordinates": [ 136.684429628581825, 34.534895626757795 ] } },
{ "type": "Feature", "properties": { "P29_001": "24203", "P29_002": "C124220330082", "P29_003": "16002", "P29_004": "伊勢市立二見中学校", "P29_005": "三重県伊勢市二見町光の街907-7", "P29_006": "3", "P29_007": "1", "P29_008": "00", "P29_009": null }, "geometry": { "type": "Point", "coordinates": [ 136.75995511745009, 34.498467709611411 ] } },
{ "type": "Feature", "properties": { "P29_001": "24203", "P29_002": "C124220330091", "P29_003": "16002", "P29_004": "伊勢市立小俣中学校", "P29_005": "三重県伊勢市小俣町相合750", "P29_006": "3", "P29_007": "1", "P29_008": "00", "P29_009": null }, "geometry": { "type": "Point", "coordinates": [ 136.669457169402307, 34.507423404459786 ] } },
{ "type": "Feature", "properties": { "P29_001": "24203", "P29_002": "C124220330108", "P29_003": "16002", "P29_004": "伊勢市立御薗中学校", "P29_005": "三重県伊勢市磯町尾立2225", "P29_006": "3", "P29_007": "1", "P29_008": "00", "P29_009": null }, "geometry": { "type": "Point", "coordinates": [ 136.710354185530349, 34.514743033965175 ] } },
{ "type": "Feature", "properties": { "P29_001": "24204", "P29_002": "C124220430018", "P29_003": "16002", "P29_004": "松阪市立殿町中学校", "P29_005": "三重県松阪市殿町1508-1", "P29_006": "3", "P29_007": "1", "P29_008": "00", "P29_009": null }, "geometry": { "type": "Point", "coordinates": [ 136.523736997811881, 34.57523200294596 ] } },
{ "type": "Feature", "properties": { "P29_001": "24204", "P29_002": "C124220430027", "P29_003": "16002", "P29_004": "松阪市立殿町中学校市民病院分校", "P29_005": "三重県松阪市殿町1550", "P29_006": "3", "P29_007": "1", "P29_008": "00", "P29_009": null }, "geometry": { "type": "Point", "coordinates": [ 136.525842475537416, 34.577651978676627 ] } },
{ "type": "Feature", "properties": { "P29_001": "24204", "P29_002": "C124220430036", "P29_003": "16002", "P29_004": "松阪市立鎌田中学校", "P29_005": "三重県松阪市鎌田町656", "P29_006": "3", "P29_007": "1", "P29_008": "00", "P29_009": null }, "geometry": { "type": "Point", "coordinates": [ 136.539865169928589, 34.583994243197814 ] } },
{ "type": "Feature", "properties": { "P29_001": "24204", "P29_002": "C124220430045", "P29_003": "16002", "P29_004": "松阪市立久保中学校", "P29_005": "三重県松阪市垣鼻町1790-1", "P29_006": "3", "P29_007": "1", "P29_008": "00", "P29_009": null }, "geometry": { "type": "Point", "coordinates": [ 136.536964018976761, 34.56476506529274 ] } },
{ "type": "Feature", "properties": { "P29_001": "24204", "P29_002": "C124220430054", "P29_003": "16002", "P29_004": "松阪市立東部中学校", "P29_005": "三重県松阪市魚見町884", "P29_006": "3", "P29_007": "1", "P29_008": "00", "P29_009": null }, "geometry": { "type": "Point", "coordinates": [ 136.590025854278878, 34.565023471344951 ] } },
{ "type": "Feature", "properties": { "P29_001": "24204", "P29_002": "C124220430063", "P29_003": "16002", "P29_004": "松阪市立中部中学校", "P29_005": "三重県松阪市立野町1344", "P29_006": "3", "P29_007": "1", "P29_008": "00", "P29_009": null }, "geometry": { "type": "Point", "coordinates": [ 136.509786491149924, 34.547490711442833 ] } },
{ "type": "Feature", "properties": { "P29_001": "24204", "P29_002": "C124220430072", "P29_003": "16002", "P29_004": "松阪市立大江中学校", "P29_005": "三重県松阪市小片野町228", "P29_006": "3", "P29_007": "1", "P29_008": "00", "P29_009": null }, "geometry": { "type": "Point", "coordinates": [ 136.449581880393055, 34.482223070184993 ] } },
{ "type": "Feature", "properties": { "P29_001": "24204", "P29_002": "C124220430081", "P29_003": "16002", "P29_004": "松阪市立西中学校", "P29_005": "三重県松阪市曲町4-8", "P29_006": "3", "P29_007": "1", "P29_008": "00", "P29_009": null }, "geometry": { "type": "Point", "coordinates": [ 136.498404675215937, 34.576583985352812 ] } },
{ "type": "Feature", "properties": { "P29_001": "24204", "P29_002": "C124220430090", "P29_003": "16002", "P29_004": "松阪市立嬉野中学校", "P29_005": "三重県松阪市嬉野下之庄町1725", "P29_006": "3", "P29_007": "1", "P29_008": "00", "P29_009": null }, "geometry": { "type": "Point", "coordinates": [ 136.471734441191046, 34.620151410023965 ] } },
{ "type": "Feature", "properties": { "P29_001": "24204", "P29_002": "C124220430107", "P29_003": "16002", "P29_004": "松阪市立三雲中学校", "P29_005": "三重県松阪市中道町345", "P29_006": "3", "P29_007": "1", "P29_008": "00", "P29_009": null }, "geometry": { "type": "Point", "coordinates": [ 136.514046708147504, 34.620225581155765 ] } },
{ "type": "Feature", "properties": { "P29_001": "24204", "P29_002": "C124220430116", "P29_003": "16002", "P29_004": "松阪市立飯南中学校", "P29_005": "三重県松阪市飯南町粥見566", "P29_006": "3", "P29_007": "1", "P29_008": "00", "P29_009": null }, "geometry": { "type": "Point", "coordinates": [ 136.402564687386871, 34.461366154687241 ] } },
{ "type": "Feature", "properties": { "P29_001": "24204", "P29_002": "C124220430125", "P29_003": "16002", "P29_004": "松阪市立飯高中学校", "P29_005": "三重県松阪市飯高町宮前927", "P29_006": "3", "P29_007": "1", "P29_008": "00", "P29_009": null }, "geometry": { "type": "Point", "coordinates": [ 136.333041365267064, 34.434666785494791 ] } },
{ "type": "Feature", "properties": { "P29_001": "24205", "P29_002": "C124220530017", "P29_003": "16002", "P29_004": "桑名市立成徳中学校", "P29_005": "三重県桑名市東汰上415-1", "P29_006": "3", "P29_007": "1", "P29_008": "00", "P29_009": null }, "geometry": { "type": "Point", "coordinates": [ 136.67381826553796, 35.083529255803604 ] } },
{ "type": "Feature", "properties": { "P29_001": "24205", "P29_002": "C124220530026", "P29_003": "16002", "P29_004": "桑名市立明正中学校", "P29_005": "三重県桑名市明正町31", "P29_006": "3", "P29_007": "1", "P29_008": "00", "P29_009": null }, "geometry": { "type": "Point", "coordinates": [ 136.674962001825008, 35.058144028703566 ] } },
{ "type": "Feature", "properties": { "P29_001": "24205", "P29_002": "C124220530035", "P29_003": "16002", "P29_004": "桑名市立光風中学校", "P29_005": "三重県桑名市新矢田2-37", "P29_006": "3", "P29_007": "1", "P29_008": "00", "P29_009": null }, "geometry": { "type": "Point", "coordinates": [ 136.684189564374492, 35.061551435785873 ] } },
{ "type": "Feature", "properties": { "P29_001": "24205", "P29_002": "C124220530044", "P29_003": "16002", "P29_004": "桑名市立陽和中学校", "P29_005": "三重県桑名市小貝須1408-4", "P29_006": "3", "P29_007": "1", "P29_008": "00", "P29_009": null }, "geometry": { "type": "Point", "coordinates": [ 136.696436760486165, 35.05301028573551 ] } },
{ "type": "Feature", "properties": { "P29_001": "24205", "P29_002": "C124220530053", "P29_003": "16002", "P29_004": "桑名市立正和中学校", "P29_005": "三重県桑名市坂井339-25", "P29_006": "3", "P29_007": "1", "P29_008": "00", "P29_009": null }, "geometry": { "type": "Point", "coordinates": [ 136.635108871251532, 35.058914131763842 ] } },
{ "type": "Feature", "properties": { "P29_001": "24205", "P29_002": "C124220530062", "P29_003": "16002", "P29_004": "桑名市立陵成中学校", "P29_005": "三重県桑名市筒尾8-12", "P29_006": "3", "P29_007": "1", "P29_008": "00", "P29_009": null }, "geometry": { "type": "Point", "coordinates": [ 136.642324733551504, 35.081112946133068 ] } },
{ "type": "Feature", "properties": { "P29_001": "24205", "P29_002": "C124220530071", "P29_003": "16002", "P29_004": "桑名市立光陵中学校", "P29_005": "三重県桑名市大山田5-12", "P29_006": "3", "P29_007": "1", "P29_008": "00", "P29_009": null }, "geometry": { "type": "Point", "coordinates": [ 136.633334452554351, 35.082722944636842 ] } },
{ "type": "Feature", "properties": { "P29_001": "24205", "P29_002": "C124220530080", "P29_003": "16002", "P29_004": "桑名市立多度中学校", "P29_005": "三重県桑名市多度町柚井24", "P29_006": "3", "P29_007": "1", "P29_008": "00", "P29_009": null }, "geometry": { "type": "Point", "coordinates": [ 136.643195259296533, 35.138390198692818 ] } },
{ "type": "Feature", "properties": { "P29_001": "24205", "P29_002": "C124220530099", "P29_003": "16002", "P29_004": "桑名市立長島中学校", "P29_005": "三重県桑名市長島町西外面2175", "P29_006": "3", "P29_007": "1", "P29_008": "00", "P29_009": null }, "geometry": { "type": "Point", "coordinates": [ 136.697859758081393, 35.093083438059857 ] } },
{ "type": "Feature", "properties": { "P29_001": "24205", "P29_002": "C124220530106", "P29_003": "16002", "P29_004": "桑名市立長島中学校悠分校", "P29_005": "三重県桑名市長島町横満蔵568-3", "P29_006": "3", "P29_007": "1", "P29_008": "00", "P29_009": null }, "geometry": { "type": "Point", "coordinates": [ 136.72207568987551, 35.052577544160926 ] } },
{ "type": "Feature", "properties": { "P29_001": "24207", "P29_002": "C124220730015", "P29_003": "16002", "P29_004": "鈴鹿市立平田野中学校", "P29_005": "三重県鈴鹿市国府町9105-1", "P29_006": "3", "P29_007": "1", "P29_008": "00", "P29_009": null }, "geometry": { "type": "Point", "coordinates": [ 136.511836998140581, 34.853231997616327 ] } },
{ "type": "Feature", "properties": { "P29_001": "24207", "P29_002": "C124220730024", "P29_003": "16002", "P29_004": "鈴鹿市立白鳥中学校", "P29_005": "三重県鈴鹿市加佐登3-1-1", "P29_006": "3", "P29_007": "1", "P29_008": "00", "P29_009": null }, "geometry": { "type": "Point", "coordinates": [ 136.526280485333018, 34.891055013760315 ] } },
{ "type": "Feature", "properties": { "P29_001": "24207", "P29_002": "C124220730033", "P29_003": "16002", "P29_004": "鈴鹿市立神戸中学校", "P29_005": "三重県鈴鹿市十宮町1335", "P29_006": "3", "P29_007": "1", "P29_008": "00", "P29_009": null }, "geometry": { "type": "Point", "coordinates": [ 136.575447462400405, 34.894132326206893 ] } },
{ "type": "Feature", "properties": { "P29_001": "24207", "P29_002": "C124220730042", "P29_003": "16002", "P29_004": "鈴鹿市立大木中学校", "P29_005": "三重県鈴鹿市北堀江2-15-1", "P29_006": "3", "P29_007": "1", "P29_008": "00", "P29_009": null }, "geometry": { "type": "Point", "coordinates": [ 136.627112879665646, 34.883249704228412 ] } },
{ "type": "Feature", "properties": { "P29_001": "24207", "P29_002": "C124220730051", "P29_003": "16002", "P29_004": "鈴鹿市立千代崎中学校", "P29_005": "三重県鈴鹿市東玉垣町2863", "P29_006": "3", "P29_007": "1", "P29_008": "00", "P29_009": null }, "geometry": { "type": "Point", "coordinates": [ 136.59477779422204, 34.860372011760333 ] } },
{ "type": "Feature", "properties": { "P29_001": "24207", "P29_002": "C124220730060", "P29_003": "16002", "P29_004": "鈴鹿市立白子中学校", "P29_005": "三重県鈴鹿市中旭が丘4-5-62", "P29_006": "3", "P29_007": "1", "P29_008": "00", "P29_009": null }, "geometry": { "type": "Point", "coordinates": [ 136.58008399572779, 34.841643995145212 ] } },
{ "type": "Feature", "properties": { "P29_001": "24207", "P29_002": "C124220730079", "P29_003": "16002", "P29_004": "鈴鹿市立天栄中学校", "P29_005": "三重県鈴鹿市秋永町1839", "P29_006": "3", "P29_007": "1", "P29_008": "00", "P29_009": null }, "geometry": { "type": "Point", "coordinates": [ 136.546493775824729, 34.819647337647268 ] } },
{ "type": "Feature", "properties": { "P29_001": "24207", "P29_002": "C124220730088", "P29_003": "16002", "P29_004": "鈴鹿市立鈴峰中学校", "P29_005": "三重県鈴鹿市長澤町1867-1", "P29_006": "3", "P29_007": "1", "P29_008": "00", "P29_009": null }, "geometry": { "type": "Point", "coordinates": [ 136.483931934554988, 34.930692639718764 ] } },
{ "type": "Feature", "properties": { "P29_001": "24207", "P29_002": "C124220730097", "P29_003": "16002", "P29_004": "鈴鹿市立鼓ヶ浦中学校", "P29_005": "三重県鈴鹿市寺家4-11-1", "P29_006": "3", "P29_007": "1", "P29_008": "00", "P29_009": null }, "geometry": { "type": "Point", "coordinates": [ 136.585208592351563, 34.824291457758108 ] } },
{ "type": "Feature", "properties": { "P29_001": "24207", "P29_002": "C124220730104", "P29_003": "16002", "P29_004": "鈴鹿市立創徳中学校", "P29_005": "三重県鈴鹿市三日市町1803-8", "P29_006": "3", "P29_007": "1", "P29_008": "00", "P29_009": null }, "geometry": { "type": "Point", "coordinates": [ 136.55444796007248, 34.866954041151061 ] } },
{ "type": "Feature", "properties": { "P29_001": "24208", "P29_002": "C124220830014", "P29_003": "16002", "P29_004": "名張市立名張中学校", "P29_005": "三重県名張市丸之内15", "P29_006": "3", "P29_007": "1", "P29_008": "00", "P29_009": null }, "geometry": { "type": "Point", "coordinates": [ 136.092428186500371, 34.621494734129151 ] } },
{ "type": "Feature", "properties": { "P29_001": "24208", "P29_002": "C124220830023", "P29_003": "16002", "P29_004": "名張市立赤目中学校", "P29_005": "三重県名張市箕曲中村219", "P29_006": "3", "P29_007": "1", "P29_008": "00", "P29_009": null }, "geometry": { "type": "Point", "coordinates": [ 136.081633669094231, 34.609202038802422 ] } },
{ "type": "Feature", "properties": { "P29_001": "24208", "P29_002": "C124220830032", "P29_003": "16002", "P29_004": "名張市立桔梗が丘中学校", "P29_005": "三重県名張市桔梗が丘7番町1街区1926-1", "P29_006": "3", "P29_007": "1", "P29_008": "00", "P29_009": null }, "geometry": { "type": "Point", "coordinates": [ 136.126247293939656, 34.647848809921207 ] } },
{ "type": "Feature", "properties": { "P29_001": "24208", "P29_002": "C124220830041", "P29_003": "16002", "P29_004": "名張市立北中学校", "P29_005": "三重県名張市美旗中村2380", "P29_006": "3", "P29_007": "1", "P29_008": "00", "P29_009": null }, "geometry": { "type": "Point", "coordinates": [ 136.119250942954295, 34.65279374307692 ] } },
{ "type": "Feature", "properties": { "P29_001": "24208", "P29_002": "C124220830050", "P29_003": "16002", "P29_004": "名張市立南中学校", "P29_005": "三重県名張市つつじが丘南1-241", "P29_006": "3", "P29_007": "1", "P29_008": "00", "P29_009": null }, "geometry": { "type": "Point", "coordinates": [ 136.13890449520099, 34.606233712461069 ] } },
{ "type": "Feature", "properties": { "P29_001": "24209", "P29_002": "C124220930013", "P29_003": "16002", "P29_004": "尾鷲市立尾鷲中学校", "P29_005": "三重県尾鷲市矢浜2-16-7", "P29_006": "3", "P29_007": "1", "P29_008": "00", "P29_009": null }, "geometry": { "type": "Point", "coordinates": [ 136.198112021305064, 34.06230194689676 ] } },
{ "type": "Feature", "properties": { "P29_001": "24209", "P29_002": "C124220930022", "P29_003": "16002", "P29_004": "尾鷲市立須賀利中学校", "P29_005": "三重県尾鷲市須賀利町387", "P29_006": "3", "P29_007": "9", "P29_008": "00", "P29_009": null }, "geometry": { "type": "Point", "coordinates": [ 136.264444043788046, 34.101977257615388 ] } },
{ "type": "Feature", "properties": { "P29_001": "24209", "P29_002": "C124220930031", "P29_003": "16002", "P29_004": "尾鷲市立北輪内中学校", "P29_005": "三重県尾鷲市三木里町205", "P29_006": "3", "P29_007": "9", "P29_008": "00", "P29_009": null }, "geometry": { "type": "Point", "coordinates": [ 136.212745343762322, 34.003453800836809 ] } },
{ "type": "Feature", "properties": { "P29_001": "24209", "P29_002": "C124220930040", "P29_003": "16002", "P29_004": "尾鷲市立輪内中学校", "P29_005": "三重県尾鷲市賀田町572", "P29_006": "3", "P29_007": "1", "P29_008": "00", "P29_009": null }, "geometry": { "type": "Point", "coordinates": [ 136.184141999964424, 33.974567004008698 ] } },
{ "type": "Feature", "properties": { "P29_001": "24210", "P29_002": "C124221030010", "P29_003": "16002", "P29_004": "亀山市立亀山中学校", "P29_005": "三重県亀山市西丸町564", "P29_006": "3", "P29_007": "1", "P29_008": "00", "P29_009": null }, "geometry": { "type": "Point", "coordinates": [ 136.448345457415826, 34.855732045731465 ] } },
{ "type": "Feature", "properties": { "P29_001": "24210", "P29_002": "C124221030029", "P29_003": "16002", "P29_004": "亀山市立中部中学校", "P29_005": "三重県亀山市田村町75", "P29_006": "3", "P29_007": "1", "P29_008": "00", "P29_009": null }, "geometry": { "type": "Point", "coordinates": [ 136.476198051184554, 34.87613291785113 ] } },
{ "type": "Feature", "properties": { "P29_001": "24210", "P29_002": "C124221030038", "P29_003": "16002", "P29_004": "亀山市立関中学校", "P29_005": "三重県亀山市関町新所1863", "P29_006": "3", "P29_007": "1", "P29_008": "00", "P29_009": null }, "geometry": { "type": "Point", "coordinates": [ 136.390220791103388, 34.856315709900784 ] } },
{ "type": "Feature", "properties": { "P29_001": "24211", "P29_002": "C124221130019", "P29_003": "16002", "P29_004": "鳥羽市立鳥羽東中学校", "P29_005": "三重県鳥羽市安楽島町1451-19", "P29_006": "3", "P29_007": "1", "P29_008": "00", "P29_009": null }, "geometry": { "type": "Point", "coordinates": [ 136.85010779964594, 34.464659937303992 ] } },
{ "type": "Feature", "properties": { "P29_001": "24211", "P29_002": "C124221130028", "P29_003": "16002", "P29_004": "鳥羽市立答志中学校", "P29_005": "三重県鳥羽市答志町2220-5", "P29_006": "3", "P29_007": "1", "P29_008": "00", "P29_009": null }, "geometry": { "type": "Point", "coordinates": [ 136.888030334904101, 34.521686532060905 ] } },
{ "type": "Feature", "properties": { "P29_001": "24211", "P29_002": "C124221130037", "P29_003": "16002", "P29_004": "鳥羽市立神島中学校", "P29_005": "三重県鳥羽市神島町358-3", "P29_006": "3", "P29_007": "1", "P29_008": "00", "P29_009": null }, "geometry": { "type": "Point", "coordinates": [ 136.982856086832385, 34.544801321949258 ] } },
{ "type": "Feature", "properties": { "P29_001": "24211", "P29_002": "C124221130046", "P29_003": "16002", "P29_004": "鳥羽市立加茂中学校", "P29_005": "三重県鳥羽市岩倉町105", "P29_006": "3", "P29_007": "1", "P29_008": "00", "P29_009": null }, "geometry": { "type": "Point", "coordinates": [ 136.841136236200668, 34.44818269195936 ] } },
{ "type": "Feature", "properties": { "P29_001": "24212", "P29_002": "C124221230018", "P29_003": "16002", "P29_004": "熊野市立荒坂中学校", "P29_005": "三重県熊野市二木島町432", "P29_006": "3", "P29_007": "1", "P29_008": "00", "P29_009": null }, "geometry": { "type": "Point", "coordinates": [ 136.177467774989623, 33.938059814878827 ] } },
{ "type": "Feature", "properties": { "P29_001": "24212", "P29_002": "C124221230027", "P29_003": "16002", "P29_004": "熊野市立新鹿中学校", "P29_005": "三重県熊野市新鹿町916-4", "P29_006": "3", "P29_007": "1", "P29_008": "00", "P29_009": null }, "geometry": { "type": "Point", "coordinates": [ 136.14008528296219, 33.932440327949124 ] } },
{ "type": "Feature", "properties": { "P29_001": "24212", "P29_002": "C124221230036", "P29_003": "16002", "P29_004": "熊野市立木本中学校", "P29_005": "三重県熊野市井戸町4877-1", "P29_006": "3", "P29_007": "1", "P29_008": "00", "P29_009": null }, "geometry": { "type": "Point", "coordinates": [ 136.093967515265234, 33.891932965150389 ] } },
{ "type": "Feature", "properties": { "P29_001": "24212", "P29_002": "C124221230045", "P29_003": "16002", "P29_004": "熊野市立有馬中学校", "P29_005": "三重県熊野市有馬町1398", "P29_006": "3", "P29_007": "1", "P29_008": "00", "P29_009": null }, "geometry": { "type": "Point", "coordinates": [ 136.081641791167584, 33.87968280096019 ] } },
{ "type": "Feature", "properties": { "P29_001": "24212", "P29_002": "C124221230054", "P29_003": "16002", "P29_004": "熊野市立神上中学校", "P29_005": "三重県熊野市神川町神上63", "P29_006": "3", "P29_007": "1", "P29_008": "00", "P29_009": null }, "geometry": { "type": "Point", "coordinates": [ 136.009037215283485, 33.946949082842004 ] } },
{ "type": "Feature", "properties": { "P29_001": "24212", "P29_002": "C124221230063", "P29_003": "16002", "P29_004": "熊野市立五郷中学校", "P29_005": "三重県熊野市五郷町桃崎1698-1", "P29_006": "3", "P29_007": "1", "P29_008": "00", "P29_009": null }, "geometry": { "type": "Point", "coordinates": [ 136.045790362728241, 33.984955907553115 ] } },
{ "type": "Feature", "properties": { "P29_001": "24212", "P29_002": "C124221230072", "P29_003": "16002", "P29_004": "熊野市立飛鳥中学校", "P29_005": "三重県熊野市飛鳥町小阪499", "P29_006": "3", "P29_007": "1", "P29_008": "00", "P29_009": null }, "geometry": { "type": "Point", "coordinates": [ 136.096187144813513, 33.942591424439918 ] } },
{ "type": "Feature", "properties": { "P29_001": "24212", "P29_002": "C124221230081", "P29_003": "16002", "P29_004": "熊野市立上川中学校", "P29_005": "三重県熊野市紀和町楊枝2", "P29_006": "3", "P29_007": "1", "P29_008": "00", "P29_009": null }, "geometry": { "type": "Point", "coordinates": [ 135.868641005121248, 33.812803999496644 ] } },
{ "type": "Feature", "properties": { "P29_001": "24212", "P29_002": "C124221230090", "P29_003": "16002", "P29_004": "熊野市立入鹿中学校", "P29_005": "三重県熊野市紀和町小栗須27", "P29_006": "3", "P29_007": "1", "P29_008": "00", "P29_009": null }, "geometry": { "type": "Point", "coordinates": [ 135.923561630491861, 33.879599870961407 ] } },
{ "type": "Feature", "properties": { "P29_001": "24212", "P29_002": "C124221230107", "P29_003": "16002", "P29_004": "熊野市立西山中学校", "P29_005": "三重県熊野市紀和町長尾1114", "P29_006": "3", "P29_007": "1", "P29_008": "00", "P29_009": null }, "geometry": { "type": "Point", "coordinates": [ 135.961043670741645, 33.905011757652552 ] } },
{ "type": "Feature", "properties": { "P29_001": "24214", "P29_002": "C124221430016", "P29_003": "16002", "P29_004": "いなべ市立北勢中学校", "P29_005": "三重県いなべ市北勢町阿下喜2480", "P29_006": "3", "P29_007": "1", "P29_008": "00", "P29_009": null }, "geometry": { "type": "Point", "coordinates": [ 136.526617220819844, 35.155415065073043 ] } },
{ "type": "Feature", "properties": { "P29_001": "24214", "P29_002": "C124221430025", "P29_003": "16002", "P29_004": "いなべ市立員弁中学校", "P29_005": "三重県いなべ市員弁町大泉新田1739", "P29_006": "3", "P29_007": "1", "P29_008": "00", "P29_009": null }, "geometry": { "type": "Point", "coordinates": [ 136.565693848446443, 35.108708549259291 ] } },
{ "type": "Feature", "properties": { "P29_001": "24214", "P29_002": "C124221430034", "P29_003": "16002", "P29_004": "いなべ市立大安中学校", "P29_005": "三重県いなべ市大安町石榑東2977", "P29_006": "3", "P29_007": "1", "P29_008": "00", "P29_009": null }, "geometry": { "type": "Point", "coordinates": [ 136.537491469397963, 35.099459556637974 ] } },
{ "type": "Feature", "properties": { "P29_001": "24214", "P29_002": "C124221430043", "P29_003": "16002", "P29_004": "いなべ市立藤原中学校", "P29_005": "三重県いなべ市藤原町市場491", "P29_006": "3", "P29_007": "1", "P29_008": "00", "P29_009": null }, "geometry": { "type": "Point", "coordinates": [ 136.491623925971425, 35.172849166436812 ] } },
{ "type": "Feature", "properties": { "P29_001": "24215", "P29_002": "C124221530015", "P29_003": "16002", "P29_004": "志摩市立浜島中学校", "P29_005": "三重県志摩市浜島町塩屋604-5", "P29_006": "3", "P29_007": "1", "P29_008": "00", "P29_009": null }, "geometry": { "type": "Point", "coordinates": [ 136.758392758370888, 34.307816322774926 ] } },
{ "type": "Feature", "properties": { "P29_001": "24215", "P29_002": "C124221530024", "P29_003": "16002", "P29_004": "志摩市立大王中学校", "P29_005": "三重県志摩市大王町波切1506-2", "P29_006": "3", "P29_007": "1", "P29_008": "00", "P29_009": null }, "geometry": { "type": "Point", "coordinates": [ 136.883061766389403, 34.278206981773366 ] } },
{ "type": "Feature", "properties": { "P29_001": "24215", "P29_002": "C124221530033", "P29_003": "16002", "P29_004": "志摩市立志摩中学校", "P29_005": "三重県志摩市志摩町和具303", "P29_006": "3", "P29_007": "1", "P29_008": "00", "P29_009": null }, "geometry": { "type": "Point", "coordinates": [ 136.811183910942134, 34.258850893295936 ] } },
{ "type": "Feature", "properties": { "P29_001": "24215", "P29_002": "C124221530042", "P29_003": "16002", "P29_004": "志摩市立文岡中学校", "P29_005": "三重県志摩市阿児町鵜方3347-2", "P29_006": "3", "P29_007": "1", "P29_008": "00", "P29_009": null }, "geometry": { "type": "Point", "coordinates": [ 136.825057262274072, 34.322662360259741 ] } },
{ "type": "Feature", "properties": { "P29_001": "24215", "P29_002": "C124221530051", "P29_003": "16002", "P29_004": "志摩市立東海中学校", "P29_005": "三重県志摩市阿児町甲賀2088-1", "P29_006": "3", "P29_007": "1", "P29_008": "00", "P29_009": null }, "geometry": { "type": "Point", "coordinates": [ 136.873929913649192, 34.317750798930327 ] } },
{ "type": "Feature", "properties": { "P29_001": "24215", "P29_002": "C124221530060", "P29_003": "16002", "P29_004": "志摩市立磯部中学校", "P29_005": "三重県志摩市磯部町恵利原1300", "P29_006": "3", "P29_007": "1", "P29_008": "00", "P29_009": null }, "geometry": { "type": "Point", "coordinates": [ 136.801166058786379, 34.374990131137267 ] } },
{ "type": "Feature", "properties": { "P29_001": "24216", "P29_002": "C124221630014", "P29_003": "16002", "P29_004": "伊賀市立崇広中学校", "P29_005": "三重県伊賀市上野丸之内78", "P29_006": "3", "P29_007": "1", "P29_008": "00", "P29_009": null }, "geometry": { "type": "Point", "coordinates": [ 136.124774348588574, 34.767985900691869 ] } },
{ "type": "Feature", "properties": { "P29_001": "24216", "P29_002": "C124221630023", "P29_003": "16002", "P29_004": "伊賀市立緑ケ丘中学校", "P29_005": "三重県伊賀市緑ケ丘本町4153", "P29_006": "3", "P29_007": "1", "P29_008": "00", "P29_009": null }, "geometry": { "type": "Point", "coordinates": [ 136.142655633318867, 34.758938083504503 ] } },
{ "type": "Feature", "properties": { "P29_001": "24216", "P29_002": "C124221630032", "P29_003": "16002", "P29_004": "伊賀市立城東中学校", "P29_005": "三重県伊賀市印代450", "P29_006": "3", "P29_007": "1", "P29_008": "00", "P29_009": null }, "geometry": { "type": "Point", "coordinates": [ 136.145662165563067, 34.786851506902359 ] } },
{ "type": "Feature", "properties": { "P29_001": "24216", "P29_002": "C124221630041", "P29_003": "16002", "P29_004": "伊賀市立上野南中学校", "P29_005": "三重県伊賀市森寺1488", "P29_006": "3", "P29_007": "1", "P29_008": "00", "P29_009": null }, "geometry": { "type": "Point", "coordinates": [ 136.141667650600539, 34.707907508684549 ] } },
{ "type": "Feature", "properties": { "P29_001": "24216", "P29_002": "C124221630050", "P29_003": "16002", "P29_004": "伊賀市立柘植中学校", "P29_005": "三重県伊賀市柘植町1881", "P29_006": "3", "P29_007": "1", "P29_008": "00", "P29_009": null }, "geometry": { "type": "Point", "coordinates": [ 136.238234125910537, 34.839494513598936 ] } },
{ "type": "Feature", "properties": { "P29_001": "24216", "P29_002": "C124221630069", "P29_003": "16002", "P29_004": "伊賀市立霊峰中学校", "P29_005": "三重県伊賀市新堂160", "P29_006": "3", "P29_007": "1", "P29_008": "00", "P29_009": null }, "geometry": { "type": "Point", "coordinates": [ 136.21142056787167, 34.820703956290203 ] } },
{ "type": "Feature", "properties": { "P29_001": "24216", "P29_002": "C124221630078", "P29_003": "16002", "P29_004": "伊賀市立島ヶ原中学校", "P29_005": "三重県伊賀市島ヶ原514-2", "P29_006": "3", "P29_007": "1", "P29_008": "00", "P29_009": null }, "geometry": { "type": "Point", "coordinates": [ 136.056720367069573, 34.777670583619567 ] } },
{ "type": "Feature", "properties": { "P29_001": "24216", "P29_002": "C124221630087", "P29_003": "16002", "P29_004": "伊賀市立阿山中学校", "P29_005": "三重県伊賀市千貝10", "P29_006": "3", "P29_007": "1", "P29_008": "00", "P29_009": null }, "geometry": { "type": "Point", "coordinates": [ 136.169464730760296, 34.83644300669863 ] } },
{ "type": "Feature", "properties": { "P29_001": "24216", "P29_002": "C124221630096", "P29_003": "16002", "P29_004": "伊賀市立大山田中学校", "P29_005": "三重県伊賀市平田655", "P29_006": "3", "P29_007": "1", "P29_008": "00", "P29_009": null }, "geometry": { "type": "Point", "coordinates": [ 136.221258820923566, 34.763934743249543 ] } },
{ "type": "Feature", "properties": { "P29_001": "24216", "P29_002": "C124221630103", "P29_003": "16002", "P29_004": "伊賀市立青山中学校", "P29_005": "三重県伊賀市阿保1870", "P29_006": "3", "P29_007": "1", "P29_008": "00", "P29_009": null }, "geometry": { "type": "Point", "coordinates": [ 136.184771525340238, 34.663390876932283 ] } },
{ "type": "Feature", "properties": { "P29_001": "24303", "P29_002": "C124230330018", "P29_003": "16002", "P29_004": "木曽岬町立木曽岬中学校", "P29_005": "三重県桑名郡木曽岬町中和泉361", "P29_006": "3", "P29_007": "1", "P29_008": "00", "P29_009": null }, "geometry": { "type": "Point", "coordinates": [ 136.744474570927565, 35.075400746977536 ] } },
{ "type": "Feature", "properties": { "P29_001": "24324", "P29_002": "C124232430013", "P29_003": "16002", "P29_004": "東員町立東員第一中学校", "P29_005": "三重県員弁郡東員町六把野新田557", "P29_006": "3", "P29_007": "1", "P29_008": "00", "P29_009": null }, "geometry": { "type": "Point", "coordinates": [ 136.600495038761068, 35.079465214449904 ] } },
{ "type": "Feature", "properties": { "P29_001": "24324", "P29_002": "C124232430022", "P29_003": "16002", "P29_004": "東員町立東員第二中学校", "P29_005": "三重県員弁郡東員町城山2-1", "P29_006": "3", "P29_007": "1", "P29_008": "00", "P29_009": null }, "geometry": { "type": "Point", "coordinates": [ 136.603578997717705, 35.10045200324106 ] } },
{ "type": "Feature", "properties": { "P29_001": "24341", "P29_002": "C124234130012", "P29_003": "16002", "P29_004": "菰野町立菰野中学校", "P29_005": "三重県三重郡菰野町菰野1192", "P29_006": "3", "P29_007": "1", "P29_008": "00", "P29_009": null }, "geometry": { "type": "Point", "coordinates": [ 136.516340732627015, 35.01570029374188 ] } },
{ "type": "Feature", "properties": { "P29_001": "24341", "P29_002": "C124234130021", "P29_003": "16002", "P29_004": "菰野町立八風中学校", "P29_005": "三重県三重郡菰野町田光3808-18", "P29_006": "3", "P29_007": "1", "P29_008": "00", "P29_009": null }, "geometry": { "type": "Point", "coordinates": [ 136.510854795688033, 35.069010436945291 ] } },
{ "type": "Feature", "properties": { "P29_001": "24343", "P29_002": "C124234330010", "P29_003": "16002", "P29_004": "朝日町立朝日中学校", "P29_005": "三重県三重郡朝日町大字柿2838", "P29_006": "3", "P29_007": "1", "P29_008": "00", "P29_009": null }, "geometry": { "type": "Point", "coordinates": [ 136.652617482135128, 35.038239842015109 ] } },
{ "type": "Feature", "properties": { "P29_001": "24344", "P29_002": "C124234430019", "P29_003": "16002", "P29_004": "川越町立川越中学校", "P29_005": "三重県三重郡川越町豊田一色67", "P29_006": "3", "P29_007": "1", "P29_008": "00", "P29_009": null }, "geometry": { "type": "Point", "coordinates": [ 136.670179997597245, 35.025108446728133 ] } },
{ "type": "Feature", "properties": { "P29_001": "24441", "P29_002": "C124244130011", "P29_003": "16002", "P29_004": "多気町立勢和中学校", "P29_005": "三重県多気郡多気町片野2254", "P29_006": "3", "P29_007": "1", "P29_008": "00", "P29_009": null }, "geometry": { "type": "Point", "coordinates": [ 136.459691619034544, 34.465219204748095 ] } },
{ "type": "Feature", "properties": { "P29_001": "24441", "P29_002": "C124244130020", "P29_003": "16002", "P29_004": "多気郡多気町松阪市学校組合立多気中学校", "P29_005": "三重県多気郡多気町相可1540", "P29_006": "3", "P29_007": "1", "P29_008": "00", "P29_009": null }, "geometry": { "type": "Point", "coordinates": [ 136.545448995818333, 34.499848865368236 ] } },
{ "type": "Feature", "properties": { "P29_001": "24442", "P29_002": "C124244230010", "P29_003": "16002", "P29_004": "明和町立明和中学校", "P29_005": "三重県多気郡明和町坂本1237-1", "P29_006": "3", "P29_007": "1", "P29_008": "00", "P29_009": null }, "geometry": { "type": "Point", "coordinates": [ 136.622372804210158, 34.548743347995355 ] } },
{ "type": "Feature", "properties": { "P29_001": "24443", "P29_002": "C124244330019", "P29_003": "16002", "P29_004": "大台町立大台中学校", "P29_005": "三重県多気郡大台町上三瀬903-1", "P29_006": "3", "P29_007": "1", "P29_008": "00", "P29_009": null }, "geometry": { "type": "Point", "coordinates": [ 136.414908815879016, 34.39826948070796 ] } },
{ "type": "Feature", "properties": { "P29_001": "24443", "P29_002": "C124244330028", "P29_003": "16002", "P29_004": "大台町立宮川中学校", "P29_005": "三重県多気郡大台町茂原643-8", "P29_006": "3", "P29_007": "1", "P29_008": "00", "P29_009": null }, "geometry": { "type": "Point", "coordinates": [ 136.329375448563667, 34.356626217809023 ] } },
{ "type": "Feature", "properties": { "P29_001": "24461", "P29_002": "C124246130016", "P29_003": "16002", "P29_004": "玉城町立玉城中学校", "P29_005": "三重県度会郡玉城町田丸114-1", "P29_006": "3", "P29_007": "1", "P29_008": "00", "P29_009": null }, "geometry": { "type": "Point", "coordinates": [ 136.62914991689712, 34.491338733927343 ] } },
{ "type": "Feature", "properties": { "P29_001": "24470", "P29_002": "C124247030015", "P29_003": "16002", "P29_004": "度会町立度会中学校", "P29_005": "三重県度会郡度会町棚橋300", "P29_006": "3", "P29_007": "1", "P29_008": "00", "P29_009": null }, "geometry": { "type": "Point", "coordinates": [ 136.626866368510434, 34.432620702021424 ] } },
{ "type": "Feature", "properties": { "P29_001": "24471", "P29_002": "C124247130014", "P29_003": "16002", "P29_004": "大紀町立大宮中学校", "P29_005": "三重県度会郡大紀町滝原1889-7", "P29_006": "3", "P29_007": "1", "P29_008": "00", "P29_009": null }, "geometry": { "type": "Point", "coordinates": [ 136.405894517977515, 34.350379805766458 ] } },
{ "type": "Feature", "properties": { "P29_001": "24471", "P29_002": "C124247130023", "P29_003": "16002", "P29_004": "大紀町立大紀中学校", "P29_005": "三重県度会郡大紀町崎291-3", "P29_006": "3", "P29_007": "1", "P29_008": "00", "P29_009": null }, "geometry": { "type": "Point", "coordinates": [ 136.392810034128757, 34.303016138124519 ] } },
{ "type": "Feature", "properties": { "P29_001": "24472", "P29_002": "C124247230013", "P29_003": "16002", "P29_004": "南伊勢町立南勢中学校", "P29_005": "三重県度会郡南伊勢町船越2100", "P29_006": "3", "P29_007": "1", "P29_008": "00", "P29_009": null }, "geometry": { "type": "Point", "coordinates": [ 136.686058433937262, 34.350261360403834 ] } },
{ "type": "Feature", "properties": { "P29_001": "24472", "P29_002": "C124247230022", "P29_003": "16002", "P29_004": "南伊勢町立南島中学校", "P29_005": "三重県度会郡南伊勢町東宮1033", "P29_006": "3", "P29_007": "1", "P29_008": "00", "P29_009": null }, "geometry": { "type": "Point", "coordinates": [ 136.54407591527351, 34.286712293643774 ] } },
{ "type": "Feature", "properties": { "P29_001": "24543", "P29_002": "C124254330018", "P29_003": "16002", "P29_004": "紀北町立紀北中学校", "P29_005": "三重県北牟婁郡紀北町長島444", "P29_006": "3", "P29_007": "1", "P29_008": "00", "P29_009": null }, "geometry": { "type": "Point", "coordinates": [ 136.326631228029981, 34.208666256497267 ] } },
{ "type": "Feature", "properties": { "P29_001": "24543", "P29_002": "C124254330027", "P29_003": "16002", "P29_004": "紀北町立赤羽中学校", "P29_005": "三重県北牟婁郡紀北町島原2697-2", "P29_006": "3", "P29_007": "1", "P29_008": "00", "P29_009": null }, "geometry": { "type": "Point", "coordinates": [ 136.301228350365648, 34.215874319518846 ] } },
{ "type": "Feature", "properties": { "P29_001": "24543", "P29_002": "C124254330036", "P29_003": "16002", "P29_004": "紀北町立潮南中学校", "P29_005": "三重県北牟婁郡紀北町相賀499-3", "P29_006": "3", "P29_007": "1", "P29_008": "00", "P29_009": null }, "geometry": { "type": "Point", "coordinates": [ 136.230570550402149, 34.110701678827503 ] } },
{ "type": "Feature", "properties": { "P29_001": "24543", "P29_002": "C124254330045", "P29_003": "16002", "P29_004": "紀北町立三船中学校", "P29_005": "三重県北牟婁郡紀北町上里543", "P29_006": "3", "P29_007": "1", "P29_008": "00", "P29_009": null }, "geometry": { "type": "Point", "coordinates": [ 136.224359492155259, 34.143923750876922 ] } },
{ "type": "Feature", "properties": { "P29_001": "24561", "P29_002": "C124256130015", "P29_003": "16002", "P29_004": "御浜町立御浜中学校", "P29_005": "三重県南牟婁郡御浜町志原1737", "P29_006": "3", "P29_007": "1", "P29_008": "00", "P29_009": null }, "geometry": { "type": "Point", "coordinates": [ 136.053778222104228, 33.844807357940766 ] } },
{ "type": "Feature", "properties": { "P29_001": "24561", "P29_002": "C124256130024", "P29_003": "16002", "P29_004": "御浜町立阿田和中学校", "P29_005": "三重県南牟婁郡御浜町阿田和3996-1", "P29_006": "3", "P29_007": "1", "P29_008": "00", "P29_009": null }, "geometry": { "type": "Point", "coordinates": [ 136.032930234909685, 33.792892131979045 ] } },
{ "type": "Feature", "properties": { "P29_001": "24561", "P29_002": "C124256130033", "P29_003": "16002", "P29_004": "御浜町立尾呂志学園中学校", "P29_005": "三重県南牟婁郡御浜町上野535-5", "P29_006": "3", "P29_007": "1", "P29_008": "00", "P29_009": null }, "geometry": { "type": "Point", "coordinates": [ 135.981291001522862, 33.854701001844283 ] } },
{ "type": "Feature", "properties": { "P29_001": "24562", "P29_002": "C124256230014", "P29_003": "16002", "P29_004": "紀宝町立相野谷中学校", "P29_005": "三重県南牟婁郡紀宝町大里1546", "P29_006": "3", "P29_007": "1", "P29_008": "00", "P29_009": null }, "geometry": { "type": "Point", "coordinates": [ 135.985506723933895, 33.782908896614948 ] } },
{ "type": "Feature", "properties": { "P29_001": "24562", "P29_002": "C124256230023", "P29_003": "16002", "P29_004": "紀宝町立矢渕中学校", "P29_005": "三重県南牟婁郡紀宝町鵜殿20", "P29_006": "3", "P29_007": "1", "P29_008": "00", "P29_009": null }, "geometry": { "type": "Point", "coordinates": [ 136.001948815727246, 33.734410720700211 ] } },
{ "type": "Feature", "properties": { "P29_001": "24201", "P29_002": "C124320135014", "P29_003": "16002", "P29_004": "高田中学校", "P29_005": "三重県津市一身田町2843", "P29_006": "4", "P29_007": "1", "P29_008": "00", "P29_009": null }, "geometry": { "type": "Point", "coordinates": [ 136.503600073802346, 34.764488584043967 ] } },
{ "type": "Feature", "properties": { "P29_001": "24201", "P29_002": "C124320135023", "P29_003": "16002", "P29_004": "セントヨゼフ女子学園中学校", "P29_005": "三重県津市半田1330", "P29_006": "4", "P29_007": "1", "P29_008": "00", "P29_009": null }, "geometry": { "type": "Point", "coordinates": [ 136.497478915415911, 34.704013824750724 ] } },
{ "type": "Feature", "properties": { "P29_001": "24202", "P29_002": "C124320235013", "P29_003": "16002", "P29_004": "暁中学校", "P29_005": "三重県四日市市萱生町238", "P29_006": "4", "P29_007": "1", "P29_008": "00", "P29_009": null }, "geometry": { "type": "Point", "coordinates": [ 136.597984026178409, 35.030609125843839 ] } },
{ "type": "Feature", "properties": { "P29_001": "24202", "P29_002": "C124320235022", "P29_003": "16002", "P29_004": "海星中学校", "P29_005": "三重県四日市市追分1-9-34", "P29_006": "4", "P29_007": "1", "P29_008": "00", "P29_009": null }, "geometry": { "type": "Point", "coordinates": [ 136.600224329478976, 34.9347763968536 ] } },
{ "type": "Feature", "properties": { "P29_001": "24202", "P29_002": "C124320235031", "P29_003": "16002", "P29_004": "四日市メリノール学院中学校", "P29_005": "三重県四日市市平尾町2800", "P29_006": "4", "P29_007": "1", "P29_008": "00", "P29_009": null }, "geometry": { "type": "Point", "coordinates": [ 136.569401113932258, 35.001165904881518 ] } },
{ "type": "Feature", "properties": { "P29_001": "24203", "P29_002": "C124320335012", "P29_003": "16002", "P29_004": "皇學館中学校", "P29_005": "三重県伊勢市楠部町138", "P29_006": "4", "P29_007": "1", "P29_008": "00", "P29_009": null }, "geometry": { "type": "Point", "coordinates": [ 136.729750692249468, 34.485991502782618 ] } },
{ "type": "Feature", "properties": { "P29_001": "24204", "P29_002": "C124320435011", "P29_003": "16002", "P29_004": "三重中学校", "P29_005": "三重県松阪市久保町1232", "P29_006": "4", "P29_007": "1", "P29_008": "00", "P29_009": null }, "geometry": { "type": "Point", "coordinates": [ 136.538963783978176, 34.548750910803648 ] } },
{ "type": "Feature", "properties": { "P29_001": "24205", "P29_002": "C124320535010", "P29_003": "16002", "P29_004": "津田学園中学校", "P29_005": "三重県桑名市野田5-3-12", "P29_006": "4", "P29_007": "1", "P29_008": "00", "P29_009": null }, "geometry": { "type": "Point", "coordinates": [ 136.624609927843181, 35.081668693445046 ] } },
{ "type": "Feature", "properties": { "P29_001": "24216", "P29_002": "C124321635017", "P29_003": "16002", "P29_004": "桜丘中学校", "P29_005": "三重県伊賀市下神戸2756", "P29_006": "4", "P29_007": "1", "P29_008": "00", "P29_009": null }, "geometry": { "type": "Point", "coordinates": [ 136.180023922767816, 34.684239624695458 ] } }
]
}
