{
"type": "FeatureCollection",
"name": "geo_24_各種学校",
"crs": { "type": "name", "properties": { "name": "urn:ogc:def:crs:EPSG::6668" } },
"features": [
{ "type": "Feature", "properties": { "P29_001": "24201", "P29_002": "H224320195019", "P29_003": "16015", "P29_004": "久居珠算簿記学校", "P29_005": "三重県津市久居幸町1125-2", "P29_006": "4", "P29_007": "0", "P29_008": "00", "P29_009": null }, "geometry": { "type": "Point", "coordinates": [ 136.470440116125616, 34.676509654612111 ] } },
{ "type": "Feature", "properties": { "P29_001": "24201", "P29_002": "H224320195028", "P29_003": "16015", "P29_004": "津珠算簿記学校", "P29_005": "三重県津市南中央19-23", "P29_006": "4", "P29_007": "0", "P29_008": "00", "P29_009": null }, "geometry": { "type": "Point", "coordinates": [ 136.509214396590039, 34.707575642394247 ] } },
{ "type": "Feature", "properties": { "P29_001": "24201", "P29_002": "H224320195037", "P29_003": "16015", "P29_004": "椋本珠算学校", "P29_005": "三重県津市芸濃町椋本5126-1", "P29_006": "4", "P29_007": "0", "P29_008": "00", "P29_009": null }, "geometry": { "type": "Point", "coordinates": [ 136.426881324075708, 34.810057487523622 ] } },
{ "type": "Feature", "properties": { "P29_001": "24201", "P29_002": "H224320195046", "P29_003": "16015", "P29_004": "津橋南珠算学校", "P29_005": "三重県津市阿漕町1145-1", "P29_006": "4", "P29_007": "0", "P29_008": "00", "P29_009": null }, "geometry": { "type": "Point", "coordinates": [ 136.515342800450583, 34.703013666599276 ] } },
{ "type": "Feature", "properties": { "P29_001": "24201", "P29_002": "H224320195055", "P29_003": "16015", "P29_004": "三重日本語学校", "P29_005": "三重県津市中央3-31", "P29_006": "4", "P29_007": "0", "P29_008": "00", "P29_009": null }, "geometry": { "type": "Point", "coordinates": [ 136.507836373557268, 34.720066444501278 ] } },
{ "type": "Feature", "properties": { "P29_001": "24202", "P29_002": "H224320295018", "P29_003": "16015", "P29_004": "共興高等商業学校", "P29_005": "三重県四日市市東日野町1677", "P29_006": "4", "P29_007": "0", "P29_008": "00", "P29_009": null }, "geometry": { "type": "Point", "coordinates": [ 136.593225397973356, 34.956347345583879 ] } },
{ "type": "Feature", "properties": { "P29_001": "24202", "P29_002": "H224320295027", "P29_003": "16015", "P29_004": "日野珠算学校", "P29_005": "三重県四日市市中部20-5", "P29_006": "4", "P29_007": "0", "P29_008": "00", "P29_009": null }, "geometry": { "type": "Point", "coordinates": [ 136.627374296183888, 34.9701967096792 ] } },
{ "type": "Feature", "properties": { "P29_001": "24202", "P29_002": "H224320295036", "P29_003": "16015", "P29_004": "富田珠算学園", "P29_005": "三重県四日市市東富田28-33", "P29_006": "4", "P29_007": "0", "P29_008": "00", "P29_009": null }, "geometry": { "type": "Point", "coordinates": [ 136.658647027474075, 35.003414888026427 ] } },
{ "type": "Feature", "properties": { "P29_001": "24202", "P29_002": "H224320295054", "P29_003": "16015", "P29_004": "泰翠学園", "P29_005": "三重県四日市市鵜の森1-10-20", "P29_006": "4", "P29_007": "0", "P29_008": "00", "P29_009": null }, "geometry": { "type": "Point", "coordinates": [ 136.615260695759986, 34.965916012852162 ] } },
{ "type": "Feature", "properties": { "P29_001": "24202", "P29_002": "H224320295063", "P29_003": "16015", "P29_004": "四日市朝鮮初中級学校", "P29_005": "三重県四日市市阿倉川町8-30", "P29_006": "4", "P29_007": "0", "P29_008": "00", "P29_009": null }, "geometry": { "type": "Point", "coordinates": [ 136.629895752376285, 34.985406454610903 ] } },
{ "type": "Feature", "properties": { "P29_001": "24202", "P29_002": "H224320295081", "P29_003": "16015", "P29_004": "ニッケン学園", "P29_005": "三重県四日市市富士町8-66", "P29_006": "4", "P29_007": "0", "P29_008": "00", "P29_009": null }, "geometry": { "type": "Point", "coordinates": [ 136.642378859024632, 34.98608619231733 ] } },
{ "type": "Feature", "properties": { "P29_001": "24203", "P29_002": "H224320395017", "P29_003": "16015", "P29_004": "小俣珠算実務学校", "P29_005": "三重県伊勢市小俣町元町782", "P29_006": "4", "P29_007": "0", "P29_008": "00", "P29_009": null }, "geometry": { "type": "Point", "coordinates": [ 136.676247766777237, 34.50620209796088 ] } },
{ "type": "Feature", "properties": { "P29_001": "24203", "P29_002": "H224320395026", "P29_003": "16015", "P29_004": "伊勢地区医師会准看護学校", "P29_005": "三重県伊勢市勢田町613-12", "P29_006": "4", "P29_007": "0", "P29_008": "00", "P29_009": null }, "geometry": { "type": "Point", "coordinates": [ 136.710242880331379, 34.480970932961874 ] } },
{ "type": "Feature", "properties": { "P29_001": "24204", "P29_002": "H224320495016", "P29_003": "16015", "P29_004": "パリス文化服装学院", "P29_005": "三重県松阪市本町2086", "P29_006": "4", "P29_007": "0", "P29_008": "00", "P29_009": null }, "geometry": { "type": "Point", "coordinates": [ 136.532205626106531, 34.579035435359948 ] } },
{ "type": "Feature", "properties": { "P29_001": "24204", "P29_002": "H224320495025", "P29_003": "16015", "P29_004": "向陽台総合学院", "P29_005": "三重県松阪市春日町2-82", "P29_006": "4", "P29_007": "0", "P29_008": "00", "P29_009": null }, "geometry": { "type": "Point", "coordinates": [ 136.53097502654245, 34.56476952064196 ] } },
{ "type": "Feature", "properties": { "P29_001": "24205", "P29_002": "H224320595015", "P29_003": "16015", "P29_004": "聖心珠算学園", "P29_005": "三重県桑名市一色町58", "P29_006": "4", "P29_007": "0", "P29_008": "00", "P29_009": null }, "geometry": { "type": "Point", "coordinates": [ 136.690668606840489, 35.060497526620935 ] } },
{ "type": "Feature", "properties": { "P29_001": "24205", "P29_002": "H224320595024", "P29_003": "16015", "P29_004": "長島珠算学園", "P29_005": "三重県桑名市長島町西外面2021-2", "P29_006": "4", "P29_007": "0", "P29_008": "00", "P29_009": null }, "geometry": { "type": "Point", "coordinates": [ 136.698492075179331, 35.097289593660861 ] } },
{ "type": "Feature", "properties": { "P29_001": "24207", "P29_002": "H224320795013", "P29_003": "16015", "P29_004": "ＮＤＣ技芸教育連盟", "P29_005": "三重県鈴鹿市江島町1688", "P29_006": "4", "P29_007": "0", "P29_008": "00", "P29_009": null }, "geometry": { "type": "Point", "coordinates": [ 136.591716134789181, 34.847258463412054 ] } },
{ "type": "Feature", "properties": { "P29_001": "24207", "P29_002": "H224320795022", "P29_003": "16015", "P29_004": "三鈴実務珠算學校", "P29_005": "三重県鈴鹿市住吉1-11-8", "P29_006": "4", "P29_007": "0", "P29_008": "00", "P29_009": null }, "geometry": { "type": "Point", "coordinates": [ 136.539796230999769, 34.863745702699433 ] } },
{ "type": "Feature", "properties": { "P29_001": "24207", "P29_002": "H224320795031", "P29_003": "16015", "P29_004": "神戸速算学校", "P29_005": "三重県鈴鹿市神戸2-9-24", "P29_006": "4", "P29_007": "0", "P29_008": "00", "P29_009": null }, "geometry": { "type": "Point", "coordinates": [ 136.580295283701162, 34.880590794386329 ] } },
{ "type": "Feature", "properties": { "P29_001": "24207", "P29_002": "H224320795040", "P29_003": "16015", "P29_004": "伯人学校イーエーエス鈴鹿", "P29_005": "三重県鈴鹿市道伯5-23-29", "P29_006": "4", "P29_007": "0", "P29_008": "00", "P29_009": null }, "geometry": { "type": "Point", "coordinates": [ 136.548176515613363, 34.86403067153109 ] } },
{ "type": "Feature", "properties": { "P29_001": "24208", "P29_002": "H224320895012", "P29_003": "16015", "P29_004": "錦花技藝女学校", "P29_005": "三重県名張市新町180", "P29_006": "4", "P29_007": "0", "P29_008": "00", "P29_009": null }, "geometry": { "type": "Point", "coordinates": [ 136.085686448350998, 34.618796503475792 ] } },
{ "type": "Feature", "properties": { "P29_001": "24208", "P29_002": "H224320895021", "P29_003": "16015", "P29_004": "すみれ文化服装学院", "P29_005": "三重県名張市栄町2935-18", "P29_006": "4", "P29_007": "0", "P29_008": "00", "P29_009": null }, "geometry": { "type": "Point", "coordinates": [ 136.094136929202563, 34.621752663402482 ] } },
{ "type": "Feature", "properties": { "P29_001": "24208", "P29_002": "H224320895030", "P29_003": "16015", "P29_004": "竹島珠算簿記学校", "P29_005": "三重県名張市桔梗が丘6-3-92", "P29_006": "4", "P29_007": "0", "P29_008": "00", "P29_009": null }, "geometry": { "type": "Point", "coordinates": [ 136.124064053464366, 34.648261818940838 ] } },
{ "type": "Feature", "properties": { "P29_001": "24208", "P29_002": "H224320895049", "P29_003": "16015", "P29_004": "昇英塾名張本校", "P29_005": "三重県名張市平尾3165-11", "P29_006": "4", "P29_007": "0", "P29_008": "00", "P29_009": null }, "geometry": { "type": "Point", "coordinates": [ 136.097797026844489, 34.618860670491259 ] } },
{ "type": "Feature", "properties": { "P29_001": "24208", "P29_002": "H224320895058", "P29_003": "16015", "P29_004": "昇英塾つつじが丘校", "P29_005": "三重県名張市つつじが丘北3-4-17", "P29_006": "4", "P29_007": "0", "P29_008": "00", "P29_009": null }, "geometry": { "type": "Point", "coordinates": [ 136.132011151390515, 34.607524887215241 ] } },
{ "type": "Feature", "properties": { "P29_001": "24208", "P29_002": "H224320895067", "P29_003": "16015", "P29_004": "昇英塾桔梗が丘校", "P29_005": "三重県名張市桔梗が丘5-1-10", "P29_006": "4", "P29_007": "0", "P29_008": "00", "P29_009": null }, "geometry": { "type": "Point", "coordinates": [ 136.122453952210407, 34.641011750882129 ] } },
{ "type": "Feature", "properties": { "P29_001": "24208", "P29_002": "H224320895076", "P29_003": "16015", "P29_004": "昇英塾梅が丘校", "P29_005": "三重県名張市梅が丘北3-286", "P29_006": "4", "P29_007": "0", "P29_008": "00", "P29_009": null }, "geometry": { "type": "Point", "coordinates": [ 136.087236006920449, 34.636766637539317 ] } },
{ "type": "Feature", "properties": { "P29_001": "24208", "P29_002": "H224320895085", "P29_003": "16015", "P29_004": "昇英塾百合が丘校", "P29_005": "三重県名張市百合が丘西1-143", "P29_006": "4", "P29_007": "0", "P29_008": "00", "P29_009": null }, "geometry": { "type": "Point", "coordinates": [ 136.100021953586605, 34.608274002653026 ] } },
{ "type": "Feature", "properties": { "P29_001": "24215", "P29_002": "H224321595013", "P29_003": "16015", "P29_004": "浜島珠算学校", "P29_005": "三重県志摩市浜島町浜島827-11", "P29_006": "4", "P29_007": "0", "P29_008": "00", "P29_009": null }, "geometry": { "type": "Point", "coordinates": [ 136.754852755408535, 34.297410202968351 ] } },
{ "type": "Feature", "properties": { "P29_001": "24215", "P29_002": "H224321595022", "P29_003": "16015", "P29_004": "関西珠算学院", "P29_005": "三重県志摩市阿児町鵜方1938-2", "P29_006": "4", "P29_007": "0", "P29_008": "00", "P29_009": null }, "geometry": { "type": "Point", "coordinates": [ 136.826735106263186, 34.332710094453653 ] } },
{ "type": "Feature", "properties": { "P29_001": "24216", "P29_002": "H224321695012", "P29_003": "16015", "P29_004": "昇英塾桐ヶ丘校", "P29_005": "三重県伊賀市桐ヶ丘5-37", "P29_006": "4", "P29_007": "0", "P29_008": "00", "P29_009": null }, "geometry": { "type": "Point", "coordinates": [ 136.193326920679482, 34.662767021855224 ] } },
{ "type": "Feature", "properties": { "P29_001": "24216", "P29_002": "H224321695021", "P29_003": "16015", "P29_004": "昇英塾伊賀上野城下町校", "P29_005": "三重県伊賀市上野丸之内19-6", "P29_006": "4", "P29_007": "0", "P29_008": "00", "P29_009": null }, "geometry": { "type": "Point", "coordinates": [ 136.127405836848425, 34.766947614982662 ] } },
{ "type": "Feature", "properties": { "P29_001": "24343", "P29_002": "H224334395018", "P29_003": "16015", "P29_004": "朝日珠算学園", "P29_005": "三重県三重郡朝日町小向562-2", "P29_006": "4", "P29_007": "0", "P29_008": "00", "P29_009": null }, "geometry": { "type": "Point", "coordinates": [ 136.665666954284461, 35.034148035396925 ] } },
{ "type": "Feature", "properties": { "P29_001": "24472", "P29_002": "H224347295011", "P29_003": "16015", "P29_004": "倉田計理学校", "P29_005": "三重県度会郡南伊勢町五ヶ所浦3170-4", "P29_006": "4", "P29_007": "0", "P29_008": "00", "P29_009": null }, "geometry": { "type": "Point", "coordinates": [ 136.702761654561783, 34.350958688716418 ] } }
]
}
