{
"type": "FeatureCollection",
"name": "geo_24_認知症対応型共同生活介護",
"crs": { "type": "name", "properties": { "name": "urn:ogc:def:crs:OGC:1.3:CRS84" } },
"features": [
{ "type": "Feature", "properties": { "内容": "グループホームコロナ【認知症対応型共同生活介護】津市大里窪田町1706-26", "url": "https://www.kaigokensaku.mhlw.go.jp/24/index.php?action_kouhyou_detail_004_kani=true&JigyosyoCd=2470501509-00&ServiceCd=320&Type=search", "url2": null }, "geometry": { "type": "Point", "coordinates": [ 136.489972599999987, 34.7702926 ] } },
{ "type": "Feature", "properties": { "内容": "グループホームつくしんぼ一色【認知症対応型共同生活介護】三重県津市一色町２４０", "url": "https://www.kaigokensaku.mhlw.go.jp/24/index.php?action_kouhyou_detail_004_kani=true&JigyosyoCd=2470501608-00&ServiceCd=320&Type=search", "url2": "http://www.tukusinbo.info" }, "geometry": { "type": "Point", "coordinates": [ 136.4755983, 34.7296048 ] } },
{ "type": "Feature", "properties": { "内容": "グループホームつくしんぼ【認知症対応型共同生活介護】三重県津市片田志袋町３００番地１８１", "url": "https://www.kaigokensaku.mhlw.go.jp/24/index.php?action_kouhyou_detail_004_kani=true&JigyosyoCd=2470500667-00&ServiceCd=320&Type=search", "url2": null }, "geometry": { "type": "Point", "coordinates": [ 136.4475079, 34.7164281 ] } },
{ "type": "Feature", "properties": { "内容": "グループホーム　おたっしゃ長屋【認知症対応型共同生活介護】三重県津市野田１６５", "url": "https://www.kaigokensaku.mhlw.go.jp/24/index.php?action_kouhyou_detail_004_kani=true&JigyosyoCd=2470501657-00&ServiceCd=320&Type=search", "url2": "otassyanagaya.wixsite.com" }, "geometry": { "type": "Point", "coordinates": [ 136.467263799999927, 34.7189839 ] } },
{ "type": "Feature", "properties": { "内容": "愛の家グループホーム一志【認知症対応型共同生活介護】三重県津市一志町井生220-1愛の家グループホーム一志", "url": "https://www.kaigokensaku.mhlw.go.jp/24/index.php?action_kouhyou_detail_004_kani=true&JigyosyoCd=2490500135-00&ServiceCd=320&Type=search", "url2": "http://www.mcsg.co.jp" }, "geometry": { "type": "Point", "coordinates": [ 136.3953421, 34.6438561 ] } },
{ "type": "Feature", "properties": { "内容": "グル－プホ－ムふるさと【認知症対応型共同生活介護】三重県津市戸木町4113-56", "url": "https://www.kaigokensaku.mhlw.go.jp/24/index.php?action_kouhyou_detail_004_kani=true&JigyosyoCd=2470600285-00&ServiceCd=320&Type=search", "url2": null }, "geometry": { "type": "Point", "coordinates": [ 136.44685329999993, 34.6861656 ] } },
{ "type": "Feature", "properties": { "内容": "グループホーム潮風【認知症対応型共同生活介護】三重県津市阿漕町津興２１４－２", "url": "https://www.kaigokensaku.mhlw.go.jp/24/index.php?action_kouhyou_detail_004_kani=true&JigyosyoCd=2470501418-00&ServiceCd=320&Type=search", "url2": null }, "geometry": { "type": "Point", "coordinates": [ 136.518429800000035, 34.7011796 ] } },
{ "type": "Feature", "properties": { "内容": "グループホーム　くつろぎの家【認知症対応型共同生活介護】三重県津市河芸町東千里１３－２", "url": "https://www.kaigokensaku.mhlw.go.jp/24/index.php?action_kouhyou_detail_004_kani=true&JigyosyoCd=2472400262-00&ServiceCd=320&Type=search", "url2": null }, "geometry": { "type": "Point", "coordinates": [ 136.552496499999961, 34.8022823 ] } },
{ "type": "Feature", "properties": { "内容": "グループホーム　なのはな【認知症対応型共同生活介護】三重県津市柳山津興3306", "url": "https://www.kaigokensaku.mhlw.go.jp/24/index.php?action_kouhyou_detail_004_kani=true&JigyosyoCd=2470501574-00&ServiceCd=320&Type=search", "url2": null }, "geometry": { "type": "Point", "coordinates": [ 136.5118443, 34.7080368 ] } },
{ "type": "Feature", "properties": { "内容": "社会福祉法人　寿泉会　八幡園　サテライト型グループホーム【認知症対応型共同生活介護】三重県津市津興2947番地", "url": "https://www.kaigokensaku.mhlw.go.jp/24/index.php?action_kouhyou_detail_004_kani=true&JigyosyoCd=2470500782-00&ServiceCd=320&Type=search", "url2": "www.pmc.cr.jp/yahata/" }, "geometry": { "type": "Point", "coordinates": [ 136.509822799999938, 34.6994185 ] } },
{ "type": "Feature", "properties": { "内容": "しおりの里グループホーム【認知症対応型共同生活介護】三重県津市野田2033番地1", "url": "https://www.kaigokensaku.mhlw.go.jp/24/index.php?action_kouhyou_detail_004_kani=true&JigyosyoCd=2490500051-00&ServiceCd=320&Type=search", "url2": null }, "geometry": { "type": "Point", "coordinates": [ 136.462608153011843, 34.709399680925735 ] } },
{ "type": "Feature", "properties": { "内容": "グループホーム　ひまわり【認知症対応型共同生活介護】三重県津市戸木町4113-11", "url": "https://www.kaigokensaku.mhlw.go.jp/24/index.php?action_kouhyou_detail_004_kani=true&JigyosyoCd=2470600368-00&ServiceCd=320&Type=search", "url2": null }, "geometry": { "type": "Point", "coordinates": [ 136.446916110836838, 34.686768555891369 ] } },
{ "type": "Feature", "properties": { "内容": "グループホーム青い鳥【認知症対応型共同生活介護】津市豊が丘二丁目38番6号", "url": "https://www.kaigokensaku.mhlw.go.jp/24/index.php?action_kouhyou_detail_004_kani=true&JigyosyoCd=2470501640-00&ServiceCd=320&Type=search", "url2": "https://www.zc.ztv.ne.jp/aoitori/index.htm" }, "geometry": { "type": "Point", "coordinates": [ 136.470602099999951, 34.807883 ] } },
{ "type": "Feature", "properties": { "内容": "シルバータウンあのうグループホーム【認知症対応型共同生活介護】津市安濃町田端上野892-1", "url": "https://www.kaigokensaku.mhlw.go.jp/24/index.php?action_kouhyou_detail_004_kani=true&JigyosyoCd=2472400361-00&ServiceCd=320&Type=search", "url2": "http://www.akeai.or.jp/" }, "geometry": { "type": "Point", "coordinates": [ 136.441043499999978, 34.764971 ] } },
{ "type": "Feature", "properties": { "内容": "地域総合ケアセンター認知症対応型グループホームシルバーケア豊壽園【認知症対応型共同生活介護】三重県津市高茶屋小森町4159", "url": "https://www.kaigokensaku.mhlw.go.jp/24/index.php?action_kouhyou_detail_004_kani=true&JigyosyoCd=2470500188-00&ServiceCd=320&Type=search", "url2": "http://www.sensin.or.jp" }, "geometry": { "type": "Point", "coordinates": [ 136.495360339286776, 34.672785806212346 ] } },
{ "type": "Feature", "properties": { "内容": "グループホームフルハウス【認知症対応型共同生活介護】三重県津市香良洲町1991-1", "url": "https://www.kaigokensaku.mhlw.go.jp/24/index.php?action_kouhyou_detail_004_kani=true&JigyosyoCd=2472500137-00&ServiceCd=320&Type=search", "url2": "https://hamayu-kai.or.jp" }, "geometry": { "type": "Point", "coordinates": [ 136.54102686136855, 34.640931393546289 ] } },
{ "type": "Feature", "properties": { "内容": "グループホームなごみ苑【認知症対応型共同生活介護】三重県津市豊が丘２丁目４－５", "url": "https://www.kaigokensaku.mhlw.go.jp/24/index.php?action_kouhyou_detail_004_kani=true&JigyosyoCd=2490500184-00&ServiceCd=320&Type=search", "url2": null }, "geometry": { "type": "Point", "coordinates": [ 136.469719, 34.8062804 ] } },
{ "type": "Feature", "properties": { "内容": "安東苑【認知症対応型共同生活介護】三重県津市安東町２００４", "url": "https://www.kaigokensaku.mhlw.go.jp/24/index.php?action_kouhyou_detail_004_kani=true&JigyosyoCd=2470501392-00&ServiceCd=320&Type=search", "url2": null }, "geometry": { "type": "Point", "coordinates": [ 136.467079499999954, 34.7445327 ] } },
{ "type": "Feature", "properties": { "内容": "グループホーム白山【認知症対応型共同生活介護】津市白山町南出９５４", "url": "https://www.kaigokensaku.mhlw.go.jp/24/index.php?action_kouhyou_detail_004_kani=true&JigyosyoCd=2470501939-00&ServiceCd=320&Type=search", "url2": null }, "geometry": { "type": "Point", "coordinates": [ 136.344213200000013, 34.6641511 ] } },
{ "type": "Feature", "properties": { "内容": "シルバータウン久居　寿梨庵【認知症対応型共同生活介護】三重県津市久居明神町１５５３－１０", "url": "https://www.kaigokensaku.mhlw.go.jp/24/index.php?action_kouhyou_detail_004_kani=true&JigyosyoCd=2470600350-00&ServiceCd=320&Type=search", "url2": "http//www.akeai.or.jp" }, "geometry": { "type": "Point", "coordinates": [ 136.471250599999962, 34.6912211 ] } },
{ "type": "Feature", "properties": { "内容": "高齢者グループホーム　水仙の家【認知症対応型共同生活介護】津市高洲町33-6番地", "url": "https://www.kaigokensaku.mhlw.go.jp/24/index.php?action_kouhyou_detail_004_kani=true&JigyosyoCd=2470500758-00&ServiceCd=320&Type=search", "url2": "http://chidori-kai.jp" }, "geometry": { "type": "Point", "coordinates": [ 136.527497499999981, 34.7276337 ] } },
{ "type": "Feature", "properties": { "内容": "高齢者グループホーム　あじさいの家【認知症対応型共同生活介護】津市高洲町17番17号", "url": "https://www.kaigokensaku.mhlw.go.jp/24/index.php?action_kouhyou_detail_004_kani=true&JigyosyoCd=2470501582-00&ServiceCd=320&Type=search", "url2": "https://chidori-kai.jp" }, "geometry": { "type": "Point", "coordinates": [ 136.527442, 34.7267782 ] } },
{ "type": "Feature", "properties": { "内容": "グループホーム　にのみの家【認知症対応型共同生活介護】津市新家町1488", "url": "https://www.kaigokensaku.mhlw.go.jp/24/index.php?action_kouhyou_detail_004_kani=true&JigyosyoCd=2470600418-00&ServiceCd=320&Type=search", "url2": "https://www.hisaikotsu.co.jp/iseonsen/ghome_ninomiya/index.html" }, "geometry": { "type": "Point", "coordinates": [ 136.484817199999952, 34.6634527 ] } },
{ "type": "Feature", "properties": { "内容": "シルバータウン新町グループホーム【認知症対応型共同生活介護】三重県津市南丸之内222-21", "url": "https://www.kaigokensaku.mhlw.go.jp/24/index.php?action_kouhyou_detail_004_kani=true&JigyosyoCd=2470501954-00&ServiceCd=320&Type=search", "url2": "http://www.akeai.or.jp/" }, "geometry": { "type": "Point", "coordinates": [ 136.500176353025864, 34.714899948175599 ] } },
{ "type": "Feature", "properties": { "内容": "グループホーム琴葉はつらつ【認知症対応型共同生活介護】三重県津市芸濃町椋本5481-2", "url": "https://www.kaigokensaku.mhlw.go.jp/24/index.php?action_kouhyou_detail_004_kani=true&JigyosyoCd=2490500713-00&ServiceCd=320&Type=search", "url2": null }, "geometry": { "type": "Point", "coordinates": [ 136.4294314, 34.8204132 ] } },
{ "type": "Feature", "properties": { "内容": "グループホームとのむら【認知症対応型共同生活介護】三重県津市殿村１５５３番地グループホームとのむら", "url": "https://www.kaigokensaku.mhlw.go.jp/24/index.php?action_kouhyou_detail_004_kani=true&JigyosyoCd=2470501541-00&ServiceCd=320&Type=search", "url2": "http://www.tonomura-web.com" }, "geometry": { "type": "Point", "coordinates": [ 136.462864200000013, 34.7234525 ] } },
{ "type": "Feature", "properties": { "内容": "グループホーム渚園【認知症対応型共同生活介護】柳山津興３８２－４", "url": "https://www.kaigokensaku.mhlw.go.jp/24/index.php?action_kouhyou_detail_004_kani=true&JigyosyoCd=2470500675-00&ServiceCd=320&Type=search", "url2": null }, "geometry": { "type": "Point", "coordinates": [ 136.521329, 34.7097534 ] } },
{ "type": "Feature", "properties": { "内容": "グル－プホ－ム萩の家【認知症対応型共同生活介護】三重県津市久居井戸山町751番地1", "url": "https://www.kaigokensaku.mhlw.go.jp/24/index.php?action_kouhyou_detail_004_kani=true&JigyosyoCd=2470600228-00&ServiceCd=320&Type=search", "url2": "http://www.inoue-med.com/" }, "geometry": { "type": "Point", "coordinates": [ 136.48250059999998, 34.6688131 ] } },
{ "type": "Feature", "properties": { "内容": "グループホーム・レモンの里【認知症対応型共同生活介護】三重県津市神納４１８－１グループホーム・レモンの里", "url": "https://www.kaigokensaku.mhlw.go.jp/24/index.php?action_kouhyou_detail_004_kani=true&JigyosyoCd=2490500564-00&ServiceCd=320&Type=search", "url2": "http://care-net.biz/.24/lemon-mie/" }, "geometry": { "type": "Point", "coordinates": [ 136.48664871772155, 34.718105867475238 ] } },
{ "type": "Feature", "properties": { "内容": "グループホーム　たんぽぽ【認知症対応型共同生活介護】津市津興140-6", "url": "https://www.kaigokensaku.mhlw.go.jp/24/index.php?action_kouhyou_detail_004_kani=true&JigyosyoCd=2490500028-00&ServiceCd=320&Type=search", "url2": "http://www.welfare-mie.jp/gh-tanpopo/" }, "geometry": { "type": "Point", "coordinates": [ 136.5195771, 34.6966551 ] } },
{ "type": "Feature", "properties": { "内容": "グループホームおり鶴【認知症対応型共同生活介護】三重県四日市市南小松町６３２番地グループホーム　おり鶴", "url": "https://www.kaigokensaku.mhlw.go.jp/24/index.php?action_kouhyou_detail_004_kani=true&JigyosyoCd=2490200223-00&ServiceCd=320&Type=search", "url2": "http://www6.cty-net.ne.jp/~orizuru/" }, "geometry": { "type": "Point", "coordinates": [ 136.56382629999996, 34.9198152 ] } },
{ "type": "Feature", "properties": { "内容": "桜グループホーム【認知症対応型共同生活介護】四日市市智積町1095番地", "url": "https://www.kaigokensaku.mhlw.go.jp/24/index.php?action_kouhyou_detail_004_kani=true&JigyosyoCd=2490200215-00&ServiceCd=320&Type=search", "url2": "https://seizanrikai.jp" }, "geometry": { "type": "Point", "coordinates": [ 136.541991400000029, 34.995794 ] } },
{ "type": "Feature", "properties": { "内容": "うぃるグループホーム泊【認知症対応型共同生活介護】三重県四日市市泊山崎町2-11", "url": "https://www.kaigokensaku.mhlw.go.jp/24/index.php?action_kouhyou_detail_004_kani=true&JigyosyoCd=2490200371-00&ServiceCd=320&Type=search", "url2": "w-holdings.jp" }, "geometry": { "type": "Point", "coordinates": [ 136.597526799999969, 34.9406221 ] } },
{ "type": "Feature", "properties": { "内容": "うぃるグループホーム尾平【認知症対応型共同生活介護】三重県四日市市尾平町3803-11", "url": "https://www.kaigokensaku.mhlw.go.jp/24/index.php?action_kouhyou_detail_004_kani=true&JigyosyoCd=2490200330-00&ServiceCd=320&Type=search", "url2": "http://w-holdings.jp" }, "geometry": { "type": "Point", "coordinates": [ 136.590637900000047, 34.982429 ] } },
{ "type": "Feature", "properties": { "内容": "うぃるグループホーム小牧【認知症対応型共同生活介護】三重県四日市市小牧町2630-4", "url": "https://www.kaigokensaku.mhlw.go.jp/24/index.php?action_kouhyou_detail_004_kani=true&JigyosyoCd=2490200553-00&ServiceCd=320&Type=search", "url2": "w-holdings.jp" }, "geometry": { "type": "Point", "coordinates": [ 136.5679026, 35.0403829 ] } },
{ "type": "Feature", "properties": { "内容": "グループホーム桜園三聖【認知症対応型共同生活介護】三重県四日市市高浜町5-7", "url": "https://www.kaigokensaku.mhlw.go.jp/24/index.php?action_kouhyou_detail_004_kani=true&JigyosyoCd=2490200488-00&ServiceCd=320&Type=search", "url2": "www.sansei-sakura.info/" }, "geometry": { "type": "Point", "coordinates": [ 136.637982500000021, 34.9785579 ] } },
{ "type": "Feature", "properties": { "内容": "グループホーム花びよりかいぞう【認知症対応型共同生活介護】三重県四日市市野田2丁目6-12", "url": "https://www.kaigokensaku.mhlw.go.jp/24/index.php?action_kouhyou_detail_004_kani=true&JigyosyoCd=2490200454-00&ServiceCd=320&Type=search", "url2": "https://www.hanabiyori.net/" }, "geometry": { "type": "Point", "coordinates": [ 136.608255399999962, 34.9822313 ] } },
{ "type": "Feature", "properties": { "内容": "色えんぴつ・四日市【認知症対応型共同生活介護】四日市市赤堀１丁目6-2", "url": "https://www.kaigokensaku.mhlw.go.jp/24/index.php?action_kouhyou_detail_004_kani=true&JigyosyoCd=2470200888-00&ServiceCd=320&Type=search", "url2": null }, "geometry": { "type": "Point", "coordinates": [ 136.613275, 34.9582794 ] } },
{ "type": "Feature", "properties": { "内容": "グループホーム　四季の郷富田【認知症対応型共同生活介護】三重県四日市市東茂福町４番４号", "url": "https://www.kaigokensaku.mhlw.go.jp/24/index.php?action_kouhyou_detail_004_kani=true&JigyosyoCd=2470201415-00&ServiceCd=320&Type=search", "url2": "http://www.sikisato.net" }, "geometry": { "type": "Point", "coordinates": [ 136.649148800000034, 34.9961226 ] } },
{ "type": "Feature", "properties": { "内容": "グループホーム　四季の郷　羽津【認知症対応型共同生活介護】三重県四日市市白須賀2丁目11番4号", "url": "https://www.kaigokensaku.mhlw.go.jp/24/index.php?action_kouhyou_detail_004_kani=true&JigyosyoCd=2490200157-00&ServiceCd=320&Type=search", "url2": null }, "geometry": { "type": "Point", "coordinates": [ 136.643235535581965, 34.992074559119345 ] } },
{ "type": "Feature", "properties": { "内容": "グループホーム白砂【認知症対応型共同生活介護】三重県四日市市天カ須賀一丁目1番17号グループホーム白砂", "url": "https://www.kaigokensaku.mhlw.go.jp/24/index.php?action_kouhyou_detail_004_kani=true&JigyosyoCd=2490200207-00&ServiceCd=320&Type=search", "url2": "tokujukai.com" }, "geometry": { "type": "Point", "coordinates": [ 136.667205299999978, 35.0076714 ] } },
{ "type": "Feature", "properties": { "内容": "グループホームしあわせ【認知症対応型共同生活介護】三重県四日市市水沢町横堀5137-1", "url": "https://www.kaigokensaku.mhlw.go.jp/24/index.php?action_kouhyou_detail_004_kani=true&JigyosyoCd=2490200421-00&ServiceCd=320&Type=search", "url2": "http://shiawase-senior.co.jp/" }, "geometry": { "type": "Point", "coordinates": [ 136.5012312, 34.9683148 ] } },
{ "type": "Feature", "properties": { "内容": "うぃるグループホーム塩浜【認知症対応型共同生活介護】三重県四日市市大字塩浜4147-1", "url": "https://www.kaigokensaku.mhlw.go.jp/24/index.php?action_kouhyou_detail_004_kani=true&JigyosyoCd=2490200504-00&ServiceCd=320&Type=search", "url2": "w-holdings.jp" }, "geometry": { "type": "Point", "coordinates": [ 136.619131183081095, 34.927295227010902 ] } },
{ "type": "Feature", "properties": { "内容": "うぃるグループホーム山城【認知症対応型共同生活介護】三重県四日市市山城町字穴田1148-1", "url": "https://www.kaigokensaku.mhlw.go.jp/24/index.php?action_kouhyou_detail_004_kani=true&JigyosyoCd=2490200231-00&ServiceCd=320&Type=search", "url2": "w-holdings.jp/" }, "geometry": { "type": "Point", "coordinates": [ 136.588775400000031, 35.0356389 ] } },
{ "type": "Feature", "properties": { "内容": "グループホーム花びよりいなば【認知症対応型共同生活介護】三重県四日市市稲葉町4番25-2号", "url": "https://www.kaigokensaku.mhlw.go.jp/24/index.php?action_kouhyou_detail_004_kani=true&JigyosyoCd=2490200579-00&ServiceCd=320&Type=search", "url2": "https://hanabiyori.net/" }, "geometry": { "type": "Point", "coordinates": [ 136.6378871, 34.9634383 ] } },
{ "type": "Feature", "properties": { "内容": "グループホーム渚園四日市【認知症対応型共同生活介護】三重県四日市市生桑町1863-1", "url": "https://www.kaigokensaku.mhlw.go.jp/24/index.php?action_kouhyou_detail_004_kani=true&JigyosyoCd=2490200173-00&ServiceCd=320&Type=search", "url2": null }, "geometry": { "type": "Point", "coordinates": [ 136.59260569203488, 34.989627693532434 ] } },
{ "type": "Feature", "properties": { "内容": "グループホームゆう・河原田【認知症対応型共同生活介護】四日市市河原田町１９７３－６", "url": "https://www.kaigokensaku.mhlw.go.jp/24/index.php?action_kouhyou_detail_004_kani=true&JigyosyoCd=2490200140-00&ServiceCd=320&Type=search", "url2": "ｈｔｔｐ：／／ｗｗｗ．ｙｏｕ－ｋａｉｇｏ．ｃｏｍ／" }, "geometry": { "type": "Point", "coordinates": [ 136.596338999341526, 34.908311966271825 ] } },
{ "type": "Feature", "properties": { "内容": "グループホーム織りがみ【認知症対応型共同生活介護】三重県四日市市川北1-11-11", "url": "https://www.kaigokensaku.mhlw.go.jp/24/index.php?action_kouhyou_detail_004_kani=true&JigyosyoCd=2490200165-00&ServiceCd=320&Type=search", "url2": "http://www.origami-kaigo.com/" }, "geometry": { "type": "Point", "coordinates": [ 136.645927883328227, 35.019076559500171 ] } },
{ "type": "Feature", "properties": { "内容": "グループホーム織りがみ・川島【認知症対応型共同生活介護】三重県四日市市川島町6659", "url": "https://www.kaigokensaku.mhlw.go.jp/24/index.php?action_kouhyou_detail_004_kani=true&JigyosyoCd=2490200272-00&ServiceCd=320&Type=search", "url2": "http://www.origami-kaigo.com/" }, "geometry": { "type": "Point", "coordinates": [ 136.564833240861162, 34.978326904459635 ] } },
{ "type": "Feature", "properties": { "内容": "グループホーム　楽家生広永【認知症対応型共同生活介護】三重県四日市市広永町１１６３番１", "url": "https://www.kaigokensaku.mhlw.go.jp/24/index.php?action_kouhyou_detail_004_kani=true&JigyosyoCd=2490200363-00&ServiceCd=320&Type=search", "url2": "http://www.rakkasei-m.jp" }, "geometry": { "type": "Point", "coordinates": [ 136.640913591540539, 35.029978764225483 ] } },
{ "type": "Feature", "properties": { "内容": "四郷グループホーム【認知症対応型共同生活介護】四日市市西日野町小溝野4014", "url": "https://www.kaigokensaku.mhlw.go.jp/24/index.php?action_kouhyou_detail_004_kani=true&JigyosyoCd=2470200938-00&ServiceCd=320&Type=search", "url2": "http://www.normari.jp" }, "geometry": { "type": "Point", "coordinates": [ 136.589384695245343, 34.949256278527457 ] } },
{ "type": "Feature", "properties": { "内容": "けあビジョンホーム四日市【認知症対応型共同生活介護】三重県四日市市楠町北五味塚９１４－３", "url": "https://www.kaigokensaku.mhlw.go.jp/24/index.php?action_kouhyou_detail_004_kani=true&JigyosyoCd=2490200462-00&ServiceCd=320&Type=search", "url2": null }, "geometry": { "type": "Point", "coordinates": [ 136.639264320112233, 34.914678268415294 ] } },
{ "type": "Feature", "properties": { "内容": "グループホームほのぼの【認知症対応型共同生活介護】三重県四日市市笹川２丁目１７５番地", "url": "https://www.kaigokensaku.mhlw.go.jp/24/index.php?action_kouhyou_detail_004_kani=true&JigyosyoCd=2470201209-00&ServiceCd=320&Type=search", "url2": "https://www.kohbun.com" }, "geometry": { "type": "Point", "coordinates": [ 136.575256, 34.9497458 ] } },
{ "type": "Feature", "properties": { "内容": "グループホーム　ほのぼの　平尾の家【認知症対応型共同生活介護】四日市市平尾町78-12", "url": "https://www.kaigokensaku.mhlw.go.jp/24/index.php?action_kouhyou_detail_004_kani=true&JigyosyoCd=2470201290-00&ServiceCd=320&Type=search", "url2": null }, "geometry": { "type": "Point", "coordinates": [ 136.550796399999967, 35.0038908 ] } },
{ "type": "Feature", "properties": { "内容": "小山田グループホーム【認知症対応型共同生活介護】四日市市山田町5516-1", "url": "https://www.kaigokensaku.mhlw.go.jp/24/index.php?action_kouhyou_detail_004_kani=true&JigyosyoCd=2470200946-00&ServiceCd=320&Type=search", "url2": "https://seizanrikai.jp/" }, "geometry": { "type": "Point", "coordinates": [ 136.5392554, 34.9419353 ] } },
{ "type": "Feature", "properties": { "内容": "認知症対応型共同生活介護事業　グループホーム　若の山荘【認知症対応型共同生活介護】三重県伊勢市楠部町若ノ山2605-13", "url": "https://www.kaigokensaku.mhlw.go.jp/24/index.php?action_kouhyou_detail_004_kani=true&JigyosyoCd=2470800281-00&ServiceCd=320&Type=search", "url2": null }, "geometry": { "type": "Point", "coordinates": [ 136.747105800061036, 34.480170817507002 ] } },
{ "type": "Feature", "properties": { "内容": "グループホームあした葉　結の家みやがわ【認知症対応型共同生活介護】三重県伊勢市佐八町字前田712番地1", "url": "https://www.kaigokensaku.mhlw.go.jp/24/index.php?action_kouhyou_detail_004_kani=true&JigyosyoCd=2490800238-00&ServiceCd=320&Type=search", "url2": null }, "geometry": { "type": "Point", "coordinates": [ 136.658638440336631, 34.460761184074599 ] } },
{ "type": "Feature", "properties": { "内容": "グループホーム　いせ【認知症対応型共同生活介護】伊勢市一之木4-11-31", "url": "https://www.kaigokensaku.mhlw.go.jp/24/index.php?action_kouhyou_detail_004_kani=true&JigyosyoCd=2470800455-00&ServiceCd=320&Type=search", "url2": null }, "geometry": { "type": "Point", "coordinates": [ 136.7070278, 34.5025956 ] } },
{ "type": "Feature", "properties": { "内容": "グループホームくらたやま【認知症対応型共同生活介護】三重県伊勢市黒瀬町863-1グループホームくらたやま", "url": "https://www.kaigokensaku.mhlw.go.jp/24/index.php?action_kouhyou_detail_004_kani=true&JigyosyoCd=2470800729-00&ServiceCd=320&Type=search", "url2": "htpp://www.welfare-mie.jp" }, "geometry": { "type": "Point", "coordinates": [ 136.736126900374302, 34.492860970695006 ] } },
{ "type": "Feature", "properties": { "内容": "ケアパートナー森伸小俣【認知症対応型共同生活介護】三重県伊勢市小俣町明野1308番地", "url": "https://www.kaigokensaku.mhlw.go.jp/24/index.php?action_kouhyou_detail_004_kani=true&JigyosyoCd=2470800885-00&ServiceCd=320&Type=search", "url2": "http://www.morisin.co.jp" }, "geometry": { "type": "Point", "coordinates": [ 136.66967, 34.5201335 ] } },
{ "type": "Feature", "properties": { "内容": "ケアパートナー森伸明野【認知症対応型共同生活介護】三重県伊勢市小俣町明野1324-1", "url": "https://www.kaigokensaku.mhlw.go.jp/24/index.php?action_kouhyou_detail_004_kani=true&JigyosyoCd=2490800253-00&ServiceCd=320&Type=search", "url2": "http://www.morisin.co.jp" }, "geometry": { "type": "Point", "coordinates": [ 136.670062203828081, 34.520108718774125 ] } },
{ "type": "Feature", "properties": { "内容": "グループホーム　ふたみ【認知症対応型共同生活介護】三重県伊勢市二見町松下1349-64", "url": "https://www.kaigokensaku.mhlw.go.jp/24/index.php?action_kouhyou_detail_004_kani=true&JigyosyoCd=2490800477-00&ServiceCd=320&Type=search", "url2": "http://www.welfare-mie.jp" }, "geometry": { "type": "Point", "coordinates": [ 136.79542, 34.5029292 ] } },
{ "type": "Feature", "properties": { "内容": "グループホーム　みそのむら【認知症対応型共同生活介護】三重県伊勢市御薗町高向481", "url": "https://www.kaigokensaku.mhlw.go.jp/24/index.php?action_kouhyou_detail_004_kani=true&JigyosyoCd=2472800750-00&ServiceCd=320&Type=search", "url2": "http://misonomura.jp/" }, "geometry": { "type": "Point", "coordinates": [ 136.702417100000048, 34.5026953 ] } },
{ "type": "Feature", "properties": { "内容": "グループホーム　正邦苑城田【認知症対応型共同生活介護】三重県伊勢市中須町402", "url": "https://www.kaigokensaku.mhlw.go.jp/24/index.php?action_kouhyou_detail_004_kani=true&JigyosyoCd=2470800489-00&ServiceCd=320&Type=search", "url2": "http://www.jikeikai-ise.or.jp/" }, "geometry": { "type": "Point", "coordinates": [ 136.6781191, 34.4881992 ] } },
{ "type": "Feature", "properties": { "内容": "グループホーム　伊勢かわさき【認知症対応型共同生活介護】三重県伊勢市河崎3丁目756-6", "url": "https://www.kaigokensaku.mhlw.go.jp/24/index.php?action_kouhyou_detail_004_kani=true&JigyosyoCd=2490800295-00&ServiceCd=320&Type=search", "url2": "http://mieoyakhoko-ise.net/" }, "geometry": { "type": "Point", "coordinates": [ 136.717893441278051, 34.495603370079046 ] } },
{ "type": "Feature", "properties": { "内容": "グループホーム木もれび【認知症対応型共同生活介護】三重県　松阪市　西野町　457番地3", "url": "https://www.kaigokensaku.mhlw.go.jp/24/index.php?action_kouhyou_detail_004_kani=true&JigyosyoCd=2470700754-00&ServiceCd=320&Type=search", "url2": null }, "geometry": { "type": "Point", "coordinates": [ 136.4745431, 34.551858200000034 ] } },
{ "type": "Feature", "properties": { "内容": "グループホーム　こころ【認知症対応型共同生活介護】松阪市八重田町４８５－２", "url": "https://www.kaigokensaku.mhlw.go.jp/24/index.php?action_kouhyou_detail_004_kani=true&JigyosyoCd=2470700713-00&ServiceCd=320&Type=search", "url2": "http://kokoro16.co.jp/" }, "geometry": { "type": "Point", "coordinates": [ 136.494501500000069, 34.5721481 ] } },
{ "type": "Feature", "properties": { "内容": "グループホーム　嘉祥苑【認知症対応型共同生活介護】三重県松阪市鎌田町２３３－８", "url": "https://www.kaigokensaku.mhlw.go.jp/24/index.php?action_kouhyou_detail_004_kani=true&JigyosyoCd=2470700515-00&ServiceCd=320&Type=search", "url2": "http://www.kashouen.or.jp" }, "geometry": { "type": "Point", "coordinates": [ 136.53620849999993, 34.5815682 ] } },
{ "type": "Feature", "properties": { "内容": "グループホームなでしこ苑【認知症対応型共同生活介護】三重県松阪市川井町字中道５３番４", "url": "https://www.kaigokensaku.mhlw.go.jp/24/index.php?action_kouhyou_detail_004_kani=true&JigyosyoCd=2490700214-00&ServiceCd=320&Type=search", "url2": "http://www.nadesicoen.com/" }, "geometry": { "type": "Point", "coordinates": [ 136.511872575965867, 34.5834344582833 ] } },
{ "type": "Feature", "properties": { "内容": "グループホーム　やまぶき【認知症対応型共同生活介護】三重県松阪市駅部田町４７３番地", "url": "https://www.kaigokensaku.mhlw.go.jp/24/index.php?action_kouhyou_detail_004_kani=true&JigyosyoCd=2470700606-00&ServiceCd=320&Type=search", "url2": "http://www.nansei-hospital.jp/yamabuki/" }, "geometry": { "type": "Point", "coordinates": [ 136.52405490000001, 34.5508848 ] } },
{ "type": "Feature", "properties": { "内容": "グループホームなごやか【認知症対応型共同生活介護】三重県松阪市垣鼻町1638－15", "url": "https://www.kaigokensaku.mhlw.go.jp/24/index.php?action_kouhyou_detail_004_kani=true&JigyosyoCd=2490700081-00&ServiceCd=320&Type=search", "url2": "http://www.sawayaka-well.jp/nagoyaka" }, "geometry": { "type": "Point", "coordinates": [ 136.539108603179898, 34.564115318557995 ] } },
{ "type": "Feature", "properties": { "内容": "グループホームさくら【認知症対応型共同生活介護】三重県松阪市下蛸路町376番地1", "url": "https://www.kaigokensaku.mhlw.go.jp/24/index.php?action_kouhyou_detail_004_kani=true&JigyosyoCd=2490700115-00&ServiceCd=320&Type=search", "url2": "https://www.jitokukai-web.com/" }, "geometry": { "type": "Point", "coordinates": [ 136.543195700000069, 34.5247496 ] } },
{ "type": "Feature", "properties": { "内容": "グループホームまごころ【認知症対応型共同生活介護】三重県松阪市垣鼻町1638-52", "url": "https://www.kaigokensaku.mhlw.go.jp/24/index.php?action_kouhyou_detail_004_kani=true&JigyosyoCd=2470700549-00&ServiceCd=320&Type=search", "url2": "http://www.sawayaka-well.jp" }, "geometry": { "type": "Point", "coordinates": [ 136.537478299999947, 34.5642034 ] } },
{ "type": "Feature", "properties": { "内容": "うぃるグループホーム飯高【認知症対応型共同生活介護】三重県松阪市飯高町森2126-1うぃるグループホーム飯高", "url": "https://www.kaigokensaku.mhlw.go.jp/24/index.php?action_kouhyou_detail_004_kani=true&JigyosyoCd=2490700438-00&ServiceCd=320&Type=search", "url2": null }, "geometry": { "type": "Point", "coordinates": [ 136.22227052817226, 34.379662072065926 ] } },
{ "type": "Feature", "properties": { "内容": "グループホームむつみ園【認知症対応型共同生活介護】松阪市嬉野須賀領町477－8", "url": "https://www.kaigokensaku.mhlw.go.jp/24/index.php?action_kouhyou_detail_004_kani=true&JigyosyoCd=2472500244-00&ServiceCd=320&Type=search", "url2": "http://www.mutsumifukusikai-mie.com" }, "geometry": { "type": "Point", "coordinates": [ 136.4856936, 34.6165661 ] } },
{ "type": "Feature", "properties": { "内容": "うさぎグループホーム【認知症対応型共同生活介護】三重県松阪市射和町６４４－２", "url": "https://www.kaigokensaku.mhlw.go.jp/24/index.php?action_kouhyou_detail_004_kani=true&JigyosyoCd=2470700986-00&ServiceCd=320&Type=search", "url2": null }, "geometry": { "type": "Point", "coordinates": [ 136.535302499999943, 34.5067099 ] } },
{ "type": "Feature", "properties": { "内容": "グループホーム西井【認知症対応型共同生活介護】三重県松阪市曽原町813-1", "url": "https://www.kaigokensaku.mhlw.go.jp/24/index.php?action_kouhyou_detail_004_kani=true&JigyosyoCd=2472500335-00&ServiceCd=320&Type=search", "url2": "https://nishii-iin.com/" }, "geometry": { "type": "Point", "coordinates": [ 136.517969900000026, 34.6310129 ] } },
{ "type": "Feature", "properties": { "内容": "グループホーム　ふるさと【認知症対応型共同生活介護】三重県桑名市今北町１５番地", "url": "https://www.kaigokensaku.mhlw.go.jp/24/index.php?action_kouhyou_detail_004_kani=true&JigyosyoCd=2490100076-00&ServiceCd=320&Type=search", "url2": "http://takurousho-furusato.com" }, "geometry": { "type": "Point", "coordinates": [ 136.691482800000017, 35.0687741 ] } },
{ "type": "Feature", "properties": { "内容": "愛の家グループホーム多度【認知症対応型共同生活介護】多度町柚井33番地", "url": "https://www.kaigokensaku.mhlw.go.jp/24/index.php?action_kouhyou_detail_004_kani=true&JigyosyoCd=2490100142-00&ServiceCd=320&Type=search", "url2": "http://www.mcsg.co.jp" }, "geometry": { "type": "Point", "coordinates": [ 136.646493100000043, 35.1390101 ] } },
{ "type": "Feature", "properties": { "内容": "愛の家グループホーム多度柚井【認知症対応型共同生活介護】多度町柚井1165番地", "url": "https://www.kaigokensaku.mhlw.go.jp/24/index.php?action_kouhyou_detail_004_kani=true&JigyosyoCd=2490100449-00&ServiceCd=320&Type=search", "url2": "http://www.mcsg.co.jp" }, "geometry": { "type": "Point", "coordinates": [ 136.639017599999988, 35.1439885 ] } },
{ "type": "Feature", "properties": { "内容": "社会福祉法人　自立共生会　ひかりの里【認知症対応型共同生活介護】桑名市新西方三丁目187番地", "url": "https://www.kaigokensaku.mhlw.go.jp/24/index.php?action_kouhyou_detail_004_kani=true&JigyosyoCd=2470100658-00&ServiceCd=320&Type=search", "url2": "http://wellness-medicalclinic.jp/" }, "geometry": { "type": "Point", "coordinates": [ 136.656780300000037, 35.0732865 ] } },
{ "type": "Feature", "properties": { "内容": "すずらん大山田【認知症対応型共同生活介護】三重県桑名市大山田2丁目7番11", "url": "https://www.kaigokensaku.mhlw.go.jp/24/index.php?action_kouhyou_detail_004_kani=true&JigyosyoCd=2470100435-00&ServiceCd=320&Type=search", "url2": null }, "geometry": { "type": "Point", "coordinates": [ 136.6407173, 35.082163 ] } },
{ "type": "Feature", "properties": { "内容": "すずらん寿楽の家【認知症対応型共同生活介護】桑名市大字稗田字柳９４４番地", "url": "https://www.kaigokensaku.mhlw.go.jp/24/index.php?action_kouhyou_detail_004_kani=true&JigyosyoCd=2470100559-00&ServiceCd=320&Type=search", "url2": null }, "geometry": { "type": "Point", "coordinates": [ 136.6560601, 35.0567712 ] } },
{ "type": "Feature", "properties": { "内容": "認知症対応型共同生活介護ひなた【認知症対応型共同生活介護】桑名市長島町横満蔵５６８番地２", "url": "https://www.kaigokensaku.mhlw.go.jp/24/index.php?action_kouhyou_detail_004_kani=true&JigyosyoCd=2490100134-00&ServiceCd=320&Type=search", "url2": "http://www.apatheia.jp" }, "geometry": { "type": "Point", "coordinates": [ 136.722407400000066, 35.0525075 ] } },
{ "type": "Feature", "properties": { "内容": "グループホーム内母の里【認知症対応型共同生活介護】三重県桑名市多度町多度32-1グループホーム内母の里", "url": "https://www.kaigokensaku.mhlw.go.jp/24/index.php?action_kouhyou_detail_004_kani=true&JigyosyoCd=2470100906-00&ServiceCd=320&Type=search", "url2": null }, "geometry": { "type": "Point", "coordinates": [ 136.649856900000032, 35.132608 ] } },
{ "type": "Feature", "properties": { "内容": "しゃかいふくしほうじん　じりつきょうせいかい　くわなのやど【認知症対応型共同生活介護】桑名市新西方3丁目218ウエルネス医療クリニック2階", "url": "https://www.kaigokensaku.mhlw.go.jp/24/index.php?action_kouhyou_detail_004_kani=true&JigyosyoCd=2490100035-00&ServiceCd=320&Type=search", "url2": "http://wellness-medicalclinic.jp/group/home_group-kuwana.html" }, "geometry": { "type": "Point", "coordinates": [ 136.65739655807954, 35.07296301673378 ] } },
{ "type": "Feature", "properties": { "内容": "グループホーム　こんぺいとう【認知症対応型共同生活介護】三重県桑名市星見ヶ丘6丁目919", "url": "https://www.kaigokensaku.mhlw.go.jp/24/index.php?action_kouhyou_detail_004_kani=true&JigyosyoCd=2470100666-00&ServiceCd=320&Type=search", "url2": "humancarestationmie.com" }, "geometry": { "type": "Point", "coordinates": [ 136.632709699999964, 35.0658199 ] } },
{ "type": "Feature", "properties": { "内容": "グループホーム　竹の子苑【認知症対応型共同生活介護】桑名市大字西方字斧峠1306-10", "url": "https://www.kaigokensaku.mhlw.go.jp/24/index.php?action_kouhyou_detail_004_kani=true&JigyosyoCd=2470100716-00&ServiceCd=320&Type=search", "url2": "http://www.aoki-naika.jp/takenoko/index.html" }, "geometry": { "type": "Point", "coordinates": [ 136.669154299999946, 35.0661209 ] } },
{ "type": "Feature", "properties": { "内容": "ケアパーク和月　グループホーム【認知症対応型共同生活介護】三重県桑名市大字太夫１２３番地２", "url": "https://www.kaigokensaku.mhlw.go.jp/24/index.php?action_kouhyou_detail_004_kani=true&JigyosyoCd=2490100159-00&ServiceCd=320&Type=search", "url2": "http://care-sweet.com" }, "geometry": { "type": "Point", "coordinates": [ 136.66738220000002, 35.0645543 ] } },
{ "type": "Feature", "properties": { "内容": "かすみそうの家【認知症対応型共同生活介護】桑名市森忠1728-4", "url": "https://www.kaigokensaku.mhlw.go.jp/24/index.php?action_kouhyou_detail_004_kani=true&JigyosyoCd=2490100019-00&ServiceCd=320&Type=search", "url2": "https://rainin0723.wixsite.com/care-home" }, "geometry": { "type": "Point", "coordinates": [ 136.620057800000041, 35.078485 ] } },
{ "type": "Feature", "properties": { "内容": "社会福祉法人　誠真会　グループホーム　ながしま【認知症対応型共同生活介護】三重県桑名市長島町福吉268番地8グループホームながしま", "url": "https://www.kaigokensaku.mhlw.go.jp/24/index.php?action_kouhyou_detail_004_kani=true&JigyosyoCd=2490100225-00&ServiceCd=320&Type=search", "url2": "https://www.sato-group.jp" }, "geometry": { "type": "Point", "coordinates": [ 136.7165162, 35.0573539 ] } },
{ "type": "Feature", "properties": { "内容": "ニチイケアセンター桑名いずみ【認知症対応型共同生活介護】三重県桑名市大字和泉662-1", "url": "https://www.kaigokensaku.mhlw.go.jp/24/index.php?action_kouhyou_detail_004_kani=true&JigyosyoCd=2490100308-00&ServiceCd=320&Type=search", "url2": "www.nichiigakkan.co.jp" }, "geometry": { "type": "Point", "coordinates": [ 136.688420582911732, 35.041202317027157 ] } },
{ "type": "Feature", "properties": { "内容": "グループホーム　ふるさと　我が家【認知症対応型共同生活介護】三重県桑名市大字北別所字流1590-4", "url": "https://www.kaigokensaku.mhlw.go.jp/24/index.php?action_kouhyou_detail_004_kani=true&JigyosyoCd=2490100415-00&ServiceCd=320&Type=search", "url2": "https://takurousho-furusato.com/" }, "geometry": { "type": "Point", "coordinates": [ 136.6735519, 35.0746999 ] } },
{ "type": "Feature", "properties": { "内容": "フレンズハウス桑名【認知症対応型共同生活介護】三重県桑名市多度町中須59", "url": "https://www.kaigokensaku.mhlw.go.jp/24/index.php?action_kouhyou_detail_004_kani=true&JigyosyoCd=2490100464-00&ServiceCd=320&Type=search", "url2": null }, "geometry": { "type": "Point", "coordinates": [ 136.6550622, 35.1257991 ] } },
{ "type": "Feature", "properties": { "内容": "虹の丘グループホーム【認知症対応型共同生活介護】三重県鈴鹿市稲生町5545番地虹の丘グループホーム", "url": "https://www.kaigokensaku.mhlw.go.jp/24/index.php?action_kouhyou_detail_004_kani=true&JigyosyoCd=2490300247-00&ServiceCd=320&Type=search", "url2": "https://kashukai.net" }, "geometry": { "type": "Point", "coordinates": [ 136.55595059999996, 34.8438662 ] } },
{ "type": "Feature", "properties": { "内容": "グループホームまごころ【認知症対応型共同生活介護】三重県鈴鹿市三宅町１７００番地", "url": "https://www.kaigokensaku.mhlw.go.jp/24/index.php?action_kouhyou_detail_004_kani=true&JigyosyoCd=2490300189-00&ServiceCd=320&Type=search", "url2": null }, "geometry": { "type": "Point", "coordinates": [ 136.506584486134329, 34.818361544107802 ] } },
{ "type": "Feature", "properties": { "内容": "グループホームみやけ【認知症対応型共同生活介護】三重県鈴鹿市三宅町1700番地", "url": "https://www.kaigokensaku.mhlw.go.jp/24/index.php?action_kouhyou_detail_004_kani=true&JigyosyoCd=2490300387-00&ServiceCd=320&Type=search", "url2": null }, "geometry": { "type": "Point", "coordinates": [ 136.5066171, 34.8184203 ] } },
{ "type": "Feature", "properties": { "内容": "グループホーム　愛すみよし苑【認知症対応型共同生活介護】鈴鹿市住吉1丁目２３－８", "url": "https://www.kaigokensaku.mhlw.go.jp/24/index.php?action_kouhyou_detail_004_kani=true&JigyosyoCd=2490300106-00&ServiceCd=320&Type=search", "url2": null }, "geometry": { "type": "Point", "coordinates": [ 136.537473500000033, 34.8637421 ] } },
{ "type": "Feature", "properties": { "内容": "グループホーム　マリンの家【認知症対応型共同生活介護】鈴鹿市中旭が丘1丁目11－8", "url": "https://www.kaigokensaku.mhlw.go.jp/24/index.php?action_kouhyou_detail_004_kani=true&JigyosyoCd=2470300456-00&ServiceCd=320&Type=search", "url2": "http://isemarin.jp/" }, "geometry": { "type": "Point", "coordinates": [ 136.569843799999944, 34.8488772 ] } },
{ "type": "Feature", "properties": { "内容": "認知症対応型グループホーム鈴鹿シルバーケア豊壽園【認知症対応型共同生活介護】鈴鹿市東磯山２丁目５−１", "url": "https://www.kaigokensaku.mhlw.go.jp/24/index.php?action_kouhyou_detail_004_kani=true&JigyosyoCd=2490300197-00&ServiceCd=320&Type=search", "url2": "http://www.sensin.or.jp" }, "geometry": { "type": "Point", "coordinates": [ 136.572730561238131, 34.812355739441863 ] } },
{ "type": "Feature", "properties": { "内容": "パシフィック株式会社　グループホーム悠久の里【認知症対応型共同生活介護】安塚町１３５０－６５", "url": "https://www.kaigokensaku.mhlw.go.jp/24/index.php?action_kouhyou_detail_004_kani=true&JigyosyoCd=2490300049-00&ServiceCd=320&Type=search", "url2": null }, "geometry": { "type": "Point", "coordinates": [ 136.573896099999956, 34.8639949 ] } },
{ "type": "Feature", "properties": { "内容": "グループホーム箕田の北さんち【認知症対応型共同生活介護】三重県鈴鹿市下箕田２丁目５番５号", "url": "https://www.kaigokensaku.mhlw.go.jp/24/index.php?action_kouhyou_detail_004_kani=true&JigyosyoCd=2470300720-00&ServiceCd=320&Type=search", "url2": "http://www.mecha.ne.jp/~kita/" }, "geometry": { "type": "Point", "coordinates": [ 136.6263113, 34.8753195 ] } },
{ "type": "Feature", "properties": { "内容": "愛の家グループホーム　国府【認知症対応型共同生活介護】国府町字西ノ野町１３－１０", "url": "https://www.kaigokensaku.mhlw.go.jp/24/index.php?action_kouhyou_detail_004_kani=true&JigyosyoCd=2490300171-00&ServiceCd=320&Type=search", "url2": "http://mcs-ainoie.com/ins183.html" }, "geometry": { "type": "Point", "coordinates": [ 136.495040900000049, 34.856337 ] } },
{ "type": "Feature", "properties": { "内容": "グループホーム和らぎ長澤【認知症対応型共同生活介護】三重県鈴鹿市長澤町１７５０－１", "url": "https://www.kaigokensaku.mhlw.go.jp/24/index.php?action_kouhyou_detail_004_kani=true&JigyosyoCd=2470300530-00&ServiceCd=320&Type=search", "url2": "http://tomonosato-win.com/" }, "geometry": { "type": "Point", "coordinates": [ 136.49037720000004, 34.932332 ] } },
{ "type": "Feature", "properties": { "内容": "グループホーム陽だまり長屋鈴鹿【認知症対応型共同生活介護】鈴鹿市秋永町大門２０９２番地", "url": "https://www.kaigokensaku.mhlw.go.jp/24/index.php?action_kouhyou_detail_004_kani=true&JigyosyoCd=2490300080-00&ServiceCd=320&Type=search", "url2": "http://hidamari.in/" }, "geometry": { "type": "Point", "coordinates": [ 136.549304799999959, 34.8121534 ] } },
{ "type": "Feature", "properties": { "内容": "色えんぴつ・鈴鹿【認知症対応型共同生活介護】鈴鹿市下大久保町２２９０－１２", "url": "https://www.kaigokensaku.mhlw.go.jp/24/index.php?action_kouhyou_detail_004_kani=true&JigyosyoCd=2470300860-00&ServiceCd=320&Type=search", "url2": null }, "geometry": { "type": "Point", "coordinates": [ 136.550007599999958, 34.9177515 ] } },
{ "type": "Feature", "properties": { "内容": "グループホーム　北さんち【認知症対応型共同生活介護】三重県鈴鹿市中旭が丘四丁目６番８号", "url": "https://www.kaigokensaku.mhlw.go.jp/24/index.php?action_kouhyou_detail_004_kani=true&JigyosyoCd=2470300506-00&ServiceCd=320&Type=search", "url2": "http://www.white-kaigo.com/" }, "geometry": { "type": "Point", "coordinates": [ 136.579612499999939, 34.8422505 ] } },
{ "type": "Feature", "properties": { "内容": "グループホームくじら【認知症対応型共同生活介護】三重県鈴鹿市長太旭町六丁目３番８号", "url": "https://www.kaigokensaku.mhlw.go.jp/24/index.php?action_kouhyou_detail_004_kani=true&JigyosyoCd=2490300114-00&ServiceCd=320&Type=search", "url2": "http://www.white-kaigo.com/" }, "geometry": { "type": "Point", "coordinates": [ 136.634160599999973, 34.8938658 ] } },
{ "type": "Feature", "properties": { "内容": "グループホーム悠々【認知症対応型共同生活介護】三重県鈴鹿市伊船町２９４３番地４", "url": "https://www.kaigokensaku.mhlw.go.jp/24/index.php?action_kouhyou_detail_004_kani=true&JigyosyoCd=2490300346-00&ServiceCd=320&Type=search", "url2": "https://suzuka-greenhome.jp/" }, "geometry": { "type": "Point", "coordinates": [ 136.4943678, 34.91347 ] } },
{ "type": "Feature", "properties": { "内容": "グループホームひまわりの家【認知症対応型共同生活介護】三重県鈴鹿市矢橋三丁目１６番１３号", "url": "https://www.kaigokensaku.mhlw.go.jp/24/index.php?action_kouhyou_detail_004_kani=true&JigyosyoCd=2490300155-00&ServiceCd=320&Type=search", "url2": "www.murase.or,jp/" }, "geometry": { "type": "Point", "coordinates": [ 136.590869136987038, 34.884825747835919 ] } },
{ "type": "Feature", "properties": { "内容": "グループホーム　太陽の家【認知症対応型共同生活介護】三重県鈴鹿市西條町４９５－１", "url": "https://www.kaigokensaku.mhlw.go.jp/24/index.php?action_kouhyou_detail_004_kani=true&JigyosyoCd=2470301108-00&ServiceCd=320&Type=search", "url2": "http://taiyo-ie.com" }, "geometry": { "type": "Point", "coordinates": [ 136.5660547, 34.8752242 ] } },
{ "type": "Feature", "properties": { "内容": "グループホーム　くすのき園【認知症対応型共同生活介護】上箕田町字近田2638番8", "url": "https://www.kaigokensaku.mhlw.go.jp/24/index.php?action_kouhyou_detail_004_kani=true&JigyosyoCd=2490300221-00&ServiceCd=320&Type=search", "url2": "https://jidoukai-kusunokien.com" }, "geometry": { "type": "Point", "coordinates": [ 139.49482809999995, 36.0720819 ] } },
{ "type": "Feature", "properties": { "内容": "グループホームほたる【認知症対応型共同生活介護】三重県鈴鹿市池田町１３３５番地の７", "url": "https://www.kaigokensaku.mhlw.go.jp/24/index.php?action_kouhyou_detail_004_kani=true&JigyosyoCd=2470300993-00&ServiceCd=320&Type=search", "url2": null }, "geometry": { "type": "Point", "coordinates": [ 136.609062699999981, 34.9012063 ] } },
{ "type": "Feature", "properties": { "内容": "グループホーム　かなしょうず園【認知症対応型共同生活介護】三重県鈴鹿市地子町字金生水620番地1", "url": "https://www.kaigokensaku.mhlw.go.jp/24/index.php?action_kouhyou_detail_004_kani=true&JigyosyoCd=2490300122-00&ServiceCd=320&Type=search", "url2": "https://tamada-group.jp/" }, "geometry": { "type": "Point", "coordinates": [ 136.564971600000035, 34.8675914 ] } },
{ "type": "Feature", "properties": { "内容": "鈴鹿インター（株）さつきの里認知症対応型共同生活介護【認知症対応型共同生活介護】三重県鈴鹿市伊船町字北上の割2020-3", "url": "https://www.kaigokensaku.mhlw.go.jp/24/index.php?action_kouhyou_detail_004_kani=true&JigyosyoCd=2470301017-00&ServiceCd=320&Type=search", "url2": "http://www.suzuka-inter.co.jp/satuki" }, "geometry": { "type": "Point", "coordinates": [ 136.479537599999958, 34.9227572 ] } },
{ "type": "Feature", "properties": { "内容": "グループホーム　楽家生【認知症対応型共同生活介護】三重県鈴鹿市南玉垣町5470番地", "url": "https://www.kaigokensaku.mhlw.go.jp/24/index.php?action_kouhyou_detail_004_kani=true&JigyosyoCd=2490300015-00&ServiceCd=320&Type=search", "url2": "https://www.rakkasei-m.jp" }, "geometry": { "type": "Point", "coordinates": [ 136.584914799999979, 34.8606179 ] } },
{ "type": "Feature", "properties": { "内容": "グループホーム　うの花【認知症対応型共同生活介護】鈴鹿市石薬師町1096", "url": "https://www.kaigokensaku.mhlw.go.jp/24/index.php?action_kouhyou_detail_004_kani=true&JigyosyoCd=2470301090-00&ServiceCd=320&Type=search", "url2": null }, "geometry": { "type": "Point", "coordinates": [ 136.536829680087294, 34.915353637614743 ] } },
{ "type": "Feature", "properties": { "内容": "グループホーム　あみーご奈垣せせらぎ【認知症対応型共同生活介護】三重県名張市奈垣字掛田1422－5", "url": "https://www.kaigokensaku.mhlw.go.jp/24/index.php?action_kouhyou_detail_004_kani=true&JigyosyoCd=2471300331-00&ServiceCd=320&Type=search", "url2": "http://www.amigo-net.jp" }, "geometry": { "type": "Point", "coordinates": [ 136.143449199999964, 34.5949823 ] } },
{ "type": "Feature", "properties": { "内容": "グループホームあみーご奈垣さえずり【認知症対応型共同生活介護】三重県名張市奈垣1431-1", "url": "https://www.kaigokensaku.mhlw.go.jp/24/index.php?action_kouhyou_detail_004_kani=true&JigyosyoCd=2491300154-00&ServiceCd=320&Type=search", "url2": "http://amigo-net.jp/" }, "geometry": { "type": "Point", "coordinates": [ 136.143449199999964, 34.5949823 ] } },
{ "type": "Feature", "properties": { "内容": "グループホーム福ふく【認知症対応型共同生活介護】三重県赤目町丈六２４３－１", "url": "https://www.kaigokensaku.mhlw.go.jp/24/index.php?action_kouhyou_detail_004_kani=true&JigyosyoCd=2491300097-00&ServiceCd=320&Type=search", "url2": "https://origami-japan.co.jp" }, "geometry": { "type": "Point", "coordinates": [ 136.076724799999965, 34.5975503 ] } },
{ "type": "Feature", "properties": { "内容": "グループホームあみーご鴻之台【認知症対応型共同生活介護】三重県名張市鴻之台五番町１０番地", "url": "https://www.kaigokensaku.mhlw.go.jp/24/index.php?action_kouhyou_detail_004_kani=true&JigyosyoCd=2491300014-00&ServiceCd=320&Type=search", "url2": "http://www.amigo-net.jp" }, "geometry": { "type": "Point", "coordinates": [ 136.102694579237351, 34.628893508117102 ] } },
{ "type": "Feature", "properties": { "内容": "グループホーム　新【認知症対応型共同生活介護】三重県名張市新田2940番地-6", "url": "https://www.kaigokensaku.mhlw.go.jp/24/index.php?action_kouhyou_detail_004_kani=true&JigyosyoCd=2491300212-00&ServiceCd=320&Type=search", "url2": "http://www.hananosato-nabari.com" }, "geometry": { "type": "Point", "coordinates": [ 136.108086500000013, 34.656323 ] } },
{ "type": "Feature", "properties": { "内容": "グループホーム「はなの里」【認知症対応型共同生活介護】三重県名張市西田原２０９４番地の１", "url": "https://www.kaigokensaku.mhlw.go.jp/24/index.php?action_kouhyou_detail_004_kani=true&JigyosyoCd=2471300430-00&ServiceCd=320&Type=search", "url2": "http://www.hananosato-nabari.com" }, "geometry": { "type": "Point", "coordinates": [ 136.1059007, 34.6554981 ] } },
{ "type": "Feature", "properties": { "内容": "グループホームつつじが丘サテライト【認知症対応型共同生活介護】三重県名張市つつじが丘北5番町162番地", "url": "https://www.kaigokensaku.mhlw.go.jp/24/index.php?action_kouhyou_detail_004_kani=true&JigyosyoCd=2491300402-00&ServiceCd=320&Type=search", "url2": "www.hananosato-nabari.com" }, "geometry": { "type": "Point", "coordinates": [ 136.133449, 34.6064211 ] } },
{ "type": "Feature", "properties": { "内容": "グループホーム寿の家名張【認知症対応型共同生活介護】三重県名張市すずらん台西１番町１２０番地", "url": "https://www.kaigokensaku.mhlw.go.jp/24/index.php?action_kouhyou_detail_004_kani=true&JigyosyoCd=2491300204-00&ServiceCd=320&Type=search", "url2": null }, "geometry": { "type": "Point", "coordinates": [ 136.154606920237711, 34.641766730365084 ] } },
{ "type": "Feature", "properties": { "内容": "グループホーム寿の家希央台【認知症対応型共同生活介護】希央台５番町１１２番地", "url": "https://www.kaigokensaku.mhlw.go.jp/24/index.php?action_kouhyou_detail_004_kani=true&JigyosyoCd=2491300253-00&ServiceCd=320&Type=search", "url2": null }, "geometry": { "type": "Point", "coordinates": [ 136.0976293077957, 34.625653308083429 ] } },
{ "type": "Feature", "properties": { "内容": "グループホーム　グリーントピア名張【認知症対応型共同生活介護】三重県名張市東田原２７４５番地", "url": "https://www.kaigokensaku.mhlw.go.jp/24/index.php?action_kouhyou_detail_004_kani=true&JigyosyoCd=2471300422-00&ServiceCd=320&Type=search", "url2": "http//www.green-center.or.jp" }, "geometry": { "type": "Point", "coordinates": [ 136.1115633, 34.651877300000024 ] } },
{ "type": "Feature", "properties": { "内容": "グループホームみずひき【認知症対応型共同生活介護】三重県名張市赤目町丈六243-9", "url": "https://www.kaigokensaku.mhlw.go.jp/24/index.php?action_kouhyou_detail_004_kani=true&JigyosyoCd=2491300055-00&ServiceCd=320&Type=search", "url2": "https://origami-japan.co.jp" }, "geometry": { "type": "Point", "coordinates": [ 136.076724799999965, 34.5975503 ] } },
{ "type": "Feature", "properties": { "内容": "高齢者グループホームひかり【認知症対応型共同生活介護】三重県名張市美旗中村2326番地5", "url": "https://www.kaigokensaku.mhlw.go.jp/24/index.php?action_kouhyou_detail_004_kani=true&JigyosyoCd=2491300287-00&ServiceCd=320&Type=search", "url2": "https://www.n-ikuseien.jp/" }, "geometry": { "type": "Point", "coordinates": [ 136.1175965, 34.6509626 ] } },
{ "type": "Feature", "properties": { "内容": "グループホーム　とんぼ池【認知症対応型共同生活介護】三重県名張市安部田1175番地4", "url": "https://www.kaigokensaku.mhlw.go.jp/24/index.php?action_kouhyou_detail_004_kani=true&JigyosyoCd=2491300436-00&ServiceCd=320&Type=search", "url2": "https://www.tonboike.com" }, "geometry": { "type": "Point", "coordinates": [ 136.0607219, 34.5925118 ] } },
{ "type": "Feature", "properties": { "内容": "グループホーム　奏　－kanade－【認知症対応型共同生活介護】安部田2309番地", "url": "https://www.kaigokensaku.mhlw.go.jp/24/index.php?action_kouhyou_detail_004_kani=true&JigyosyoCd=2491300196-00&ServiceCd=320&Type=search", "url2": "http://www.orgel-care.com" }, "geometry": { "type": "Point", "coordinates": [ 136.062801, 34.5990468 ] } },
{ "type": "Feature", "properties": { "内容": "グループホーム　わらべ【認知症対応型共同生活介護】尾鷲市大字南浦古里の上４６８９－１", "url": "https://www.kaigokensaku.mhlw.go.jp/24/index.php?action_kouhyou_detail_004_kani=true&JigyosyoCd=2471000253-00&ServiceCd=320&Type=search", "url2": "http://www.owasechojuen.or.jp/" }, "geometry": { "type": "Point", "coordinates": [ 136.217420423214662, 34.079894448592711 ] } },
{ "type": "Feature", "properties": { "内容": "グループホーム　あいあい【認知症対応型共同生活介護】三重県尾鷲市矢浜1丁目15番45号", "url": "https://www.kaigokensaku.mhlw.go.jp/24/index.php?action_kouhyou_detail_004_kani=true&JigyosyoCd=2471000295-00&ServiceCd=320&Type=search", "url2": null }, "geometry": { "type": "Point", "coordinates": [ 136.20157770000003, 34.0629501 ] } },
{ "type": "Feature", "properties": { "内容": "あいあい日向グループホーム【認知症対応型共同生活介護】三重県尾鷲市大字向井133番地の9", "url": "https://www.kaigokensaku.mhlw.go.jp/24/index.php?action_kouhyou_detail_004_kani=true&JigyosyoCd=2491000036-00&ServiceCd=320&Type=search", "url2": null }, "geometry": { "type": "Point", "coordinates": [ 136.215623700000037, 34.0595454 ] } },
{ "type": "Feature", "properties": { "内容": "あいあい日和グループホーム【認知症対応型共同生活介護】尾鷲市大字向井132番地の2", "url": "https://www.kaigokensaku.mhlw.go.jp/24/index.php?action_kouhyou_detail_004_kani=true&JigyosyoCd=2491000069-00&ServiceCd=320&Type=search", "url2": null }, "geometry": { "type": "Point", "coordinates": [ 136.215609800000038, 34.059789800000011 ] } },
{ "type": "Feature", "properties": { "内容": "グループホームしあわせ【認知症対応型共同生活介護】三重県尾鷲市梶賀町６番地３", "url": "https://www.kaigokensaku.mhlw.go.jp/24/index.php?action_kouhyou_detail_004_kani=true&JigyosyoCd=2491000028-00&ServiceCd=320&Type=search", "url2": null }, "geometry": { "type": "Point", "coordinates": [ 136.2185098, 33.9684682 ] } },
{ "type": "Feature", "properties": { "内容": "海岸通り　グループホーム南風【認知症対応型共同生活介護】三重県尾鷲市新田町21-5", "url": "https://www.kaigokensaku.mhlw.go.jp/24/index.php?action_kouhyou_detail_004_kani=true&JigyosyoCd=2491000077-00&ServiceCd=320&Type=search", "url2": null }, "geometry": { "type": "Point", "coordinates": [ 136.182323900000029, 34.0650689 ] } },
{ "type": "Feature", "properties": { "内容": "グループホーム　白鳥【認知症対応型共同生活介護】三重県亀山市能褒野町８２番地1", "url": "https://www.kaigokensaku.mhlw.go.jp/24/index.php?action_kouhyou_detail_004_kani=true&JigyosyoCd=2490400062-00&ServiceCd=320&Type=search", "url2": "https://shiratori-nobono.jp" }, "geometry": { "type": "Point", "coordinates": [ 136.486484, 34.888933 ] } },
{ "type": "Feature", "properties": { "内容": "グループホーム・小春日和【認知症対応型共同生活介護】三重県亀山市南野町12番13号", "url": "https://www.kaigokensaku.mhlw.go.jp/24/index.php?action_kouhyou_detail_004_kani=true&JigyosyoCd=2490400013-00&ServiceCd=320&Type=search", "url2": null }, "geometry": { "type": "Point", "coordinates": [ 136.442165700000032, 34.8548915 ] } },
{ "type": "Feature", "properties": { "内容": "愛の家グループホーム亀山【認知症対応型共同生活介護】三重県亀山市川崎町１５８６－１", "url": "https://www.kaigokensaku.mhlw.go.jp/24/index.php?action_kouhyou_detail_004_kani=true&JigyosyoCd=2470400090-00&ServiceCd=320&Type=search", "url2": "http://www.mcsg.co.jp" }, "geometry": { "type": "Point", "coordinates": [ 136.47808216256567, 34.90337672968645 ] } },
{ "type": "Feature", "properties": { "内容": "グループホーム安全の里【認知症対応型共同生活介護】三重県亀山市住山町590番地1", "url": "https://www.kaigokensaku.mhlw.go.jp/24/index.php?action_kouhyou_detail_004_kani=true&JigyosyoCd=2490400112-00&ServiceCd=320&Type=search", "url2": "https://www.anzenfukushikai.or.jp/" }, "geometry": { "type": "Point", "coordinates": [ 136.429888799999958, 34.8752726 ] } },
{ "type": "Feature", "properties": { "内容": "グループホーム　はなの家【認知症対応型共同生活介護】亀山市関町木崎1234番地", "url": "https://www.kaigokensaku.mhlw.go.jp/24/index.php?action_kouhyou_detail_004_kani=true&JigyosyoCd=2472300066-00&ServiceCd=320&Type=search", "url2": "http://www.hananoie.co.jp/" }, "geometry": { "type": "Point", "coordinates": [ 136.398486182803367, 34.857295698424366 ] } },
{ "type": "Feature", "properties": { "内容": "グループホームあんぜんの丘【認知症対応型共同生活介護】三重県亀山市田茂町500番地", "url": "https://www.kaigokensaku.mhlw.go.jp/24/index.php?action_kouhyou_detail_004_kani=true&JigyosyoCd=2490400179-00&ServiceCd=320&Type=search", "url2": "https://www.anzenfukushikai.or.jp/" }, "geometry": { "type": "Point", "coordinates": [ 136.4525238, 34.8301118 ] } },
{ "type": "Feature", "properties": { "内容": "グループホーム　花しょうぶ苑【認知症対応型共同生活介護】三重県亀山市本町１丁目２番１２号", "url": "https://www.kaigokensaku.mhlw.go.jp/24/index.php?action_kouhyou_detail_004_kani=true&JigyosyoCd=2470400132-00&ServiceCd=320&Type=search", "url2": "http://www17.ocn.ne.jp/~hanasyob/" }, "geometry": { "type": "Point", "coordinates": [ 136.459649600000034, 34.8526421 ] } },
{ "type": "Feature", "properties": { "内容": "グループホームあおぞら【認知症対応型共同生活介護】三重県亀山市羽若町字西野834-41", "url": "https://www.kaigokensaku.mhlw.go.jp/24/index.php?action_kouhyou_detail_004_kani=true&JigyosyoCd=2490400047-00&ServiceCd=320&Type=search", "url2": null }, "geometry": { "type": "Point", "coordinates": [ 136.444583723278811, 34.86778723960861 ] } },
{ "type": "Feature", "properties": { "内容": "うさぎ亀山グループホーム【認知症対応型共同生活介護】三重県亀山市川合町字1119番地38", "url": "https://www.kaigokensaku.mhlw.go.jp/24/index.php?action_kouhyou_detail_004_kani=true&JigyosyoCd=2490400021-00&ServiceCd=320&Type=search", "url2": null }, "geometry": { "type": "Point", "coordinates": [ 136.474626108815102, 34.870271468491602 ] } },
{ "type": "Feature", "properties": { "内容": "グループホーム　宝寿の郷【認知症対応型共同生活介護】亀山市和田町1534－1", "url": "https://www.kaigokensaku.mhlw.go.jp/24/index.php?action_kouhyou_detail_004_kani=true&JigyosyoCd=2470400157-00&ServiceCd=320&Type=search", "url2": "www.hojunosato.jp" }, "geometry": { "type": "Point", "coordinates": [ 136.477932900000042, 34.8575004 ] } },
{ "type": "Feature", "properties": { "内容": "グループホーム　なごみ亀山【認知症対応型共同生活介護】亀山市亀田町字眞船３３６－１０", "url": "https://www.kaigokensaku.mhlw.go.jp/24/index.php?action_kouhyou_detail_004_kani=true&JigyosyoCd=2490400088-00&ServiceCd=320&Type=search", "url2": null }, "geometry": { "type": "Point", "coordinates": [ 136.453830599999947, 34.866032 ] } },
{ "type": "Feature", "properties": { "内容": "グループホームひまわり【認知症対応型共同生活介護】三重県鳥羽市安楽島町1439－4", "url": "https://www.kaigokensaku.mhlw.go.jp/24/index.php?action_kouhyou_detail_004_kani=true&JigyosyoCd=2470900164-00&ServiceCd=320&Type=search", "url2": "http://www4.hp-ez.com/hp/toba-himawari/page1" }, "geometry": { "type": "Point", "coordinates": [ 136.850228099999981, 34.4667536 ] } },
{ "type": "Feature", "properties": { "内容": "グループホーム　あらしま【認知症対応型共同生活介護】三重県鳥羽市安楽島町字高山１０７５－２９", "url": "https://www.kaigokensaku.mhlw.go.jp/24/index.php?action_kouhyou_detail_004_kani=true&JigyosyoCd=2470900180-00&ServiceCd=320&Type=search", "url2": "http://www.houwakai.or.jp/" }, "geometry": { "type": "Point", "coordinates": [ 136.861737553767369, 34.476250825332315 ] } },
{ "type": "Feature", "properties": { "内容": "かりんの家【認知症対応型共同生活介護】三重県いなべ市員弁町下笠田１６１９番地２", "url": "https://www.kaigokensaku.mhlw.go.jp/24/index.php?action_kouhyou_detail_004_kani=true&JigyosyoCd=2491400038-00&ServiceCd=320&Type=search", "url2": "https://rainin0723.wixsite.com/care-home" }, "geometry": { "type": "Point", "coordinates": [ 136.554885499999955, 35.1122951 ] } },
{ "type": "Feature", "properties": { "内容": "グループホームあおい【認知症対応型共同生活介護】三重県いなべ市大安町大井田2836番地", "url": "https://www.kaigokensaku.mhlw.go.jp/24/index.php?action_kouhyou_detail_004_kani=true&JigyosyoCd=2491400053-00&ServiceCd=320&Type=search", "url2": "aoi7@m3.cty-net.ne.jp" }, "geometry": { "type": "Point", "coordinates": [ 136.5493252, 35.0986987 ] } },
{ "type": "Feature", "properties": { "内容": "グループホーム　いなべの憩【認知症対応型共同生活介護】三重県いなべ市北勢町東村363番地2", "url": "https://www.kaigokensaku.mhlw.go.jp/24/index.php?action_kouhyou_detail_004_kani=true&JigyosyoCd=2491400129-00&ServiceCd=320&Type=search", "url2": null }, "geometry": { "type": "Point", "coordinates": [ 136.5157438, 35.1386254 ] } },
{ "type": "Feature", "properties": { "内容": "グループホームいなべ【認知症対応型共同生活介護】員弁町松之木367-1", "url": "https://www.kaigokensaku.mhlw.go.jp/24/index.php?action_kouhyou_detail_004_kani=true&JigyosyoCd=2491400277-00&ServiceCd=320&Type=search", "url2": null }, "geometry": { "type": "Point", "coordinates": [ 136.573987, 35.1102781 ] } },
{ "type": "Feature", "properties": { "内容": "医療法人豊和会グループホームやまもも【認知症対応型共同生活介護】三重県志摩市阿児町国府１０６１－１５３", "url": "https://www.kaigokensaku.mhlw.go.jp/24/index.php?action_kouhyou_detail_004_kani=true&JigyosyoCd=2472900113-00&ServiceCd=320&Type=search", "url2": "htpp://houwakai.or.jp" }, "geometry": { "type": "Point", "coordinates": [ 136.856696300000067, 34.3304654 ] } },
{ "type": "Feature", "properties": { "内容": "医療法人豊和会　グループホーム第２やまもも【認知症対応型共同生活介護】三重県志摩市阿児町鵜方2555‐9", "url": "https://www.kaigokensaku.mhlw.go.jp/24/index.php?action_kouhyou_detail_004_kani=true&JigyosyoCd=2472900246-00&ServiceCd=320&Type=search", "url2": "http://www.houwakai.or.jp/" }, "geometry": { "type": "Point", "coordinates": [ 136.835253800000032, 34.3327451 ] } },
{ "type": "Feature", "properties": { "内容": "大王認知症対応型グループホームシルバーケア豊壽園【認知症対応型共同生活介護】志摩市大王町波切2981番地2", "url": "https://www.kaigokensaku.mhlw.go.jp/24/index.php?action_kouhyou_detail_004_kani=true&JigyosyoCd=2492900044-00&ServiceCd=320&Type=search", "url2": "http://www.sensin.or.jp/" }, "geometry": { "type": "Point", "coordinates": [ 136.881809299999986, 34.2823304 ] } },
{ "type": "Feature", "properties": { "内容": "浜島認知症対応型グループホームシルバーケア豊壽園【認知症対応型共同生活介護】志摩市浜島町南張1816", "url": "https://www.kaigokensaku.mhlw.go.jp/24/index.php?action_kouhyou_detail_004_kani=true&JigyosyoCd=2492900069-00&ServiceCd=320&Type=search", "url2": "http://www.sensin.or.jp" }, "geometry": { "type": "Point", "coordinates": [ 136.721902600000021, 34.3074263 ] } },
{ "type": "Feature", "properties": { "内容": "グループホームしまの憩【認知症対応型共同生活介護】三重県志摩市磯部町恵利原１２６－１６", "url": "https://www.kaigokensaku.mhlw.go.jp/24/index.php?action_kouhyou_detail_004_kani=true&JigyosyoCd=2492900135-00&ServiceCd=320&Type=search", "url2": "https://www.frontier-gp.jp/nursing-home-search/detail/shima_gh" }, "geometry": { "type": "Point", "coordinates": [ 136.7872346, 34.3945894 ] } },
{ "type": "Feature", "properties": { "内容": "グループホーム　サンライズ志摩【認知症対応型共同生活介護】三重県志摩市阿児町甲賀3387番地の2", "url": "https://www.kaigokensaku.mhlw.go.jp/24/index.php?action_kouhyou_detail_004_kani=true&JigyosyoCd=2492900093-00&ServiceCd=320&Type=search", "url2": "http://www.roujin.net/" }, "geometry": { "type": "Point", "coordinates": [ 136.879033899999968, 34.3122292 ] } },
{ "type": "Feature", "properties": { "内容": "グループホームゆめが丘【認知症対応型共同生活介護】伊賀市ゆめが丘４丁目２番１", "url": "https://www.kaigokensaku.mhlw.go.jp/24/index.php?action_kouhyou_detail_004_kani=true&JigyosyoCd=2471200291-00&ServiceCd=320&Type=search", "url2": null }, "geometry": { "type": "Point", "coordinates": [ 136.15690410000002, 34.7360795 ] } },
{ "type": "Feature", "properties": { "内容": "グループホームはあとの杜千歳【認知症対応型共同生活介護】三重県伊賀市千歳清水682-1", "url": "https://www.kaigokensaku.mhlw.go.jp/24/index.php?action_kouhyou_detail_004_kani=true&JigyosyoCd=2491200081-00&ServiceCd=320&Type=search", "url2": "http://www.heartland.or.jp" }, "geometry": { "type": "Point", "coordinates": [ 136.162976320068339, 34.794099810474869 ] } },
{ "type": "Feature", "properties": { "内容": "グループホームはあとの杜本町【認知症対応型共同生活介護】三重県伊賀市緑ヶ丘本町1606グループホームはあとの杜本町", "url": "https://www.kaigokensaku.mhlw.go.jp/24/index.php?action_kouhyou_detail_004_kani=true&JigyosyoCd=2491200206-00&ServiceCd=320&Type=search", "url2": "https://www.heartland.or.jp/heart_mori/honmachi/" }, "geometry": { "type": "Point", "coordinates": [ 136.141500299999961, 34.7621724 ] } },
{ "type": "Feature", "properties": { "内容": "グループホームホコホコ【認知症対応型共同生活介護】三重県伊賀市依那具１００４", "url": "https://www.kaigokensaku.mhlw.go.jp/24/index.php?action_kouhyou_detail_004_kani=true&JigyosyoCd=2471200309-00&ServiceCd=320&Type=search", "url2": "http://www9.plala.or.jp/hokohoko/" }, "geometry": { "type": "Point", "coordinates": [ 136.141357, 34.735533400000016 ] } },
{ "type": "Feature", "properties": { "内容": "グループホームはあとの杜　上野【認知症対応型共同生活介護】伊賀市緑ヶ丘本町1606", "url": "https://www.kaigokensaku.mhlw.go.jp/24/index.php?action_kouhyou_detail_004_kani=true&JigyosyoCd=2491200016-00&ServiceCd=320&Type=search", "url2": "http://www.heartland.or.jp" }, "geometry": { "type": "Point", "coordinates": [ 136.141390399999977, 34.7626934 ] } },
{ "type": "Feature", "properties": { "内容": "認知症対応型グループホーム伊賀シルバーケア豊壽園【認知症対応型共同生活介護】伊賀市久米町字大木872-1番地", "url": "https://www.kaigokensaku.mhlw.go.jp/24/index.php?action_kouhyou_detail_004_kani=true&JigyosyoCd=2491200149-00&ServiceCd=320&Type=search", "url2": "http://www.sensin.or.jp/" }, "geometry": { "type": "Point", "coordinates": [ 136.141685753317205, 34.7540238801719 ] } },
{ "type": "Feature", "properties": { "内容": "グループホーム　大山田　いこいの里【認知症対応型共同生活介護】三重県伊賀市真泥2695番地の4", "url": "https://www.kaigokensaku.mhlw.go.jp/24/index.php?action_kouhyou_detail_004_kani=true&JigyosyoCd=2491200107-00&ServiceCd=320&Type=search", "url2": "www.intecjap.co.jp" }, "geometry": { "type": "Point", "coordinates": [ 136.194410609631717, 34.764477150850823 ] } },
{ "type": "Feature", "properties": { "内容": "グループホーム　伊賀まち　いこいの里【認知症対応型共同生活介護】三重県伊賀市野村字安田129-1", "url": "https://www.kaigokensaku.mhlw.go.jp/24/index.php?action_kouhyou_detail_004_kani=true&JigyosyoCd=2491200115-00&ServiceCd=320&Type=search", "url2": "www.intecjap.co.jp" }, "geometry": { "type": "Point", "coordinates": [ 136.232332450720151, 34.836044190738043 ] } },
{ "type": "Feature", "properties": { "内容": "グループホーム　はあとの杜　友生【認知症対応型共同生活介護】三重県伊賀市中友生1341-1", "url": "https://www.kaigokensaku.mhlw.go.jp/24/index.php?action_kouhyou_detail_004_kani=true&JigyosyoCd=2491200099-00&ServiceCd=320&Type=search", "url2": "http://www.heartland-ueno.jp/ghome" }, "geometry": { "type": "Point", "coordinates": [ 136.171921900000029, 34.7446237 ] } },
{ "type": "Feature", "properties": { "内容": "グループホーム森の里【認知症対応型共同生活介護】伊賀市腰山1135番地", "url": "https://www.kaigokensaku.mhlw.go.jp/24/index.php?action_kouhyou_detail_004_kani=true&JigyosyoCd=2473300057-00&ServiceCd=320&Type=search", "url2": "/www.nava21.ne.jp/~tokuyo-m/" }, "geometry": { "type": "Point", "coordinates": [ 136.208856299999979, 34.6319304 ] } },
{ "type": "Feature", "properties": { "内容": "グループホーム「あんだんて」【認知症対応型共同生活介護】三重県伊賀市安場１６１７－７", "url": "https://www.kaigokensaku.mhlw.go.jp/24/index.php?action_kouhyou_detail_004_kani=true&JigyosyoCd=2491200123-00&ServiceCd=320&Type=search", "url2": "g-home@kitamori.jp" }, "geometry": { "type": "Point", "coordinates": [ 136.110850749073734, 34.67005024505945 ] } },
{ "type": "Feature", "properties": { "内容": "ｸﾞﾙｰﾌﾟﾎｰﾑ　はあとの杜　緑ヶ丘【認知症対応型共同生活介護】三重県伊賀市緑ヶ丘本町１６０６ｸﾞﾙｰﾌﾟﾎｰﾑ　はあとの杜　緑ヶ丘", "url": "https://www.kaigokensaku.mhlw.go.jp/24/index.php?action_kouhyou_detail_004_kani=true&JigyosyoCd=2491200198-00&ServiceCd=320&Type=search", "url2": "gh-midori@heartland.or.jp" }, "geometry": { "type": "Point", "coordinates": [ 136.14138760000003, 34.7627073 ] } },
{ "type": "Feature", "properties": { "内容": "けあビジョンホーム伊賀【認知症対応型共同生活介護】三重県伊賀市中柘植144-1", "url": "https://www.kaigokensaku.mhlw.go.jp/24/index.php?action_kouhyou_detail_004_kani=true&JigyosyoCd=2491200297-00&ServiceCd=320&Type=search", "url2": "http://www.visualvision.co.jp/" }, "geometry": { "type": "Point", "coordinates": [ 136.230015788360589, 34.835095402380517 ] } },
{ "type": "Feature", "properties": { "内容": "愛の家グループホーム伊賀【認知症対応型共同生活介護】三重県伊賀市四十九町2450番地の7愛の家グループホーム伊賀", "url": "https://www.kaigokensaku.mhlw.go.jp/24/index.php?action_kouhyou_detail_004_kani=true&JigyosyoCd=2491200255-00&ServiceCd=320&Type=search", "url2": "http://mcs-ainoie.com/ins179.html" }, "geometry": { "type": "Point", "coordinates": [ 136.1388639, 34.7473941 ] } },
{ "type": "Feature", "properties": { "内容": "グループホーム　あやま【認知症対応型共同生活介護】三重県伊賀市馬場1128番地", "url": "https://www.kaigokensaku.mhlw.go.jp/24/index.php?action_kouhyou_detail_004_kani=true&JigyosyoCd=2491200248-00&ServiceCd=320&Type=search", "url2": "http://nukumorien.com/" }, "geometry": { "type": "Point", "coordinates": [ 136.175155238575826, 34.829703227681371 ] } },
{ "type": "Feature", "properties": { "内容": "なでしこの家【認知症対応型共同生活介護】員弁郡東員町穴太字大谷2578－4", "url": "https://www.kaigokensaku.mhlw.go.jp/24/index.php?action_kouhyou_detail_004_kani=true&JigyosyoCd=2472100508-00&ServiceCd=320&Type=search", "url2": "https://rainin0723.wixsite.com/care-home" }, "geometry": { "type": "Point", "coordinates": [ 136.583578499999931, 35.0742567 ] } },
{ "type": "Feature", "properties": { "内容": "グループホームもも鳥取【認知症対応型共同生活介護】三重県員弁郡東員町鳥取917-2", "url": "https://www.kaigokensaku.mhlw.go.jp/24/index.php?action_kouhyou_detail_004_kani=true&JigyosyoCd=2492100058-00&ServiceCd=320&Type=search", "url2": "https://www.momo3.net" }, "geometry": { "type": "Point", "coordinates": [ 136.5894844, 35.0855899 ] } },
{ "type": "Feature", "properties": { "内容": "グループホーム　あおいの家【認知症対応型共同生活介護】長深2127-2", "url": "https://www.kaigokensaku.mhlw.go.jp/24/index.php?action_kouhyou_detail_004_kani=true&JigyosyoCd=2492100082-00&ServiceCd=320&Type=search", "url2": null }, "geometry": { "type": "Point", "coordinates": [ 136.578877299999988, 35.0600912 ] } },
{ "type": "Feature", "properties": { "内容": "グループホームとういん【認知症対応型共同生活介護】東員町鳥取１３０８－１", "url": "https://www.kaigokensaku.mhlw.go.jp/24/index.php?action_kouhyou_detail_004_kani=true&JigyosyoCd=2492100017-00&ServiceCd=320&Type=search", "url2": null }, "geometry": { "type": "Point", "coordinates": [ 136.590053, 35.0948694 ] } },
{ "type": "Feature", "properties": { "内容": "医療法人光煌会【認知症対応型共同生活介護】愛知県名古屋市西区新道一丁目２１番５号", "url": "https://www.kaigokensaku.mhlw.go.jp/24/index.php?action_kouhyou_detail_004_kani=true&JigyosyoCd=2492200122-00&ServiceCd=320&Type=search", "url2": "https://koukoukai.jp/" }, "geometry": { "type": "Point", "coordinates": [ 136.8869707, 35.1834842 ] } },
{ "type": "Feature", "properties": { "内容": "グループホームあさひ【認知症対応型共同生活介護】三重県　三重郡　朝日町　大字　小向2064番地１", "url": "https://www.kaigokensaku.mhlw.go.jp/24/index.php?action_kouhyou_detail_004_kani=true&JigyosyoCd=2472200308-00&ServiceCd=320&Type=search", "url2": "http://www.fukujima.jp" }, "geometry": { "type": "Point", "coordinates": [ 136.667173997483786, 35.033970985047105 ] } },
{ "type": "Feature", "properties": { "内容": "愛の家グループホーム三重川越町【認知症対応型共同生活介護】三重県三重郡川越町大字高松２０３－２番地", "url": "https://www.kaigokensaku.mhlw.go.jp/24/index.php?action_kouhyou_detail_004_kani=true&JigyosyoCd=2472200266-00&ServiceCd=320&Type=search", "url2": "gh-179@mcsg.co.jp" }, "geometry": { "type": "Point", "coordinates": [ 136.664713500000062, 35.0217863 ] } },
{ "type": "Feature", "properties": { "内容": "フレンズハウス　川越【認知症対応型共同生活介護】高松185-1", "url": "https://www.kaigokensaku.mhlw.go.jp/24/index.php?action_kouhyou_detail_004_kani=true&JigyosyoCd=2492200130-00&ServiceCd=320&Type=search", "url2": "https://friendshose-kaigo.com" }, "geometry": { "type": "Point", "coordinates": [ 134.0465405, 34.342542 ] } },
{ "type": "Feature", "properties": { "内容": "（医）桜木記念病院：グループホーム桜木さん【認知症対応型共同生活介護】多気郡多気町大字仁田ヲシ山６７０－２０", "url": "https://www.kaigokensaku.mhlw.go.jp/24/index.php?action_kouhyou_detail_004_kani=true&JigyosyoCd=2472700414-00&ServiceCd=320&Type=search", "url2": "www.matusaka..ne.jp/sakura" }, "geometry": { "type": "Point", "coordinates": [ 136.546146, 34.4961531 ] } },
{ "type": "Feature", "properties": { "内容": "グループホーム桜木さん・明和【認知症対応型共同生活介護】三重県多気郡明和町大字佐田2055", "url": "https://www.kaigokensaku.mhlw.go.jp/24/index.php?action_kouhyou_detail_004_kani=true&JigyosyoCd=2492700030-00&ServiceCd=320&Type=search", "url2": "www.sakuragi-hp.com" }, "geometry": { "type": "Point", "coordinates": [ 136.623176400000034, 34.5475597 ] } },
{ "type": "Feature", "properties": { "内容": "グループホーム桜木さん第二明和【認知症対応型共同生活介護】三重県多気郡明和町大字佐田2055", "url": "https://www.kaigokensaku.mhlw.go.jp/24/index.php?action_kouhyou_detail_004_kani=true&JigyosyoCd=2492700063-00&ServiceCd=320&Type=search", "url2": "www.sakuragi-hp.com" }, "geometry": { "type": "Point", "coordinates": [ 136.633304421240268, 34.565880927290166 ] } },
{ "type": "Feature", "properties": { "内容": "高砂ライフケア株式会社グループホームゆう【認知症対応型共同生活介護】三重県多気郡明和町大字斎宮3816－24", "url": "https://www.kaigokensaku.mhlw.go.jp/24/index.php?action_kouhyou_detail_004_kani=true&JigyosyoCd=2472700398-00&ServiceCd=320&Type=search", "url2": "http://www.you-kaigo.com/" }, "geometry": { "type": "Point", "coordinates": [ 136.6268149, 34.5480097 ] } },
{ "type": "Feature", "properties": { "内容": "グループホームゆう　きの家【認知症対応型共同生活介護】明和町斎宮3816－24", "url": "https://www.kaigokensaku.mhlw.go.jp/24/index.php?action_kouhyou_detail_004_kani=true&JigyosyoCd=2492700071-00&ServiceCd=320&Type=search", "url2": "http://www.you-kaigo.com/" }, "geometry": { "type": "Point", "coordinates": [ 136.6268149, 34.5480097 ] } },
{ "type": "Feature", "properties": { "内容": "愛の家グループホーム大台【認知症対応型共同生活介護】三重県多気郡大台町栃原１１４７－２", "url": "https://www.kaigokensaku.mhlw.go.jp/24/index.php?action_kouhyou_detail_004_kani=true&JigyosyoCd=2492700055-00&ServiceCd=320&Type=search", "url2": "http:gh-181@mcsg.co.jp" }, "geometry": { "type": "Point", "coordinates": [ 136.506541700000071, 34.4372701 ] } },
{ "type": "Feature", "properties": { "内容": "グループホーム　たきの憩【認知症対応型共同生活介護】三重県多気郡大台町上真手405番地グループホームたきの憩", "url": "https://www.kaigokensaku.mhlw.go.jp/24/index.php?action_kouhyou_detail_004_kani=true&JigyosyoCd=2492700113-00&ServiceCd=320&Type=search", "url2": "http://www.frontiernokaigo.jp/" }, "geometry": { "type": "Point", "coordinates": [ 136.364112600000027, 34.374892899999985 ] } },
{ "type": "Feature", "properties": { "内容": "グループホーム桜の里【認知症対応型共同生活介護】三重県度会郡玉城町矢野139-3", "url": "https://www.kaigokensaku.mhlw.go.jp/24/index.php?action_kouhyou_detail_004_kani=true&JigyosyoCd=2472800610-00&ServiceCd=320&Type=search", "url2": "http://sakuranosato-tamaki.com/" }, "geometry": { "type": "Point", "coordinates": [ 136.602373599999964, 34.4809927 ] } },
{ "type": "Feature", "properties": { "内容": "グループホーム　こかげ【認知症対応型共同生活介護】三重県度会郡度会町棚橋198番地", "url": "https://www.kaigokensaku.mhlw.go.jp/24/index.php?action_kouhyou_detail_004_kani=true&JigyosyoCd=2492800095-00&ServiceCd=320&Type=search", "url2": "http://www.amigo2.ne.jp/~a2880038/" }, "geometry": { "type": "Point", "coordinates": [ 136.628051966142948, 34.434074116465958 ] } },
{ "type": "Feature", "properties": { "内容": "グループホーム　わたらい【認知症対応型共同生活介護】三重県度会郡度会町麻加江516-1", "url": "https://www.kaigokensaku.mhlw.go.jp/24/index.php?action_kouhyou_detail_004_kani=true&JigyosyoCd=2492800053-00&ServiceCd=320&Type=search", "url2": null }, "geometry": { "type": "Point", "coordinates": [ 136.556581199999982, 34.437366 ] } },
{ "type": "Feature", "properties": { "内容": "特定非営利活動法人　グループホーム滝原【認知症対応型共同生活介護】度会郡大紀町滝原830番地１", "url": "https://www.kaigokensaku.mhlw.go.jp/24/index.php?action_kouhyou_detail_004_kani=true&JigyosyoCd=2472800883-00&ServiceCd=320&Type=search", "url2": "takihara@axis-acc.co.jp;" }, "geometry": { "type": "Point", "coordinates": [ 136.417660699999942, 34.3719902 ] } },
{ "type": "Feature", "properties": { "内容": "なでしこ大紀【認知症対応型共同生活介護】三重県度会郡大紀町崎181-4", "url": "https://www.kaigokensaku.mhlw.go.jp/24/index.php?action_kouhyou_detail_004_kani=true&JigyosyoCd=2472800909-00&ServiceCd=320&Type=search", "url2": null }, "geometry": { "type": "Point", "coordinates": [ 136.395354699999984, 34.2993037 ] } },
{ "type": "Feature", "properties": { "内容": "愛の家グループホーム五ヶ所【認知症対応型共同生活介護】度会郡南伊勢町五ヶ所浦4024-2", "url": "https://www.kaigokensaku.mhlw.go.jp/24/index.php?action_kouhyou_detail_004_kani=true&JigyosyoCd=2472800891-00&ServiceCd=320&Type=search", "url2": "gh-182@mcsg.co.jp" }, "geometry": { "type": "Point", "coordinates": [ 136.702188799999931, 34.3485874 ] } },
{ "type": "Feature", "properties": { "内容": "グループホームぱれっと【認知症対応型共同生活介護】三重県度会郡南伊勢町河内520番地", "url": "https://www.kaigokensaku.mhlw.go.jp/24/index.php?action_kouhyou_detail_004_kani=true&JigyosyoCd=2492800061-00&ServiceCd=320&Type=search", "url2": null }, "geometry": { "type": "Point", "coordinates": [ 136.51655089999997, 34.3048363 ] } },
{ "type": "Feature", "properties": { "内容": "グループホームさくら【認知症対応型共同生活介護】三重県紀北町東長島1075-6", "url": "https://www.kaigokensaku.mhlw.go.jp/24/index.php?action_kouhyou_detail_004_kani=true&JigyosyoCd=2493000067-00&ServiceCd=320&Type=search", "url2": "http://mc-sei.com" }, "geometry": { "type": "Point", "coordinates": [ 136.329796037828856, 34.212286292416984 ] } },
{ "type": "Feature", "properties": { "内容": "グループホーム　どんぐり【認知症対応型共同生活介護】三重県北牟婁郡紀北町1635-2", "url": "https://www.kaigokensaku.mhlw.go.jp/24/index.php?action_kouhyou_detail_004_kani=true&JigyosyoCd=2493000059-00&ServiceCd=320&Type=search", "url2": "http://www.owasechojuen.or.jp/" }, "geometry": { "type": "Point", "coordinates": [ 136.251345594244185, 34.151771745113955 ] } },
{ "type": "Feature", "properties": { "内容": "グループホーム　ゆりかご【認知症対応型共同生活介護】三重県北牟婁郡紀北町船津１２１８", "url": "https://www.kaigokensaku.mhlw.go.jp/24/index.php?action_kouhyou_detail_004_kani=true&JigyosyoCd=2493000042-00&ServiceCd=320&Type=search", "url2": null }, "geometry": { "type": "Point", "coordinates": [ 136.214825499999961, 34.1245165 ] } },
{ "type": "Feature", "properties": { "内容": "グループホーム　たいき【認知症対応型共同生活介護】三重県北牟婁郡紀北町三浦７０５番地１", "url": "https://www.kaigokensaku.mhlw.go.jp/24/index.php?action_kouhyou_detail_004_kani=true&JigyosyoCd=2493000018-00&ServiceCd=320&Type=search", "url2": "http://www.za.ztv.ne.jp/taiki/" }, "geometry": { "type": "Point", "coordinates": [ 136.277708599999983, 34.1647544 ] } },
{ "type": "Feature", "properties": { "内容": "グループホーム　みつわ【認知症対応型共同生活介護】三重県南牟婁郡御浜町志原1698-50", "url": "https://www.kaigokensaku.mhlw.go.jp/24/index.php?action_kouhyou_detail_004_kani=true&JigyosyoCd=2473100101-00&ServiceCd=320&Type=search", "url2": null }, "geometry": { "type": "Point", "coordinates": [ 136.056379, 33.8476632 ] } },
{ "type": "Feature", "properties": { "内容": "グループホーム　ひぐらし【認知症対応型共同生活介護】三重県南牟婁郡御浜町神木２３番地", "url": "https://www.kaigokensaku.mhlw.go.jp/24/index.php?action_kouhyou_detail_004_kani=true&JigyosyoCd=2473100143-00&ServiceCd=320&Type=search", "url2": null }, "geometry": { "type": "Point", "coordinates": [ 136.0286195, 33.8540339 ] } },
{ "type": "Feature", "properties": { "内容": "グループホーム楽らく【認知症対応型共同生活介護】南牟婁郡紀宝町成川１０７６番地５", "url": "https://www.kaigokensaku.mhlw.go.jp/24/index.php?action_kouhyou_detail_004_kani=true&JigyosyoCd=2473100259-00&ServiceCd=320&Type=search", "url2": "https://raku.jp" }, "geometry": { "type": "Point", "coordinates": [ 135.991385799999989, 33.7365783 ] } }
]
}
