{
"type": "FeatureCollection",
"name": "geo_24_看護小規模多機能型居宅介護（複合型サービス）",
"crs": { "type": "name", "properties": { "name": "urn:ogc:def:crs:OGC:1.3:CRS84" } },
"features": [
{ "type": "Feature", "properties": { "内容": "ハーモニーハウス津・大園【看護小規模多機能型居宅介護（複合型サービス）】三重県津市大園町5-45", "url": "https://www.kaigokensaku.mhlw.go.jp/24/index.php?action_kouhyou_detail_004_kani=true&JigyosyoCd=2490500499-00&ServiceCd=&Type=search", "url2": "https://www.h-ikkou.co.jp/harmony_tsu_ozono/index.html" }, "geometry": { "type": "Point", "coordinates": [ 136.492124414819273, 34.714803337833878 ] } },
{ "type": "Feature", "properties": { "内容": "看護小規模多機能いちし【看護小規模多機能型居宅介護（複合型サービス）】津市一志町日置４4番地６", "url": "https://www.kaigokensaku.mhlw.go.jp/24/index.php?action_kouhyou_detail_004_kani=true&JigyosyoCd=2490500788-00&ServiceCd=&Type=search", "url2": null }, "geometry": { "type": "Point", "coordinates": [ 136.4453133, 34.6608017 ] } },
{ "type": "Feature", "properties": { "内容": "ナーシングホームもも四日市【看護小規模多機能型居宅介護（複合型サービス）】三重県四日市市朝明町441-1", "url": "https://www.kaigokensaku.mhlw.go.jp/24/index.php?action_kouhyou_detail_004_kani=true&JigyosyoCd=2490200512-00&ServiceCd=&Type=search", "url2": "https://www.momo3.net" }, "geometry": { "type": "Point", "coordinates": [ 136.589617, 35.039474 ] } },
{ "type": "Feature", "properties": { "内容": "ゴールドエイジさつき【看護小規模多機能型居宅介護（複合型サービス）】四日市市城西町6-13ゴールドエイジ城西", "url": "https://www.kaigokensaku.mhlw.go.jp/24/index.php?action_kouhyou_detail_004_kani=true&JigyosyoCd=2490200256-00&ServiceCd=&Type=search", "url2": null }, "geometry": { "type": "Point", "coordinates": [ 136.60306479999997, 34.9638256 ] } },
{ "type": "Feature", "properties": { "内容": "富洲原複合型ｻｰﾋﾞｽセンター（看護小規模多機能型居宅介護）【看護小規模多機能型居宅介護（複合型サービス）】富州原町２番８０号", "url": "https://www.kaigokensaku.mhlw.go.jp/24/index.php?action_kouhyou_detail_004_kani=true&JigyosyoCd=2490200181-00&ServiceCd=&Type=search", "url2": "http://www.yokkaichi.tokuyou.jp" }, "geometry": { "type": "Point", "coordinates": [ 136.660361500000022, 35.0092404 ] } },
{ "type": "Feature", "properties": { "内容": "看護小規模多機能型居宅介護しらゆりケア【看護小規模多機能型居宅介護（複合型サービス）】東日野町107", "url": "https://www.kaigokensaku.mhlw.go.jp/24/index.php?action_kouhyou_detail_004_kani=true&JigyosyoCd=2490200611-00&ServiceCd=&Type=search", "url2": "https://kantaki-shirayuricare.com/" }, "geometry": { "type": "Point", "coordinates": [ 136.592133, 34.9572681 ] } },
{ "type": "Feature", "properties": { "内容": "看護小規模多機能型居宅介護・そねの家【看護小規模多機能型居宅介護（複合型サービス）】三重県伊勢市曽祢一丁目7-9", "url": "https://www.kaigokensaku.mhlw.go.jp/24/index.php?action_kouhyou_detail_004_kani=true&JigyosyoCd=2490800436-00&ServiceCd=&Type=search", "url2": "https://www.isetanaka.jp/sonenoie.php" }, "geometry": { "type": "Point", "coordinates": [ 136.701306100000011, 34.4927912 ] } },
{ "type": "Feature", "properties": { "内容": "セントケア看護小規模松阪【看護小規模多機能型居宅介護（複合型サービス）】三重県松阪市宝塚町720-6", "url": "https://www.kaigokensaku.mhlw.go.jp/24/index.php?action_kouhyou_detail_004_kani=true&JigyosyoCd=2490700461-00&ServiceCd=&Type=search", "url2": "https://saint-care-mie.com" }, "geometry": { "type": "Point", "coordinates": [ 136.5176863, 34.5545666 ] } },
{ "type": "Feature", "properties": { "内容": "看護小規模多機能型居宅介護事業所　みくも村【看護小規模多機能型居宅介護（複合型サービス）】三重県松阪市市場庄町1373", "url": "https://www.kaigokensaku.mhlw.go.jp/24/index.php?action_kouhyou_detail_004_kani=true&JigyosyoCd=2490700420-00&ServiceCd=&Type=search", "url2": "https://iitomokai.jp/" }, "geometry": { "type": "Point", "coordinates": [ 136.517512599999975, 34.6019861 ] } },
{ "type": "Feature", "properties": { "内容": "複合型サービスすぎな【看護小規模多機能型居宅介護（複合型サービス）】三重県桑名市陽だまりの丘2丁目2304ケアステーション陽だまり", "url": "https://www.kaigokensaku.mhlw.go.jp/24/index.php?action_kouhyou_detail_004_kani=true&JigyosyoCd=2490100266-00&ServiceCd=&Type=search", "url2": "http://www.kuwana-healthcoop.or.jp" }, "geometry": { "type": "Point", "coordinates": [ 136.643682110975675, 35.087601500000048 ] } },
{ "type": "Feature", "properties": { "内容": "スィート看護小規模多機能ケア葉月【看護小規模多機能型居宅介護（複合型サービス）】三重県桑名市大字西方1538番地1", "url": "https://www.kaigokensaku.mhlw.go.jp/24/index.php?action_kouhyou_detail_004_kani=true&JigyosyoCd=2490100373-00&ServiceCd=&Type=search", "url2": "http://care-sweet.com" }, "geometry": { "type": "Point", "coordinates": [ 136.6664733, 35.0776114 ] } },
{ "type": "Feature", "properties": { "内容": "看護小規模多機能型居宅介護　ふるさとカクテル【看護小規模多機能型居宅介護（複合型サービス）】三重県桑名市北別所字流1590番地4ふるさとタウン", "url": "https://www.kaigokensaku.mhlw.go.jp/24/index.php?action_kouhyou_detail_004_kani=true&JigyosyoCd=2490100407-00&ServiceCd=&Type=search", "url2": "https://takurousho-furusato.com/company" }, "geometry": { "type": "Point", "coordinates": [ 136.6735519, 35.0746999 ] } },
{ "type": "Feature", "properties": { "内容": "看護小規模多機能ホームアルテハイム鈴鹿【看護小規模多機能型居宅介護（複合型サービス）】三重県鈴鹿市平田1丁目2番8号", "url": "https://www.kaigokensaku.mhlw.go.jp/24/index.php?action_kouhyou_detail_004_kani=true&JigyosyoCd=2490300205-00&ServiceCd=&Type=search", "url2": null }, "geometry": { "type": "Point", "coordinates": [ 136.5409062, 34.8746771 ] } },
{ "type": "Feature", "properties": { "内容": "セントケア看護小規模豊後町【看護小規模多機能型居宅介護（複合型サービス）】豊後町262番地1", "url": "https://www.kaigokensaku.mhlw.go.jp/24/index.php?action_kouhyou_detail_004_kani=true&JigyosyoCd=2491300469-00&ServiceCd=&Type=search", "url2": "https://www.saint-care.com/" }, "geometry": { "type": "Point", "coordinates": [ 136.08547870000001, 34.6204455 ] } },
{ "type": "Feature", "properties": { "内容": "看護小規模多機能センター　みざい【看護小規模多機能型居宅介護（複合型サービス）】三重県いなべ市員弁町松之木西奥田1173番地2", "url": "https://www.kaigokensaku.mhlw.go.jp/24/index.php?action_kouhyou_detail_004_kani=true&JigyosyoCd=2491400178-00&ServiceCd=&Type=search", "url2": "https://main-meishin.ssl-lolipop.jp/?page_id=754" }, "geometry": { "type": "Point", "coordinates": [ 136.573670940585799, 35.101147662078752 ] } },
{ "type": "Feature", "properties": { "内容": "看護小規模多機能介護施設　よしむら【看護小規模多機能型居宅介護（複合型サービス）】三重県伊賀市土橋1505-1", "url": "https://www.kaigokensaku.mhlw.go.jp/24/index.php?action_kouhyou_detail_004_kani=true&JigyosyoCd=2491200214-00&ServiceCd=&Type=search", "url2": null }, "geometry": { "type": "Point", "coordinates": [ 136.1434251, 34.8013762 ] } },
{ "type": "Feature", "properties": { "内容": "ナーシングホームもも鳥取【看護小規模多機能型居宅介護（複合型サービス）】三重県員弁郡東員町鳥取917-2", "url": "https://www.kaigokensaku.mhlw.go.jp/24/index.php?action_kouhyou_detail_004_kani=true&JigyosyoCd=2492100041-00&ServiceCd=&Type=search", "url2": "https://www.momo3.net" }, "geometry": { "type": "Point", "coordinates": [ 136.583378499999981, 35.0852727 ] } }
]
}
