{
"type": "FeatureCollection",
"name": "geo_24_幼保連携型認定こども園",
"crs": { "type": "name", "properties": { "name": "urn:ogc:def:crs:EPSG::6668" } },
"features": [
{ "type": "Feature", "properties": { "P29_001": "24201", "P29_002": "A224220110018", "P29_003": "16013", "P29_004": "津市立津みどりの森こども園", "P29_005": "三重県津市神戸332-1", "P29_006": "3", "P29_007": "0", "P29_008": "00", "P29_009": null }, "geometry": { "type": "Point", "coordinates": [ 136.480617794449103, 34.714228345935659 ] } },
{ "type": "Feature", "properties": { "P29_001": "24201", "P29_002": "A224220110027", "P29_003": "16013", "P29_004": "津市立香良洲浜っ子幼児園", "P29_005": "三重県津市香良洲町5722", "P29_006": "3", "P29_007": "0", "P29_008": "00", "P29_009": null }, "geometry": { "type": "Point", "coordinates": [ 136.53988648986288, 34.646874457765115 ] } },
{ "type": "Feature", "properties": { "P29_001": "24201", "P29_002": "A224220110036", "P29_003": "16013", "P29_004": "津市立白山こども園", "P29_005": "三重県津市白山町南出493", "P29_006": "3", "P29_007": "0", "P29_008": "00", "P29_009": null }, "geometry": { "type": "Point", "coordinates": [ 136.34062083434867, 34.660020759336433 ] } },
{ "type": "Feature", "properties": { "P29_001": "24201", "P29_002": "A224220110045", "P29_003": "16013", "P29_004": "津市立一志こども園", "P29_005": "三重県津市一志町高野1451", "P29_006": "3", "P29_007": "0", "P29_008": "00", "P29_009": null }, "geometry": { "type": "Point", "coordinates": [ 136.430397183074007, 34.660791185459139 ] } },
{ "type": "Feature", "properties": { "P29_001": "24201", "P29_002": "A224220110054", "P29_003": "16013", "P29_004": "津市立芸濃こども園", "P29_005": "三重県津市芸濃町椋本6148", "P29_006": "3", "P29_007": "0", "P29_008": "00", "P29_009": null }, "geometry": { "type": "Point", "coordinates": [ 136.426765609270518, 34.810542158466717 ] } },
{ "type": "Feature", "properties": { "P29_001": "24201", "P29_002": "A224220110063", "P29_003": "16013", "P29_004": "津市立河芸こども園", "P29_005": "三重県津市河芸町上野2963", "P29_006": "3", "P29_007": "0", "P29_008": "00", "P29_009": null }, "geometry": { "type": "Point", "coordinates": [ 136.547431962568311, 34.795773257230486 ] } },
{ "type": "Feature", "properties": { "P29_001": "24202", "P29_002": "A224220210017", "P29_003": "16013", "P29_004": "四日市市立橋北こども園", "P29_005": "三重県四日市市東新町26-32", "P29_006": "3", "P29_007": "0", "P29_008": "00", "P29_009": null }, "geometry": { "type": "Point", "coordinates": [ 136.636983003533828, 34.976038996186112 ] } },
{ "type": "Feature", "properties": { "P29_001": "24202", "P29_002": "A224220210026", "P29_003": "16013", "P29_004": "四日市市立塩浜こども園", "P29_005": "三重県四日市市柳町33", "P29_006": "3", "P29_007": "0", "P29_008": "00", "P29_009": null }, "geometry": { "type": "Point", "coordinates": [ 136.619675004874068, 34.934565001290267 ] } },
{ "type": "Feature", "properties": { "P29_001": "24202", "P29_002": "A224220210035", "P29_003": "16013", "P29_004": "四日市市立保々こども園", "P29_005": "三重県四日市市西村町2725-1", "P29_006": "3", "P29_007": "0", "P29_008": "00", "P29_009": null }, "geometry": { "type": "Point", "coordinates": [ 136.562238784537186, 35.050947468552913 ] } },
{ "type": "Feature", "properties": { "P29_001": "24202", "P29_002": "A224220210044", "P29_003": "16013", "P29_004": "四日市市立楠こども園", "P29_005": "三重県四日市市楠町北五味塚2060-63", "P29_006": "3", "P29_007": "0", "P29_008": "00", "P29_009": null }, "geometry": { "type": "Point", "coordinates": [ 136.628399995575847, 34.914074999451991 ] } },
{ "type": "Feature", "properties": { "P29_001": "24202", "P29_002": "A224220210053", "P29_003": "16013", "P29_004": "四日市市立神前こども園", "P29_005": "三重県四日市市高角町2985-1", "P29_006": "3", "P29_007": "0", "P29_008": "00", "P29_009": null }, "geometry": { "type": "Point", "coordinates": [ 136.567804319246079, 34.985958182312814 ] } },
{ "type": "Feature", "properties": { "P29_001": "24202", "P29_002": "A224220210062", "P29_003": "16013", "P29_004": "四日市市立桜こども園", "P29_005": "三重県四日市市桜台1-35-28", "P29_006": "3", "P29_007": "0", "P29_008": "00", "P29_009": null }, "geometry": { "type": "Point", "coordinates": [ 136.533090495058843, 34.986982764151023 ] } },
{ "type": "Feature", "properties": { "P29_001": "24202", "P29_002": "A224220210071", "P29_003": "16013", "P29_004": "四日市市立富田こども園", "P29_005": "三重県四日市市富田2-12-9", "P29_006": "3", "P29_007": "0", "P29_008": "00", "P29_009": null }, "geometry": { "type": "Point", "coordinates": [ 136.654910289123251, 35.006734070731028 ] } },
{ "type": "Feature", "properties": { "P29_001": "24203", "P29_002": "A224220310016", "P29_003": "16013", "P29_004": "伊勢市立しごうこども園", "P29_005": "三重県伊勢市一宇田町891-1", "P29_006": "3", "P29_007": "0", "P29_008": "00", "P29_009": null }, "geometry": { "type": "Point", "coordinates": [ 136.754102532207128, 34.477635154610667 ] } },
{ "type": "Feature", "properties": { "P29_001": "24204", "P29_002": "A224220410015", "P29_003": "16013", "P29_004": "松阪市立三雲北こども園", "P29_005": "三重県松阪市肥留町551", "P29_006": "3", "P29_007": "0", "P29_008": "00", "P29_009": null }, "geometry": { "type": "Point", "coordinates": [ 136.512701109558378, 34.639015736754978 ] } },
{ "type": "Feature", "properties": { "P29_001": "24204", "P29_002": "A224220410024", "P29_003": "16013", "P29_004": "松阪市立三雲南こども園", "P29_005": "三重県松阪市小津町577-3", "P29_006": "3", "P29_007": "0", "P29_008": "00", "P29_009": null }, "geometry": { "type": "Point", "coordinates": [ 136.511123334162761, 34.614122460327721 ] } },
{ "type": "Feature", "properties": { "P29_001": "24210", "P29_002": "A224221010017", "P29_003": "16013", "P29_004": "亀山市立関認定こども園アスレ", "P29_005": "三重県亀山市関町木崎786", "P29_006": "3", "P29_007": "0", "P29_008": "00", "P29_009": null }, "geometry": { "type": "Point", "coordinates": [ 136.393953260735174, 34.85541914693664 ] } },
{ "type": "Feature", "properties": { "P29_001": "24303", "P29_002": "A224230310015", "P29_003": "16013", "P29_004": "木曽岬町立木曽岬こども園", "P29_005": "三重県桑名郡木曽岬町大字和泉431-1", "P29_006": "3", "P29_007": "0", "P29_008": "00", "P29_009": null }, "geometry": { "type": "Point", "coordinates": [ 136.735730585974011, 35.084660462038755 ] } },
{ "type": "Feature", "properties": { "P29_001": "24442", "P29_002": "A224244210017", "P29_003": "16013", "P29_004": "明和町立みょうじょうこども園", "P29_005": "三重県多気郡明和町明星1060", "P29_006": "3", "P29_007": "0", "P29_008": "00", "P29_009": null }, "geometry": { "type": "Point", "coordinates": [ 136.636378554290673, 34.522128997029284 ] } },
{ "type": "Feature", "properties": { "P29_001": "24442", "P29_002": "A224244210026", "P29_003": "16013", "P29_004": "明和町立みどりこども園", "P29_005": "三重県多気郡明和町大字上村103", "P29_006": "3", "P29_007": "0", "P29_008": "00", "P29_009": null }, "geometry": { "type": "Point", "coordinates": [ 136.605094364368313, 34.527167313791963 ] } },
{ "type": "Feature", "properties": { "P29_001": "24201", "P29_002": "A224320115011", "P29_003": "16013", "P29_004": "藤認定こども園", "P29_005": "三重県津市豊が丘2-57-5", "P29_006": "4", "P29_007": "0", "P29_008": "00", "P29_009": null }, "geometry": { "type": "Point", "coordinates": [ 136.471166616853253, 34.808705365539439 ] } },
{ "type": "Feature", "properties": { "P29_001": "24201", "P29_002": "A224320115020", "P29_003": "16013", "P29_004": "幼保連携型認定こども園こどもの杜ゆたか園", "P29_005": "三重県津市一身田上津部田1715-1", "P29_006": "4", "P29_007": "0", "P29_008": "00", "P29_009": null }, "geometry": { "type": "Point", "coordinates": [ 136.490018162310349, 34.752508576860862 ] } },
{ "type": "Feature", "properties": { "P29_001": "24201", "P29_002": "A224320115039", "P29_003": "16013", "P29_004": "幼保連携型認定こども園杜の街ゆたか園", "P29_005": "三重県津市河芸町杜の街1-1-3", "P29_006": "4", "P29_007": "0", "P29_008": "00", "P29_009": null }, "geometry": { "type": "Point", "coordinates": [ 136.538006401064024, 34.805761615544405 ] } },
{ "type": "Feature", "properties": { "P29_001": "24201", "P29_002": "A224320115048", "P29_003": "16013", "P29_004": "幼保連携型認定こども園みらいの森ゆたか園", "P29_005": "三重県津市河芸町三行字住持989", "P29_006": "4", "P29_007": "0", "P29_008": "00", "P29_009": null }, "geometry": { "type": "Point", "coordinates": [ 136.517909023250922, 34.804706851067131 ] } },
{ "type": "Feature", "properties": { "P29_001": "24201", "P29_002": "A224320115057", "P29_003": "16013", "P29_004": "津カトリックこども園", "P29_005": "三重県津市西丸之内18-21", "P29_006": "4", "P29_007": "0", "P29_008": "00", "P29_009": null }, "geometry": { "type": "Point", "coordinates": [ 136.503552884516239, 34.717711686167171 ] } },
{ "type": "Feature", "properties": { "P29_001": "24201", "P29_002": "A224320115066", "P29_003": "16013", "P29_004": "幼保連携型認定こども園ぼだいじこども園", "P29_005": "三重県津市南中央10-18", "P29_006": "4", "P29_007": "0", "P29_008": "00", "P29_009": null }, "geometry": { "type": "Point", "coordinates": [ 136.508884195714757, 34.706569847610446 ] } },
{ "type": "Feature", "properties": { "P29_001": "24201", "P29_002": "A224320115075", "P29_003": "16013", "P29_004": "藤水保育園", "P29_005": "三重県津市藤方1531", "P29_006": "4", "P29_007": "0", "P29_008": "00", "P29_009": null }, "geometry": { "type": "Point", "coordinates": [ 136.509952829140303, 34.688109348515468 ] } },
{ "type": "Feature", "properties": { "P29_001": "24201", "P29_002": "A224320115084", "P29_003": "16013", "P29_004": "風の子藤水保育園", "P29_005": "三重県津市雲出島貫町1735-5", "P29_006": "4", "P29_007": "0", "P29_008": "00", "P29_009": null }, "geometry": { "type": "Point", "coordinates": [ 136.510894001710511, 34.659281000789655 ] } },
{ "type": "Feature", "properties": { "P29_001": "24201", "P29_002": "A224320115093", "P29_003": "16013", "P29_004": "風の丘藤水保育園", "P29_005": "三重県津市戸木町4607", "P29_006": "4", "P29_007": "0", "P29_008": "00", "P29_009": null }, "geometry": { "type": "Point", "coordinates": [ 136.436676995689112, 34.6827019989394 ] } },
{ "type": "Feature", "properties": { "P29_001": "24201", "P29_002": "A224320115100", "P29_003": "16013", "P29_004": "認定子供園清泉幼稚園", "P29_005": "三重県津市南丸之内9-12", "P29_006": "4", "P29_007": "0", "P29_008": "00", "P29_009": null }, "geometry": { "type": "Point", "coordinates": [ 136.500682307039966, 34.714315536082474 ] } },
{ "type": "Feature", "properties": { "P29_001": "24201", "P29_002": "A224320115119", "P29_003": "16013", "P29_004": "ＮＯＢＥＮＯこども園", "P29_005": "三重県津市久居井戸山町860-2", "P29_006": "4", "P29_007": "0", "P29_008": "00", "P29_009": null }, "geometry": { "type": "Point", "coordinates": [ 136.487223995572151, 34.673869998678228 ] } },
{ "type": "Feature", "properties": { "P29_001": "24201", "P29_002": "A224320115128", "P29_003": "16013", "P29_004": "ルーテル二葉認定こども園", "P29_005": "三重県津市南が丘1-17", "P29_006": "4", "P29_007": "0", "P29_008": "00", "P29_009": null }, "geometry": { "type": "Point", "coordinates": [ 136.497406372681496, 34.690249005244326 ] } },
{ "type": "Feature", "properties": { "P29_001": "24201", "P29_002": "A224320115137", "P29_003": "16013", "P29_004": "幼保連携型認定こども園すぎのこ保育園", "P29_005": "三重県津市久居中町336-4", "P29_006": "4", "P29_007": "0", "P29_008": "00", "P29_009": null }, "geometry": { "type": "Point", "coordinates": [ 136.469435358336767, 34.681182750672768 ] } },
{ "type": "Feature", "properties": { "P29_001": "24201", "P29_002": "A224320115146", "P29_003": "16013", "P29_004": "津こども園", "P29_005": "三重県津市南河路246", "P29_006": "4", "P29_007": "0", "P29_008": "00", "P29_009": null }, "geometry": { "type": "Point", "coordinates": [ 136.479513996823869, 34.720611002726926 ] } },
{ "type": "Feature", "properties": { "P29_001": "24201", "P29_002": "A224320115155", "P29_003": "16013", "P29_004": "ゆたか認定こども園", "P29_005": "三重県津市河芸町中別保1656", "P29_006": "4", "P29_007": "0", "P29_008": "00", "P29_009": null }, "geometry": { "type": "Point", "coordinates": [ 136.54388113444179, 34.784078390353642 ] } },
{ "type": "Feature", "properties": { "P29_001": "24201", "P29_002": "A224320115164", "P29_003": "16013", "P29_004": "高田保育園", "P29_005": "三重県津市一身田町280", "P29_006": "4", "P29_007": "0", "P29_008": "00", "P29_009": null }, "geometry": { "type": "Point", "coordinates": [ 136.507995126588071, 34.761628401436248 ] } },
{ "type": "Feature", "properties": { "P29_001": "24201", "P29_002": "A224320115173", "P29_003": "16013", "P29_004": "ぼだいじＩＲＯＲＩ園", "P29_005": "三重県津市久居藤ヶ丘町2598-4", "P29_006": "4", "P29_007": "0", "P29_008": "00", "P29_009": null }, "geometry": { "type": "Point", "coordinates": [ 136.482356651133301, 34.691038347878767 ] } },
{ "type": "Feature", "properties": { "P29_001": "24202", "P29_002": "A224320215010", "P29_003": "16013", "P29_004": "高花平こども園", "P29_005": "三重県四日市市高花平2-1-53", "P29_006": "4", "P29_007": "0", "P29_008": "00", "P29_009": null }, "geometry": { "type": "Point", "coordinates": [ 136.553755445085244, 34.954223536039642 ] } },
{ "type": "Feature", "properties": { "P29_001": "24202", "P29_002": "A224320215029", "P29_003": "16013", "P29_004": "いずみこども園", "P29_005": "三重県四日市市三重6-129", "P29_006": "4", "P29_007": "0", "P29_008": "00", "P29_009": null }, "geometry": { "type": "Point", "coordinates": [ 136.585345142732876, 34.988808237604005 ] } },
{ "type": "Feature", "properties": { "P29_001": "24202", "P29_002": "A224320215038", "P29_003": "16013", "P29_004": "かわしまこども園", "P29_005": "三重県四日市市三滝台4-4-4", "P29_006": "4", "P29_007": "0", "P29_008": "00", "P29_009": null }, "geometry": { "type": "Point", "coordinates": [ 136.565663836348961, 34.97559464188182 ] } },
{ "type": "Feature", "properties": { "P29_001": "24203", "P29_002": "A224320315019", "P29_003": "16013", "P29_004": "修道こども園", "P29_005": "三重県伊勢市楠部町48-40", "P29_006": "4", "P29_007": "0", "P29_008": "00", "P29_009": null }, "geometry": { "type": "Point", "coordinates": [ 136.724245518449663, 34.482278903529391 ] } },
{ "type": "Feature", "properties": { "P29_001": "24203", "P29_002": "A224320315028", "P29_003": "16013", "P29_004": "暁の星こども園", "P29_005": "三重県伊勢市小俣町本町1336・宮前475-1", "P29_006": "4", "P29_007": "0", "P29_008": "00", "P29_009": null }, "geometry": { "type": "Point", "coordinates": [ 136.671331729497581, 34.500937662148168 ] } },
{ "type": "Feature", "properties": { "P29_001": "24203", "P29_002": "A224320315037", "P29_003": "16013", "P29_004": "マリアこども園", "P29_005": "三重県伊勢市岡本1-2-33", "P29_006": "4", "P29_007": "0", "P29_008": "00", "P29_009": null }, "geometry": { "type": "Point", "coordinates": [ 136.709088800743217, 34.486083537967723 ] } },
{ "type": "Feature", "properties": { "P29_001": "24203", "P29_002": "A224320315046", "P29_003": "16013", "P29_004": "ゆたかこども園", "P29_005": "三重県伊勢市御薗町王中島船原23", "P29_006": "4", "P29_007": "0", "P29_008": "00", "P29_009": null }, "geometry": { "type": "Point", "coordinates": [ 136.717741896236475, 34.506744097392648 ] } },
{ "type": "Feature", "properties": { "P29_001": "24203", "P29_002": "A224320315055", "P29_003": "16013", "P29_004": "有緝こども園", "P29_005": "三重県伊勢市船江2-2-29", "P29_006": "4", "P29_007": "0", "P29_008": "00", "P29_009": null }, "geometry": { "type": "Point", "coordinates": [ 136.715981023225766, 34.49775928781375 ] } },
{ "type": "Feature", "properties": { "P29_001": "24203", "P29_002": "A224320315064", "P29_003": "16013", "P29_004": "めいりんこども園", "P29_005": "三重県伊勢市岡本1-18-65", "P29_006": "4", "P29_007": "0", "P29_008": "00", "P29_009": null }, "geometry": { "type": "Point", "coordinates": [ 136.70980800120509, 34.48502300307414 ] } },
{ "type": "Feature", "properties": { "P29_001": "24203", "P29_002": "A224320315073", "P29_003": "16013", "P29_004": "中島こども園", "P29_005": "三重県伊勢市中島2-13-4", "P29_006": "4", "P29_007": "0", "P29_008": "00", "P29_009": null }, "geometry": { "type": "Point", "coordinates": [ 136.687406794920207, 34.493018456487142 ] } },
{ "type": "Feature", "properties": { "P29_001": "24205", "P29_002": "A224320515017", "P29_003": "16013", "P29_004": "安永保育園", "P29_005": "三重県桑名市安永字七区割1101-3", "P29_006": "4", "P29_007": "0", "P29_008": "00", "P29_009": null }, "geometry": { "type": "Point", "coordinates": [ 136.680211220668383, 35.051108465166607 ] } },
{ "type": "Feature", "properties": { "P29_001": "24205", "P29_002": "A224320515026", "P29_003": "16013", "P29_004": "幼保連携型長寿認定こども園", "P29_005": "三重県桑名市北寺町31-3", "P29_006": "4", "P29_007": "0", "P29_008": "00", "P29_009": null }, "geometry": { "type": "Point", "coordinates": [ 136.691173916483649, 35.066328306365399 ] } },
{ "type": "Feature", "properties": { "P29_001": "24205", "P29_002": "A224320515035", "P29_003": "16013", "P29_004": "耕逸山たどこども園", "P29_005": "三重県桑名市多度町柚井1775", "P29_006": "4", "P29_007": "0", "P29_008": "00", "P29_009": null }, "geometry": { "type": "Point", "coordinates": [ 136.632436685056689, 35.136659420408243 ] } },
{ "type": "Feature", "properties": { "P29_001": "24205", "P29_002": "A224320515044", "P29_003": "16013", "P29_004": "認定こども園ゆい保育園", "P29_005": "三重県桑名市多度町小山字西天王平2097-1", "P29_006": "4", "P29_007": "0", "P29_008": "00", "P29_009": null }, "geometry": { "type": "Point", "coordinates": [ 136.636068535914092, 35.132896312459366 ] } },
{ "type": "Feature", "properties": { "P29_001": "24205", "P29_002": "A224320515053", "P29_003": "16013", "P29_004": "和泉保育園", "P29_005": "三重県桑名市和泉トノ割746", "P29_006": "4", "P29_007": "0", "P29_008": "00", "P29_009": null }, "geometry": { "type": "Point", "coordinates": [ 136.685572003673229, 35.041480995392021 ] } },
{ "type": "Feature", "properties": { "P29_001": "24205", "P29_002": "A224320515062", "P29_003": "16013", "P29_004": "幼保連携型認定こども園くわな", "P29_005": "三重県桑名市大字西汰上2223", "P29_006": "4", "P29_007": "0", "P29_008": "00", "P29_009": null }, "geometry": { "type": "Point", "coordinates": [ 136.674135947981256, 35.08775068623266 ] } },
{ "type": "Feature", "properties": { "P29_001": "24205", "P29_002": "A224320515071", "P29_003": "16013", "P29_004": "大山田北保育園", "P29_005": "三重県桑名市大山田6-7-204", "P29_006": "4", "P29_007": "0", "P29_008": "00", "P29_009": null }, "geometry": { "type": "Point", "coordinates": [ 136.638155471169341, 35.082623091355352 ] } },
{ "type": "Feature", "properties": { "P29_001": "24207", "P29_002": "A224320715015", "P29_003": "16013", "P29_004": "サン認定こども園", "P29_005": "三重県鈴鹿市郡山町字西高山2001-10", "P29_006": "4", "P29_007": "0", "P29_008": "00", "P29_009": null }, "geometry": { "type": "Point", "coordinates": [ 136.541872647524002, 34.813055850996633 ] } },
{ "type": "Feature", "properties": { "P29_001": "24207", "P29_002": "A224320715024", "P29_003": "16013", "P29_004": "認定こども園白百合幼稚園", "P29_005": "三重県鈴鹿市東磯山2-3-1", "P29_006": "4", "P29_007": "0", "P29_008": "00", "P29_009": null }, "geometry": { "type": "Point", "coordinates": [ 136.572244199258392, 34.813234383105673 ] } },
{ "type": "Feature", "properties": { "P29_001": "24207", "P29_002": "A224320715033", "P29_003": "16013", "P29_004": "幼保連携型認定こども園ほうりん認定こども園", "P29_005": "三重県鈴鹿市北長太町4119", "P29_006": "4", "P29_007": "0", "P29_008": "00", "P29_009": null }, "geometry": { "type": "Point", "coordinates": [ 136.633171005123586, 34.899584003308263 ] } },
{ "type": "Feature", "properties": { "P29_001": "24207", "P29_002": "A224320715042", "P29_003": "16013", "P29_004": "石薬師認定こども園", "P29_005": "三重県鈴鹿市石薬師町1735-1", "P29_006": "4", "P29_007": "0", "P29_008": "00", "P29_009": null }, "geometry": { "type": "Point", "coordinates": [ 136.548399162660786, 34.902394767996668 ] } },
{ "type": "Feature", "properties": { "P29_001": "24207", "P29_002": "A224320715051", "P29_003": "16013", "P29_004": "幼保連携型認定こども園高岡ほうりん認定こども園", "P29_005": "三重県鈴鹿市高岡町字塚原1843-7", "P29_006": "4", "P29_007": "0", "P29_008": "00", "P29_009": null }, "geometry": { "type": "Point", "coordinates": [ 136.583247002706372, 34.907567003699342 ] } },
{ "type": "Feature", "properties": { "P29_001": "24207", "P29_002": "A224320715060", "P29_003": "16013", "P29_004": "くまだこども園", "P29_005": "三重県鈴鹿市下大久保町字丸岡481-5", "P29_006": "4", "P29_007": "0", "P29_008": "00", "P29_009": null }, "geometry": { "type": "Point", "coordinates": [ 136.527197224891268, 34.929266460630991 ] } },
{ "type": "Feature", "properties": { "P29_001": "24207", "P29_002": "A224320715079", "P29_003": "16013", "P29_004": "認定こども園いそやま保育園", "P29_005": "三重県鈴鹿市東磯山2-26-18", "P29_006": "4", "P29_007": "0", "P29_008": "00", "P29_009": null }, "geometry": { "type": "Point", "coordinates": [ 136.572825491657113, 34.810629812647051 ] } },
{ "type": "Feature", "properties": { "P29_001": "24207", "P29_002": "A224320715088", "P29_003": "16013", "P29_004": "きしだこども園", "P29_005": "三重県鈴鹿市岸田町1491", "P29_006": "4", "P29_007": "0", "P29_008": "00", "P29_009": null }, "geometry": { "type": "Point", "coordinates": [ 136.509261019858684, 34.942929276580251 ] } },
{ "type": "Feature", "properties": { "P29_001": "24208", "P29_002": "A224320815014", "P29_003": "16013", "P29_004": "富貴の森こども園", "P29_005": "三重県名張市富貴ヶ丘6番町42-21", "P29_006": "4", "P29_007": "0", "P29_008": "00", "P29_009": null }, "geometry": { "type": "Point", "coordinates": [ 136.122073001915936, 34.620698998066146 ] } },
{ "type": "Feature", "properties": { "P29_001": "24208", "P29_002": "A224320815023", "P29_003": "16013", "P29_004": "認定こども園名張よさみ幼稚園", "P29_005": "三重県名張市夏見字芝出545", "P29_006": "4", "P29_007": "0", "P29_008": "00", "P29_009": null }, "geometry": { "type": "Point", "coordinates": [ 136.100007266886706, 34.614417235936131 ] } },
{ "type": "Feature", "properties": { "P29_001": "24208", "P29_002": "A224320815032", "P29_003": "16013", "P29_004": "蔵持こども園", "P29_005": "三重県名張市蔵持町原出1668", "P29_006": "4", "P29_007": "0", "P29_008": "00", "P29_009": null }, "geometry": { "type": "Point", "coordinates": [ 136.109424696695839, 34.635924996976904 ] } },
{ "type": "Feature", "properties": { "P29_001": "24208", "P29_002": "A224320815041", "P29_003": "16013", "P29_004": "認定こども園つつじが丘幼稚園", "P29_005": "三重県名張市つつじが丘北3-7", "P29_006": "4", "P29_007": "0", "P29_008": "00", "P29_009": null }, "geometry": { "type": "Point", "coordinates": [ 136.131870288615971, 34.606335926602569 ] } },
{ "type": "Feature", "properties": { "P29_001": "24208", "P29_002": "A224320815050", "P29_003": "16013", "P29_004": "みはた虹の丘こども園", "P29_005": "三重県名張市新田字女良塚1005", "P29_006": "4", "P29_007": "0", "P29_008": "00", "P29_009": null }, "geometry": { "type": "Point", "coordinates": [ 136.139539864819142, 34.669510370940678 ] } },
{ "type": "Feature", "properties": { "P29_001": "24209", "P29_002": "A224320915013", "P29_003": "16013", "P29_004": "ひのきっここども園", "P29_005": "三重県尾鷲市古戸町5-15", "P29_006": "4", "P29_007": "0", "P29_008": "00", "P29_009": null }, "geometry": { "type": "Point", "coordinates": [ 136.189209023877879, 34.072253242631675 ] } },
{ "type": "Feature", "properties": { "P29_001": "24210", "P29_002": "A224321015010", "P29_003": "16013", "P29_004": "幼保連携型認定こども園亀山愛児園", "P29_005": "三重県亀山市東町1-10-16-1", "P29_006": "4", "P29_007": "0", "P29_008": "00", "P29_009": null }, "geometry": { "type": "Point", "coordinates": [ 136.456830254062368, 34.854485172314952 ] } },
{ "type": "Feature", "properties": { "P29_001": "24215", "P29_002": "A224321515015", "P29_003": "16013", "P29_004": "しまの杜こども園", "P29_005": "三重県志摩市阿児町神明1001-2", "P29_006": "4", "P29_007": "0", "P29_008": "00", "P29_009": null }, "geometry": { "type": "Point", "coordinates": [ 136.826763297861902, 34.316137954598169 ] } },
{ "type": "Feature", "properties": { "P29_001": "24216", "P29_002": "A224321615014", "P29_003": "16013", "P29_004": "認定こども園青山よさみ幼稚園", "P29_005": "三重県伊賀市柏尾1397-14", "P29_006": "4", "P29_007": "0", "P29_008": "00", "P29_009": null }, "geometry": { "type": "Point", "coordinates": [ 136.20505189730747, 34.659912844743722 ] } },
{ "type": "Feature", "properties": { "P29_001": "24441", "P29_002": "A224344115011", "P29_003": "16013", "P29_004": "多気の杜こども園", "P29_005": "三重県多気郡多気町大字西山529-8", "P29_006": "4", "P29_007": "0", "P29_008": "00", "P29_009": null }, "geometry": { "type": "Point", "coordinates": [ 136.552644158458605, 34.494051568011557 ] } },
{ "type": "Feature", "properties": { "P29_001": "24442", "P29_002": "A224344215010", "P29_003": "16013", "P29_004": "幼保連携型認定こども園明和ゆたか園", "P29_005": "三重県多気郡明和町斎宮字北野3535-1", "P29_006": "4", "P29_007": "0", "P29_008": "00", "P29_009": null }, "geometry": { "type": "Point", "coordinates": [ 136.619956086779979, 34.544545365619811 ] } },
{ "type": "Feature", "properties": { "P29_001": "24442", "P29_002": "A224344215029", "P29_003": "16013", "P29_004": "認定こども園第２明和ゆたか園", "P29_005": "三重県多気郡明和町大字佐田924-95", "P29_006": "4", "P29_007": "0", "P29_008": "00", "P29_009": null }, "geometry": { "type": "Point", "coordinates": [ 136.6304271542229, 34.547407075653204 ] } },
{ "type": "Feature", "properties": { "P29_001": "24442", "P29_002": "A224344215038", "P29_003": "16013", "P29_004": "いつきのみやこども園", "P29_005": "三重県多気郡明和町竹川160", "P29_006": "4", "P29_007": "0", "P29_008": "00", "P29_009": null }, "geometry": { "type": "Point", "coordinates": [ 136.610321569654843, 34.533217138966727 ] } }
]
}
