{
"type": "FeatureCollection",
"name": "geo_24_地域密着型介護老人福祉施設入所者生活介護",
"crs": { "type": "name", "properties": { "name": "urn:ogc:def:crs:OGC:1.3:CRS84" } },
"features": [
{ "type": "Feature", "properties": { "内容": "特別養護老人ホーム　安濃津愛の里【地域密着型介護老人福祉施設入所者生活介護】津市安濃町妙法寺字丸岡727番", "url": "https://www.kaigokensaku.mhlw.go.jp/24/index.php?action_kouhyou_detail_004_kani=true&JigyosyoCd=2490500143-00&ServiceCd=540&Type=search", "url2": "http://www.anotsu@sakura-iryo.com" }, "geometry": { "type": "Point", "coordinates": [ 136.442494842852739, 34.738660996903256 ] } },
{ "type": "Feature", "properties": { "内容": "特別養護老人ホーム　フルハウス【地域密着型介護老人福祉施設入所者生活介護】三重県津市香良洲町1990", "url": "https://www.kaigokensaku.mhlw.go.jp/24/index.php?action_kouhyou_detail_004_kani=true&JigyosyoCd=2490500267-00&ServiceCd=540&Type=search", "url2": "https://hamayu-kai.or.jp" }, "geometry": { "type": "Point", "coordinates": [ 136.541545600000063, 34.6409231 ] } },
{ "type": "Feature", "properties": { "内容": "しおりの里特別養護老人ホーム【地域密着型介護老人福祉施設入所者生活介護】三重県津市野田2035番地2", "url": "https://www.kaigokensaku.mhlw.go.jp/24/index.php?action_kouhyou_detail_004_kani=true&JigyosyoCd=2490500010-00&ServiceCd=540&Type=search", "url2": "http://www.pmc.or.jp/ymcg/shiori/" }, "geometry": { "type": "Point", "coordinates": [ 136.462087099999962, 34.7089491 ] } },
{ "type": "Feature", "properties": { "内容": "聖十字四日市老人福祉施設【地域密着型介護老人福祉施設入所者生活介護】三重県四日市市中野町字源内２４９４番地１", "url": "https://www.kaigokensaku.mhlw.go.jp/24/index.php?action_kouhyou_detail_004_kani=true&JigyosyoCd=2490200199-00&ServiceCd=540&Type=search", "url2": "http://www.suzukaseijujikai.jp/yokkaichi.php" }, "geometry": { "type": "Point", "coordinates": [ 136.560192320515426, 35.050710885065314 ] } },
{ "type": "Feature", "properties": { "内容": "介護総合センターかんざき　サテライト川島【地域密着型介護老人福祉施設入所者生活介護】三重県四日市市川島町字別山４０３７", "url": "https://www.kaigokensaku.mhlw.go.jp/24/index.php?action_kouhyou_detail_004_kani=true&JigyosyoCd=2490200074-00&ServiceCd=540&Type=search", "url2": "http://www.seizanrikai.jp" }, "geometry": { "type": "Point", "coordinates": [ 136.557202396958928, 34.968637064173443 ] } },
{ "type": "Feature", "properties": { "内容": "地域密着型介護老人福祉施設入所者生活介護　ハピネスちよだ【地域密着型介護老人福祉施設入所者生活介護】三重県四日市市千代田町字東浦323-1", "url": "https://www.kaigokensaku.mhlw.go.jp/24/index.php?action_kouhyou_detail_004_kani=true&JigyosyoCd=2490200280-00&ServiceCd=540&Type=search", "url2": "http://www.apatheia.jp" }, "geometry": { "type": "Point", "coordinates": [ 136.621635500000025, 35.0328624 ] } },
{ "type": "Feature", "properties": { "内容": "小山田特別養護老人ホーム　サテライト四郷【地域密着型介護老人福祉施設入所者生活介護】四日市市西日野町字小溝野4008", "url": "https://www.kaigokensaku.mhlw.go.jp/24/index.php?action_kouhyou_detail_004_kani=true&JigyosyoCd=2490200058-00&ServiceCd=540&Type=search", "url2": "http://www.seizanrikai.jp" }, "geometry": { "type": "Point", "coordinates": [ 136.589527817238377, 34.94954459266674 ] } },
{ "type": "Feature", "properties": { "内容": "特別養護老人ホーム天カ須賀【地域密着型介護老人福祉施設入所者生活介護】三重県四日市市天カ須賀一丁目1番17号", "url": "https://www.kaigokensaku.mhlw.go.jp/24/index.php?action_kouhyou_detail_004_kani=true&JigyosyoCd=2490200116-00&ServiceCd=540&Type=search", "url2": "tokujukai.com" }, "geometry": { "type": "Point", "coordinates": [ 136.667205299999978, 35.0076714 ] } },
{ "type": "Feature", "properties": { "内容": "介護総合センターかんざき　サテライト常磐【地域密着型介護老人福祉施設入所者生活介護】城西町13-45", "url": "https://www.kaigokensaku.mhlw.go.jp/24/index.php?action_kouhyou_detail_004_kani=true&JigyosyoCd=2490200082-00&ServiceCd=540&Type=search", "url2": "http://www.seizanrikai.jp" }, "geometry": { "type": "Point", "coordinates": [ 136.602188323769042, 34.96588317725508 ] } },
{ "type": "Feature", "properties": { "内容": "特別養護老人ホーム　サテライトみなと【地域密着型介護老人福祉施設入所者生活介護】四日市市高砂町6-5", "url": "https://www.kaigokensaku.mhlw.go.jp/24/index.php?action_kouhyou_detail_004_kani=true&JigyosyoCd=2490200132-00&ServiceCd=540&Type=search", "url2": "https://www.kazekaorukai.com/" }, "geometry": { "type": "Point", "coordinates": [ 136.635703599999943, 34.9618213 ] } },
{ "type": "Feature", "properties": { "内容": "地域密着型特別養護老人ホームかいぞうの里【地域密着型介護老人福祉施設入所者生活介護】三重県四日市市野田一丁目6番25号", "url": "https://www.kaigokensaku.mhlw.go.jp/24/index.php?action_kouhyou_detail_004_kani=true&JigyosyoCd=2490200520-00&ServiceCd=540&Type=search", "url2": "www.eiko-kai.jp/" }, "geometry": { "type": "Point", "coordinates": [ 136.610516, 34.97917 ] } },
{ "type": "Feature", "properties": { "内容": "特別養護老人ホーム　和らぎ水沢【地域密着型介護老人福祉施設入所者生活介護】三重県四日市市水沢町2378-1", "url": "https://www.kaigokensaku.mhlw.go.jp/24/index.php?action_kouhyou_detail_004_kani=true&JigyosyoCd=2490200587-00&ServiceCd=540&Type=search", "url2": "https://souwafukushikai.com/" }, "geometry": { "type": "Point", "coordinates": [ 136.4729592, 34.9860165 ] } },
{ "type": "Feature", "properties": { "内容": "地域密着型ユニット型特別養護老人ホーム神路園【地域密着型介護老人福祉施設入所者生活介護】三重県伊勢市二俣町５７７番地９", "url": "https://www.kaigokensaku.mhlw.go.jp/24/index.php?action_kouhyou_detail_004_kani=true&JigyosyoCd=2490800212-00&ServiceCd=540&Type=search", "url2": "http://www.amigo2.ne.jp/~kamizien/" }, "geometry": { "type": "Point", "coordinates": [ 136.681602099999964, 34.4748179 ] } },
{ "type": "Feature", "properties": { "内容": "特別養護老人ホーム　第2双寿園【地域密着型介護老人福祉施設入所者生活介護】三重県伊勢市河崎3丁目15番33号", "url": "https://www.kaigokensaku.mhlw.go.jp/24/index.php?action_kouhyou_detail_004_kani=true&JigyosyoCd=2470800398-00&ServiceCd=540&Type=search", "url2": "http://www.hoeikai.or.jp/main/" }, "geometry": { "type": "Point", "coordinates": [ 136.718765599999983, 34.4957555 ] } },
{ "type": "Feature", "properties": { "内容": "地域密着型特別養護老人ホーム伊勢あさま苑【地域密着型介護老人福祉施設入所者生活介護】三重県伊勢市朝熊町３０７４番地１１", "url": "https://www.kaigokensaku.mhlw.go.jp/24/index.php?action_kouhyou_detail_004_kani=true&JigyosyoCd=2490800220-00&ServiceCd=540&Type=search", "url2": "http://www.asamaen.jp" }, "geometry": { "type": "Point", "coordinates": [ 136.759001300000023, 34.490104 ] } },
{ "type": "Feature", "properties": { "内容": "小規模特別養護老人ホームきらり【地域密着型介護老人福祉施設入所者生活介護】三重県松阪市飯高町宮本305番地小規模特別養護老人ホームきらり", "url": "https://www.kaigokensaku.mhlw.go.jp/24/index.php?action_kouhyou_detail_004_kani=true&JigyosyoCd=2490700305-00&ServiceCd=540&Type=search", "url2": "https://choujyunomori.com/" }, "geometry": { "type": "Point", "coordinates": [ 136.242651099999961, 34.39859890000001 ] } },
{ "type": "Feature", "properties": { "内容": "小規模特別養護老人ホームむつみ園【地域密着型介護老人福祉施設入所者生活介護】松阪市嬉野算所町488", "url": "https://www.kaigokensaku.mhlw.go.jp/24/index.php?action_kouhyou_detail_004_kani=true&JigyosyoCd=2490700099-00&ServiceCd=540&Type=search", "url2": "http;/www.mutsumifukushikai-mie.com" }, "geometry": { "type": "Point", "coordinates": [ 136.486104699999942, 34.615344 ] } },
{ "type": "Feature", "properties": { "内容": "地域密着型特別養護老人ホームグレイスホーム【地域密着型介護老人福祉施設入所者生活介護】三重県松阪市岡本町428番地2", "url": "https://www.kaigokensaku.mhlw.go.jp/24/index.php?action_kouhyou_detail_004_kani=true&JigyosyoCd=2490700271-00&ServiceCd=540&Type=search", "url2": "http://betaniya.jp/" }, "geometry": { "type": "Point", "coordinates": [ 136.49564907917636, 34.551320262391755 ] } },
{ "type": "Feature", "properties": { "内容": "特別養護老人ホーム百花苑【地域密着型介護老人福祉施設入所者生活介護】松阪市井村町277－1", "url": "https://www.kaigokensaku.mhlw.go.jp/24/index.php?action_kouhyou_detail_004_kani=true&JigyosyoCd=2490700172-00&ServiceCd=540&Type=search", "url2": "http://www.sumire-kai.or.jp" }, "geometry": { "type": "Point", "coordinates": [ 136.5117692, 34.5763149 ] } },
{ "type": "Feature", "properties": { "内容": "特別養護老人ホーム　まごころ苑【地域密着型介護老人福祉施設入所者生活介護】三重県松阪市川井町1358－1", "url": "https://www.kaigokensaku.mhlw.go.jp/24/index.php?action_kouhyou_detail_004_kani=true&JigyosyoCd=2470700283-00&ServiceCd=540&Type=search", "url2": "http://www.sawayaka-well.jp/" }, "geometry": { "type": "Point", "coordinates": [ 136.52616014603268, 34.587325381609531 ] } },
{ "type": "Feature", "properties": { "内容": "地域密着型介護老人福祉施設長寿苑【地域密着型介護老人福祉施設入所者生活介護】三重県桑名市額田１２５６－２", "url": "https://www.kaigokensaku.mhlw.go.jp/24/index.php?action_kouhyou_detail_004_kani=true&JigyosyoCd=2490100241-00&ServiceCd=540&Type=search", "url2": "https://www.chojuen.org/" }, "geometry": { "type": "Point", "coordinates": [ 136.639456399999972, 35.0733582 ] } },
{ "type": "Feature", "properties": { "内容": "地域密着型介護老人福祉施設入所者生活介護あおい【地域密着型介護老人福祉施設入所者生活介護】桑名市長島町横満蔵５６８－２", "url": "https://www.kaigokensaku.mhlw.go.jp/24/index.php?action_kouhyou_detail_004_kani=true&JigyosyoCd=2490100126-00&ServiceCd=540&Type=search", "url2": "https://www.apatheia.jp/" }, "geometry": { "type": "Point", "coordinates": [ 136.722514688360661, 35.05296420977124 ] } },
{ "type": "Feature", "properties": { "内容": "特別養護老人ホーム　いこい　ユニット【地域密着型介護老人福祉施設入所者生活介護】三重県桑名市大字西金井字村中170番地", "url": "https://www.kaigokensaku.mhlw.go.jp/24/index.php?action_kouhyou_detail_004_kani=true&JigyosyoCd=2490100274-00&ServiceCd=540&Type=search", "url2": "http://www.ikoi-mie.com" }, "geometry": { "type": "Point", "coordinates": [ 136.683803, 35.0622161 ] } },
{ "type": "Feature", "properties": { "内容": "特別養護老人ホームいこい　サテライトなごみ【地域密着型介護老人福祉施設入所者生活介護】三重県桑名市大央町50-2", "url": "https://www.kaigokensaku.mhlw.go.jp/24/index.php?action_kouhyou_detail_004_kani=true&JigyosyoCd=2490100282-00&ServiceCd=540&Type=search", "url2": null }, "geometry": { "type": "Point", "coordinates": [ 136.688577600000031, 35.0609164 ] } },
{ "type": "Feature", "properties": { "内容": "特別養護老人ホーム　グリーントピア名張【地域密着型介護老人福祉施設入所者生活介護】三重県名張市東田原2745番地", "url": "https://www.kaigokensaku.mhlw.go.jp/24/index.php?action_kouhyou_detail_004_kani=true&JigyosyoCd=2491300220-00&ServiceCd=540&Type=search", "url2": "http://www.green-center.or.jp" }, "geometry": { "type": "Point", "coordinates": [ 136.111505599999987, 34.6519152 ] } },
{ "type": "Feature", "properties": { "内容": "特別養護老人ホーム　ゆう【地域密着型介護老人福祉施設入所者生活介護】三重県名張市木屋町８１２番地２", "url": "https://www.kaigokensaku.mhlw.go.jp/24/index.php?action_kouhyou_detail_004_kani=true&JigyosyoCd=2491300311-00&ServiceCd=540&Type=search", "url2": "https://okitsumo-fukushi.sakura.ne.jp" }, "geometry": { "type": "Point", "coordinates": [ 136.086083342952946, 34.621953515742511 ] } },
{ "type": "Feature", "properties": { "内容": "小規模特別養護老人ホームあさひ【地域密着型介護老人福祉施設入所者生活介護】三重県尾鷲市三木里町967-1", "url": "https://www.kaigokensaku.mhlw.go.jp/24/index.php?action_kouhyou_detail_004_kani=true&JigyosyoCd=2491000051-00&ServiceCd=540&Type=search", "url2": null }, "geometry": { "type": "Point", "coordinates": [ 136.202537896156286, 33.999525035962357 ] } },
{ "type": "Feature", "properties": { "内容": "地域密着型小規模特別養護老人ホームあかつき【地域密着型介護老人福祉施設入所者生活介護】三重県尾鷲市大字南浦4688-1", "url": "https://www.kaigokensaku.mhlw.go.jp/24/index.php?action_kouhyou_detail_004_kani=true&JigyosyoCd=2491000044-00&ServiceCd=540&Type=search", "url2": "http://www.owasechojuen.or.jp/" }, "geometry": { "type": "Point", "coordinates": [ 136.217634999935854, 34.080174364489984 ] } },
{ "type": "Feature", "properties": { "内容": "特別養護老人ホーム　野村きぼう苑【地域密着型介護老人福祉施設入所者生活介護】野村3丁目28－20", "url": "https://www.kaigokensaku.mhlw.go.jp/24/index.php?action_kouhyou_detail_004_kani=true&JigyosyoCd=2490400070-00&ServiceCd=540&Type=search", "url2": "http://nomura-kibouen.or.jp" }, "geometry": { "type": "Point", "coordinates": [ 136.436221899999964, 34.8573717 ] } },
{ "type": "Feature", "properties": { "内容": "特別養護老人ﾎｰﾑ　もも大安【地域密着型介護老人福祉施設入所者生活介護】三重県いなべ市大安町南金井705番地96", "url": "https://www.kaigokensaku.mhlw.go.jp/24/index.php?action_kouhyou_detail_004_kani=true&JigyosyoCd=2491400079-00&ServiceCd=540&Type=search", "url2": "https://www.momo-daian.or.jp/" }, "geometry": { "type": "Point", "coordinates": [ 136.5572315, 35.0834541 ] } },
{ "type": "Feature", "properties": { "内容": "特別養護老人ホーム　彩四季【地域密着型介護老人福祉施設入所者生活介護】三重県伊賀市市部奥山２６１１番５", "url": "https://www.kaigokensaku.mhlw.go.jp/24/index.php?action_kouhyou_detail_004_kani=true&JigyosyoCd=2491200156-00&ServiceCd=540&Type=search", "url2": "https://www.jaiga.or.jp/?P=188" }, "geometry": { "type": "Point", "coordinates": [ 136.148649, 34.726275 ] } },
{ "type": "Feature", "properties": { "内容": "特別養護老人ホーム　おおぞら【地域密着型介護老人福祉施設入所者生活介護】三重県伊賀市高畑字深田780番地", "url": "https://www.kaigokensaku.mhlw.go.jp/24/index.php?action_kouhyou_detail_004_kani=true&JigyosyoCd=2491200073-00&ServiceCd=540&Type=search", "url2": "https://www.k-oozora.or.jp/" }, "geometry": { "type": "Point", "coordinates": [ 136.153692624853505, 34.784102351707325 ] } },
{ "type": "Feature", "properties": { "内容": "地域密着型特別養護老人ホーム　真菰の郷【地域密着型介護老人福祉施設入所者生活介護】三重県三重郡菰野町永井西畑456-1", "url": "https://www.kaigokensaku.mhlw.go.jp/24/index.php?action_kouhyou_detail_004_kani=true&JigyosyoCd=2492200049-00&ServiceCd=540&Type=search", "url2": "http://hukushi.jp/makomonosato/" }, "geometry": { "type": "Point", "coordinates": [ 136.526731, 35.053232 ] } },
{ "type": "Feature", "properties": { "内容": "特別養護老人ホームほほえみ【地域密着型介護老人福祉施設入所者生活介護】三重郡川越町大字亀崎新田字里中15番地2", "url": "https://www.kaigokensaku.mhlw.go.jp/24/index.php?action_kouhyou_detail_004_kani=true&JigyosyoCd=2492200023-00&ServiceCd=540&Type=search", "url2": "http://hohoemi-g.com" }, "geometry": { "type": "Point", "coordinates": [ 136.69040176773683, 35.02136243519044 ] } },
{ "type": "Feature", "properties": { "内容": "地域密着型特別養護老人ホーム　たきの里【地域密着型介護老人福祉施設入所者生活介護】三重県多気郡多気町笠木１３３８番地たきの里", "url": "https://www.kaigokensaku.mhlw.go.jp/24/index.php?action_kouhyou_detail_004_kani=true&JigyosyoCd=2492700139-00&ServiceCd=540&Type=search", "url2": "http://kasagi.pc-hlp.net/" }, "geometry": { "type": "Point", "coordinates": [ 136.577870458860843, 34.492796942841345 ] } },
{ "type": "Feature", "properties": { "内容": "地域密着型特別養護老人ホーム　ときだの里【地域密着型介護老人福祉施設入所者生活介護】三重県多気郡多気町笠木字北ノ山１３２９番地域密着型特別養護老人ホーム　ときだの里", "url": "https://www.kaigokensaku.mhlw.go.jp/24/index.php?action_kouhyou_detail_004_kani=true&JigyosyoCd=2492700105-00&ServiceCd=540&Type=search", "url2": "http://kasagi.pc-hlp.net" }, "geometry": { "type": "Point", "coordinates": [ 136.577763170500248, 34.494008381026241 ] } },
{ "type": "Feature", "properties": { "内容": "地域密着型特別養護老人ホーム　ウェルハート明和（ユニット型個室）【地域密着型介護老人福祉施設入所者生活介護】三重県多気郡明和町大字志貴１３３５番地１", "url": "https://www.kaigokensaku.mhlw.go.jp/24/index.php?action_kouhyou_detail_004_kani=true&JigyosyoCd=2492700147-00&ServiceCd=540&Type=search", "url2": "http://wellheart.jp" }, "geometry": { "type": "Point", "coordinates": [ 136.61547859999996, 34.5754931 ] } },
{ "type": "Feature", "properties": { "内容": "地域密着型特別養護老人ホーム　ウェルハート明和（多床室）【地域密着型介護老人福祉施設入所者生活介護】三重県多気郡明和町大字志貴１３３５番地１", "url": "https://www.kaigokensaku.mhlw.go.jp/24/index.php?action_kouhyou_detail_004_kani=true&JigyosyoCd=2492700154-00&ServiceCd=540&Type=search", "url2": "http://www.wellheart.jp" }, "geometry": { "type": "Point", "coordinates": [ 136.61547859999996, 34.5754931 ] } },
{ "type": "Feature", "properties": { "内容": "地域密着型特別養護老人ホームりゅうせんヒルハウス【地域密着型介護老人福祉施設入所者生活介護】三重県度会郡南伊勢町船越2552番地2", "url": "https://www.kaigokensaku.mhlw.go.jp/24/index.php?action_kouhyou_detail_004_kani=true&JigyosyoCd=2492800103-00&ServiceCd=540&Type=search", "url2": "https://hillhouse.hp.gogo.jp/pc/index.html" }, "geometry": { "type": "Point", "coordinates": [ 136.688321472383137, 34.355506851227794 ] } },
{ "type": "Feature", "properties": { "内容": "地域密着型介護老人福祉施設みやま園【地域密着型介護老人福祉施設入所者生活介護】三重県北牟婁郡紀北町矢口浦842番地", "url": "https://www.kaigokensaku.mhlw.go.jp/24/index.php?action_kouhyou_detail_004_kani=true&JigyosyoCd=2493000083-00&ServiceCd=540&Type=search", "url2": "http://www.zd.ztv.ne.jp/miyamaen/" }, "geometry": { "type": "Point", "coordinates": [ 136.267201699999987, 34.1372244 ] } },
{ "type": "Feature", "properties": { "内容": "亀楽苑【地域密着型介護老人福祉施設入所者生活介護】三重県南牟婁郡紀宝町井田1609番地2", "url": "https://www.kaigokensaku.mhlw.go.jp/24/index.php?action_kouhyou_detail_004_kani=true&JigyosyoCd=2493100024-00&ServiceCd=540&Type=search", "url2": null }, "geometry": { "type": "Point", "coordinates": [ 136.023879399999942, 33.7588895 ] } }
]
}
