{
"type": "FeatureCollection",
"name": "geo_24_定期巡回・随時対応型訪問介護看護",
"crs": { "type": "name", "properties": { "name": "urn:ogc:def:crs:OGC:1.3:CRS84" } },
"features": [
{ "type": "Feature", "properties": { "内容": "地域密着型　津中央ヘルパーステーション　シルバーケア豊壽園【定期巡回・随時対応型訪問介護看護】三重県津市本町26番地13号", "url": "https://www.kaigokensaku.mhlw.go.jp/24/index.php?action_kouhyou_detail_004_kani=true&JigyosyoCd=2490500259-00&ServiceCd=760&Type=search", "url2": "http://www.sensin.or.jp/" }, "geometry": { "type": "Point", "coordinates": [ 136.508910600000036, 34.7120059 ] } },
{ "type": "Feature", "properties": { "内容": "定期巡回いちし【定期巡回・随時対応型訪問介護看護】三重県津市一志町日置４６番地", "url": "https://www.kaigokensaku.mhlw.go.jp/24/index.php?action_kouhyou_detail_004_kani=true&JigyosyoCd=2490500697-00&ServiceCd=760&Type=search", "url2": null }, "geometry": { "type": "Point", "coordinates": [ 136.445078021861349, 34.657911639349074 ] } },
{ "type": "Feature", "properties": { "内容": "定期巡回・随時対応型訪問介護看護ステーションこまち　四日市【定期巡回・随時対応型訪問介護看護】三重県四日市市中部17番11号", "url": "https://www.kaigokensaku.mhlw.go.jp/24/index.php?action_kouhyou_detail_004_kani=true&JigyosyoCd=2490200413-00&ServiceCd=760&Type=search", "url2": "http://www.hukushi.jp" }, "geometry": { "type": "Point", "coordinates": [ 136.624926, 34.9704061 ] } },
{ "type": "Feature", "properties": { "内容": "ゴールドエイジ地域巡回センター四日市営業所【定期巡回・随時対応型訪問介護看護】三重県四日市市城西町7-32", "url": "https://www.kaigokensaku.mhlw.go.jp/24/index.php?action_kouhyou_detail_004_kani=true&JigyosyoCd=2490200389-00&ServiceCd=760&Type=search", "url2": "http://goldage.co.jp" }, "geometry": { "type": "Point", "coordinates": [ 136.603461899999957, 34.96417 ] } },
{ "type": "Feature", "properties": { "内容": "定期巡回・随時対応型訪問介護看護事業所いすずガーデン【定期巡回・随時対応型訪問介護看護】楠部町乙77サービス付き高齢者向け住宅いすずガーデン", "url": "https://www.kaigokensaku.mhlw.go.jp/24/index.php?action_kouhyou_detail_004_kani=true&JigyosyoCd=2490800196-00&ServiceCd=760&Type=search", "url2": "https://isuzukai.or.jp/" }, "geometry": { "type": "Point", "coordinates": [ 136.7293565, 34.4761665 ] } },
{ "type": "Feature", "properties": { "内容": "定期巡回　森伸【定期巡回・随時対応型訪問介護看護】三重県伊勢市磯町1835-1", "url": "https://www.kaigokensaku.mhlw.go.jp/24/index.php?action_kouhyou_detail_004_kani=true&JigyosyoCd=2490800352-00&ServiceCd=760&Type=search", "url2": "http://www.morisin.co.jp/" }, "geometry": { "type": "Point", "coordinates": [ 136.6857426, 34.5128264 ] } },
{ "type": "Feature", "properties": { "内容": "定期巡回・随時対応型訪問介護看護事業所　おりがみさん【定期巡回・随時対応型訪問介護看護】三重県松阪市垣鼻町1034番地5", "url": "https://www.kaigokensaku.mhlw.go.jp/24/index.php?action_kouhyou_detail_004_kani=true&JigyosyoCd=2490700446-00&ServiceCd=760&Type=search", "url2": "origamisan-matusaka.com" }, "geometry": { "type": "Point", "coordinates": [ 136.5447471, 34.5734568 ] } },
{ "type": "Feature", "properties": { "内容": "定期巡回・随時対応型訪問介護看護　ふるさと　縁【定期巡回・随時対応型訪問介護看護】三重県桑名市大字北別所字流1590-1ふるさと　タウン", "url": "https://www.kaigokensaku.mhlw.go.jp/24/index.php?action_kouhyou_detail_004_kani=true&JigyosyoCd=2490100423-00&ServiceCd=760&Type=search", "url2": null }, "geometry": { "type": "Point", "coordinates": [ 136.6735519, 35.0746999 ] } },
{ "type": "Feature", "properties": { "内容": "ゴールドエイジ地域巡回センター　鈴鹿営業所【定期巡回・随時対応型訪問介護看護】三重県鈴鹿市池田町1338番1ゴールドエイジ池田", "url": "https://www.kaigokensaku.mhlw.go.jp/24/index.php?action_kouhyou_detail_004_kani=true&JigyosyoCd=2490300320-00&ServiceCd=760&Type=search", "url2": "http://goldage.co.jp" }, "geometry": { "type": "Point", "coordinates": [ 136.60832673636142, 34.901393412356605 ] } },
{ "type": "Feature", "properties": { "内容": "定期巡回随時対応型訪問介護看護　未来予想図製作所【定期巡回・随時対応型訪問介護看護】三重県鳥羽市松尾町１８６－１", "url": "https://www.kaigokensaku.mhlw.go.jp/24/index.php?action_kouhyou_detail_004_kani=true&JigyosyoCd=2490900095-00&ServiceCd=760&Type=search", "url2": "https://miraiyosouzuseisakusyo.com/" }, "geometry": { "type": "Point", "coordinates": [ 136.8409998, 34.43489 ] } },
{ "type": "Feature", "properties": { "内容": "定期巡回・随時対応型訪問介護看護　虹の夢志摩【定期巡回・随時対応型訪問介護看護】三重県志摩市阿児町国府3708-34", "url": "https://www.kaigokensaku.mhlw.go.jp/24/index.php?action_kouhyou_detail_004_kani=true&JigyosyoCd=2492900218-00&ServiceCd=760&Type=search", "url2": null }, "geometry": { "type": "Point", "coordinates": [ 136.8922653, 34.3558986 ] } },
{ "type": "Feature", "properties": { "内容": "さくらんぼ【定期巡回・随時対応型訪問介護看護】高畑747-1", "url": "https://www.kaigokensaku.mhlw.go.jp/24/index.php?action_kouhyou_detail_004_kani=true&JigyosyoCd=2491200222-00&ServiceCd=760&Type=search", "url2": "https://sakuranbo-igakaigo.com" }, "geometry": { "type": "Point", "coordinates": [ 136.854704199999986, 35.1415706 ] } },
{ "type": "Feature", "properties": { "内容": "定期巡回・随時対応型訪問介護看護　虹の夢玉城【定期巡回・随時対応型訪問介護看護】三重県度会郡玉城町蚊野2155番地サービス付き高齢者向け住宅　癒しの郷翠龍", "url": "https://www.kaigokensaku.mhlw.go.jp/24/index.php?action_kouhyou_detail_004_kani=true&JigyosyoCd=2492800160-00&ServiceCd=760&Type=search", "url2": null }, "geometry": { "type": "Point", "coordinates": [ 136.605812899999989, 34.4843837 ] } },
{ "type": "Feature", "properties": { "内容": "ネクスト【定期巡回・随時対応型訪問介護看護】三重県度会郡玉城町妙法寺398-1三重県高齢者住宅組合玉城館・玉城2号館", "url": "https://www.kaigokensaku.mhlw.go.jp/24/index.php?action_kouhyou_detail_004_kani=true&JigyosyoCd=2492800145-00&ServiceCd=760&Type=search", "url2": "https://www.all-kaigo.net" }, "geometry": { "type": "Point", "coordinates": [ 136.638009, 34.4933276 ] } }
]
}
