{
"type": "FeatureCollection",
"name": "geo_24_短期入所生活介護",
"crs": { "type": "name", "properties": { "name": "urn:ogc:def:crs:OGC:1.3:CRS84" } },
"features": [
{ "type": "Feature", "properties": { "内容": "シンシア久居【短期入所生活介護】三重県津市久居明神町1530番地47", "url": "https://www.kaigokensaku.mhlw.go.jp/24/index.php?action_kouhyou_detail_004_kani=true&JigyosyoCd=2470504909-00&ServiceCd=210&Type=search", "url2": null }, "geometry": { "type": "Point", "coordinates": [ 136.468227287835703, 34.693562310234377 ] } },
{ "type": "Feature", "properties": { "内容": "フルハウス　ショートステイセンター【短期入所生活介護】三重県津市香良洲町1990", "url": "https://www.kaigokensaku.mhlw.go.jp/24/index.php?action_kouhyou_detail_004_kani=true&JigyosyoCd=2470504685-00&ServiceCd=210&Type=search", "url2": "https://hamayu-kai.or.jp" }, "geometry": { "type": "Point", "coordinates": [ 136.541276399999987, 34.6408299 ] } },
{ "type": "Feature", "properties": { "内容": "ショートステイふくすけ【短期入所生活介護】三重県津市久居藤ケ丘町2573番地1", "url": "https://www.kaigokensaku.mhlw.go.jp/24/index.php?action_kouhyou_detail_004_kani=true&JigyosyoCd=2470505815-00&ServiceCd=210&Type=search", "url2": "https://lib-fukusuke.com" }, "geometry": { "type": "Point", "coordinates": [ 136.482783033065743, 34.691316569684048 ] } },
{ "type": "Feature", "properties": { "内容": "ベタニヤショートステイ【短期入所生活介護】津市豊が丘五丁目47番10号ベタニヤ在宅介護複合施設", "url": "https://www.kaigokensaku.mhlw.go.jp/24/index.php?action_kouhyou_detail_004_kani=true&JigyosyoCd=2470501665-00&ServiceCd=210&Type=search", "url2": "http://betaniya.jp/" }, "geometry": { "type": "Point", "coordinates": [ 136.4592232, 34.806134900000011 ] } },
{ "type": "Feature", "properties": { "内容": "短期入所生活介護事業所ときの音色【短期入所生活介護】中村町745-25ときの音色", "url": "https://www.kaigokensaku.mhlw.go.jp/24/index.php?action_kouhyou_detail_004_kani=true&JigyosyoCd=2470506045-00&ServiceCd=210&Type=search", "url2": "https://kaigo-momotaro.jp/" }, "geometry": { "type": "Point", "coordinates": [ 136.406845932044916, 34.672475739351789 ] } },
{ "type": "Feature", "properties": { "内容": "明合乃里短期入所生活介護センター【短期入所生活介護】三重県津市安濃町田端上野970-3", "url": "https://www.kaigokensaku.mhlw.go.jp/24/index.php?action_kouhyou_detail_004_kani=true&JigyosyoCd=2472400163-00&ServiceCd=210&Type=search", "url2": "http://www.akeai.or.jp/" }, "geometry": { "type": "Point", "coordinates": [ 136.436907799999972, 34.7635184 ] } },
{ "type": "Feature", "properties": { "内容": "きずなショートステイセンター【短期入所生活介護】三重県津市白山町二本木1163", "url": "https://www.kaigokensaku.mhlw.go.jp/24/index.php?action_kouhyou_detail_004_kani=true&JigyosyoCd=2470502036-00&ServiceCd=210&Type=search", "url2": "http://www.akeai.or.jp" }, "geometry": { "type": "Point", "coordinates": [ 136.371187700000064, 34.6680964 ] } },
{ "type": "Feature", "properties": { "内容": "ショートステイ　安濃津愛の里【短期入所生活介護】津市安濃町妙法寺字丸岡727番地", "url": "https://www.kaigokensaku.mhlw.go.jp/24/index.php?action_kouhyou_detail_004_kani=true&JigyosyoCd=2470502879-00&ServiceCd=210&Type=search", "url2": "http://www.anoutsu@sakura-iryyo.com" }, "geometry": { "type": "Point", "coordinates": [ 136.442506969373682, 34.73866644526305 ] } },
{ "type": "Feature", "properties": { "内容": "短期入所施設　花紬【短期入所生活介護】三重県津市芸濃町椋本字藤ノ山3805番2", "url": "https://www.kaigokensaku.mhlw.go.jp/24/index.php?action_kouhyou_detail_004_kani=true&JigyosyoCd=2472400247-00&ServiceCd=210&Type=search", "url2": "http://www.fushugroup.jp/" }, "geometry": { "type": "Point", "coordinates": [ 136.441942605975669, 34.810593002697317 ] } },
{ "type": "Feature", "properties": { "内容": "青松園ショートステイ事業所【短期入所生活介護】三重県津市高洲町15番43号", "url": "https://www.kaigokensaku.mhlw.go.jp/24/index.php?action_kouhyou_detail_004_kani=true&JigyosyoCd=2470500444-00&ServiceCd=210&Type=search", "url2": "https://seisyouen.org" }, "geometry": { "type": "Point", "coordinates": [ 136.5261552, 34.7256805 ] } },
{ "type": "Feature", "properties": { "内容": "しおりの里短期入所生活介護事業所【短期入所生活介護】三重県津市野田2035番地2", "url": "https://www.kaigokensaku.mhlw.go.jp/24/index.php?action_kouhyou_detail_004_kani=true&JigyosyoCd=2470502176-00&ServiceCd=210&Type=search", "url2": "https://www.pmc.or.jp/ymcg/shiori/" }, "geometry": { "type": "Point", "coordinates": [ 136.462087099999962, 34.7089491 ] } },
{ "type": "Feature", "properties": { "内容": "しおりの里　第2短期入所生活介護事業所【短期入所生活介護】三重県津市野田2035番地2", "url": "https://www.kaigokensaku.mhlw.go.jp/24/index.php?action_kouhyou_detail_004_kani=true&JigyosyoCd=2470503612-00&ServiceCd=210&Type=search", "url2": "http://www.pmc.or.jp/ymcg/shiori/" }, "geometry": { "type": "Point", "coordinates": [ 136.462087099999962, 34.7089491 ] } },
{ "type": "Feature", "properties": { "内容": "ショートステイひまわり【短期入所生活介護】三重県津市戸木町4113-11", "url": "https://www.kaigokensaku.mhlw.go.jp/24/index.php?action_kouhyou_detail_004_kani=true&JigyosyoCd=2470600392-00&ServiceCd=210&Type=search", "url2": null }, "geometry": { "type": "Point", "coordinates": [ 136.448214300000018, 34.6859878 ] } },
{ "type": "Feature", "properties": { "内容": "老人短期入所　豊野みかんの里【短期入所生活介護】三重県津市一身田豊野字１６５９番地", "url": "https://www.kaigokensaku.mhlw.go.jp/24/index.php?action_kouhyou_detail_004_kani=true&JigyosyoCd=2470502051-00&ServiceCd=210&Type=search", "url2": "http://care-net.biz/24/toyono-mikan/" }, "geometry": { "type": "Point", "coordinates": [ 136.519255199999947, 34.7706767 ] } },
{ "type": "Feature", "properties": { "内容": "第二フルハウスショートステイセンター【短期入所生活介護】三重県津市香良洲町3952-1", "url": "https://www.kaigokensaku.mhlw.go.jp/24/index.php?action_kouhyou_detail_004_kani=true&JigyosyoCd=2470503596-00&ServiceCd=210&Type=search", "url2": "https://hamayu-kai.or.jp" }, "geometry": { "type": "Point", "coordinates": [ 136.546167700000012, 34.6452191 ] } },
{ "type": "Feature", "properties": { "内容": "短期入所生活介護施設　安濃聖母の家【短期入所生活介護】三重県津市安濃町今徳81の2", "url": "https://www.kaigokensaku.mhlw.go.jp/24/index.php?action_kouhyou_detail_004_kani=true&JigyosyoCd=2470503943-00&ServiceCd=210&Type=search", "url2": "http://care-net.biz/24/st-francisco/" }, "geometry": { "type": "Point", "coordinates": [ 136.445625656483458, 34.743001724936562 ] } },
{ "type": "Feature", "properties": { "内容": "老人短期入所　栗真みかんの里【短期入所生活介護】三重県津市栗真中山町79番地2", "url": "https://www.kaigokensaku.mhlw.go.jp/24/index.php?action_kouhyou_detail_004_kani=true&JigyosyoCd=2470504750-00&ServiceCd=210&Type=search", "url2": null }, "geometry": { "type": "Point", "coordinates": [ 136.523921800000039, 34.7575177 ] } },
{ "type": "Feature", "properties": { "内容": "特別養護老人ホーム榊原陽光苑【短期入所生活介護】三重県津市榊原町５６８４番地", "url": "https://www.kaigokensaku.mhlw.go.jp/24/index.php?action_kouhyou_detail_004_kani=true&JigyosyoCd=2470600160-00&ServiceCd=210&Type=search", "url2": "http://www.miefukushikai.jp/" }, "geometry": { "type": "Point", "coordinates": [ 136.3725693, 34.7022326 ] } },
{ "type": "Feature", "properties": { "内容": "泉園短期入所生活介護事業所【短期入所生活介護】津市野田2059番地", "url": "https://www.kaigokensaku.mhlw.go.jp/24/index.php?action_kouhyou_detail_004_kani=true&JigyosyoCd=2470500543-00&ServiceCd=210&Type=search", "url2": "http://www.pmc.or.jp" }, "geometry": { "type": "Point", "coordinates": [ 136.461545399999977, 34.710543299999983 ] } },
{ "type": "Feature", "properties": { "内容": "特別養護老人ホーム　みえ愛の里　ショートステイ愛の里【短期入所生活介護】三重県津市雲出本郷町字連方前２１２８番地", "url": "https://www.kaigokensaku.mhlw.go.jp/24/index.php?action_kouhyou_detail_004_kani=true&JigyosyoCd=2470502655-00&ServiceCd=210&Type=search", "url2": "http://www.ainosato-mie.jp" }, "geometry": { "type": "Point", "coordinates": [ 136.522934, 34.6671635 ] } },
{ "type": "Feature", "properties": { "内容": "げいのう逢春園　短期入所生活介護事業所【短期入所生活介護】三重県津市芸濃町椋本5310番地１", "url": "https://www.kaigokensaku.mhlw.go.jp/24/index.php?action_kouhyou_detail_004_kani=true&JigyosyoCd=2472400197-00&ServiceCd=210&Type=search", "url2": null }, "geometry": { "type": "Point", "coordinates": [ 136.43020439999998, 34.8166838 ] } },
{ "type": "Feature", "properties": { "内容": "ショートステイサービスセンター美里ヒルズ【短期入所生活介護】三重県津市美里町三郷430番地", "url": "https://www.kaigokensaku.mhlw.go.jp/24/index.php?action_kouhyou_detail_004_kani=true&JigyosyoCd=2472400452-00&ServiceCd=210&Type=search", "url2": "https://www.misatohills.jp" }, "geometry": { "type": "Point", "coordinates": [ 136.386703, 34.7243686 ] } },
{ "type": "Feature", "properties": { "内容": "短期入所生活介護事業所　ハートヒルかわげ【短期入所生活介護】三重県津市河芸町浜田８６０番地", "url": "https://www.kaigokensaku.mhlw.go.jp/24/index.php?action_kouhyou_detail_004_kani=true&JigyosyoCd=2472400056-00&ServiceCd=210&Type=search", "url2": "http://www.heart-hill.or.jp" }, "geometry": { "type": "Point", "coordinates": [ 136.531970399999977, 34.7869755 ] } },
{ "type": "Feature", "properties": { "内容": "グリーンヒル　ショートステイセンター【短期入所生活介護】三重県津市緑が丘一丁目1-2", "url": "https://www.kaigokensaku.mhlw.go.jp/24/index.php?action_kouhyou_detail_004_kani=true&JigyosyoCd=2470505567-00&ServiceCd=210&Type=search", "url2": "http://www.akeai.or.jp" }, "geometry": { "type": "Point", "coordinates": [ 136.47214319206546, 34.714232476630883 ] } },
{ "type": "Feature", "properties": { "内容": "特別養護老人ホームシルバーケア豊壽園【短期入所生活介護】津市高茶屋小森町字瓦ケ野4152番地", "url": "https://www.kaigokensaku.mhlw.go.jp/24/index.php?action_kouhyou_detail_004_kani=true&JigyosyoCd=2470500477-00&ServiceCd=210&Type=search", "url2": "http://www.sensin.or.jp" }, "geometry": { "type": "Point", "coordinates": [ 136.48979460000001, 34.668213 ] } },
{ "type": "Feature", "properties": { "内容": "高田光寿園短期入所生活介護事業所【短期入所生活介護】津市大里野田町1124-1", "url": "https://www.kaigokensaku.mhlw.go.jp/24/index.php?action_kouhyou_detail_004_kani=true&JigyosyoCd=2470500493-00&ServiceCd=210&Type=search", "url2": "http://www.takada-hukushi.jp/" }, "geometry": { "type": "Point", "coordinates": [ 136.481448399999977, 34.7841912 ] } },
{ "type": "Feature", "properties": { "内容": "特別養護老人ホーム　ライフかざはや【短期入所生活介護】三重県津市戸木町４１６９－４", "url": "https://www.kaigokensaku.mhlw.go.jp/24/index.php?action_kouhyou_detail_004_kani=true&JigyosyoCd=2470502382-00&ServiceCd=210&Type=search", "url2": "http://seiju-kai.or.jp/main/life/" }, "geometry": { "type": "Point", "coordinates": [ 136.450833500000044, 34.6849991 ] } },
{ "type": "Feature", "properties": { "内容": "特別養護老人ホーム　報徳園【短期入所生活介護】三重県津市河辺町1317番地1", "url": "https://www.kaigokensaku.mhlw.go.jp/24/index.php?action_kouhyou_detail_004_kani=true&JigyosyoCd=2470500634-00&ServiceCd=210&Type=search", "url2": "http://www.houtokuen.jp/" }, "geometry": { "type": "Point", "coordinates": [ 136.485998800000061, 34.7500239 ] } },
{ "type": "Feature", "properties": { "内容": "慈宗院短期入所生活介護【短期入所生活介護】津市片田長谷町167-1", "url": "https://www.kaigokensaku.mhlw.go.jp/24/index.php?action_kouhyou_detail_004_kani=true&JigyosyoCd=2470500238-00&ServiceCd=210&Type=search", "url2": "http://www.mie-keiaikai.or.jp/jisoin.html" }, "geometry": { "type": "Point", "coordinates": [ 136.42567889999998, 34.7272064 ] } },
{ "type": "Feature", "properties": { "内容": "ショートステイホーム千年希望の杜美杉【短期入所生活介護】美杉町八知729番地1特別養護老人ホーム千年希望の杜美杉", "url": "https://www.kaigokensaku.mhlw.go.jp/24/index.php?action_kouhyou_detail_004_kani=true&JigyosyoCd=2470506490-00&ServiceCd=210&Type=search", "url2": "https://keishukai.or.jp/" }, "geometry": { "type": "Point", "coordinates": [ 136.2803915, 34.5825619 ] } },
{ "type": "Feature", "properties": { "内容": "フルハウス　ショートステイセンター【短期入所生活介護】三重県津市香良洲町1990", "url": "https://www.kaigokensaku.mhlw.go.jp/24/index.php?action_kouhyou_detail_004_kani=true&JigyosyoCd=2472500137-00&ServiceCd=210&Type=search", "url2": "http://hamayu-kai.or.jp" }, "geometry": { "type": "Point", "coordinates": [ 136.541545600000063, 34.6409231 ] } },
{ "type": "Feature", "properties": { "内容": "聖十字四日市老人福祉施設【短期入所生活介護】三重県四日市市中野町２４９４番地１", "url": "https://www.kaigokensaku.mhlw.go.jp/24/index.php?action_kouhyou_detail_004_kani=true&JigyosyoCd=2470204781-00&ServiceCd=210&Type=search", "url2": "http://www.suzukaseijujikai.jp/yokkaichi.php" }, "geometry": { "type": "Point", "coordinates": [ 136.560170862843307, 35.050684535767097 ] } },
{ "type": "Feature", "properties": { "内容": "ショートステイ四郷の里【短期入所生活介護】三重県四日市市小林町3026-16", "url": "https://www.kaigokensaku.mhlw.go.jp/24/index.php?action_kouhyou_detail_004_kani=true&JigyosyoCd=2470206620-00&ServiceCd=210&Type=search", "url2": null }, "geometry": { "type": "Point", "coordinates": [ 136.5309962, 34.9616214 ] } },
{ "type": "Feature", "properties": { "内容": "ユニット型指定短期入所生活介護事業所　かすみの里【短期入所生活介護】四日市市白須賀1丁目12番8号", "url": "https://www.kaigokensaku.mhlw.go.jp/24/index.php?action_kouhyou_detail_004_kani=true&JigyosyoCd=2470204310-00&ServiceCd=210&Type=search", "url2": "http://www.unemenosato.or.jp" }, "geometry": { "type": "Point", "coordinates": [ 136.642087620762595, 34.989331630443104 ] } },
{ "type": "Feature", "properties": { "内容": "社会福祉法人桜コミュニティ【短期入所生活介護】三重県四日市市浜一色町15番14-1号", "url": "https://www.kaigokensaku.mhlw.go.jp/24/index.php?action_kouhyou_detail_004_kani=true&JigyosyoCd=2470205549-00&ServiceCd=210&Type=search", "url2": "http://sakuracom.jp" }, "geometry": { "type": "Point", "coordinates": [ 136.634447730688436, 34.978737040519484 ] } },
{ "type": "Feature", "properties": { "内容": "四日市ショートステイそよ風【短期入所生活介護】三重県四日市市城西町12-16", "url": "https://www.kaigokensaku.mhlw.go.jp/24/index.php?action_kouhyou_detail_004_kani=true&JigyosyoCd=2470204740-00&ServiceCd=210&Type=search", "url2": "http://www.sykz.co.jp" }, "geometry": { "type": "Point", "coordinates": [ 136.600926, 34.967053 ] } },
{ "type": "Feature", "properties": { "内容": "特別養護老人ホームうねめの里【短期入所生活介護】四日市市釆女町字森ヶ山４１８番の１", "url": "https://www.kaigokensaku.mhlw.go.jp/24/index.php?action_kouhyou_detail_004_kani=true&JigyosyoCd=2470202066-00&ServiceCd=210&Type=search", "url2": "https://www.eiko-kai.jp" }, "geometry": { "type": "Point", "coordinates": [ 136.580705525161761, 34.932456260797757 ] } },
{ "type": "Feature", "properties": { "内容": "特別養護老人ホーム南部陽光苑【短期入所生活介護】三重県四日市市河原田町２１４６番地", "url": "https://www.kaigokensaku.mhlw.go.jp/24/index.php?action_kouhyou_detail_004_kani=true&JigyosyoCd=2470200409-00&ServiceCd=210&Type=search", "url2": "http://www.miefukushikai.or.jp/" }, "geometry": { "type": "Point", "coordinates": [ 136.599071800000047, 34.9102136 ] } },
{ "type": "Feature", "properties": { "内容": "介護総合センターかんざき【短期入所生活介護】三重県四日市市寺方町字東谷986-4", "url": "https://www.kaigokensaku.mhlw.go.jp/24/index.php?action_kouhyou_detail_004_kani=true&JigyosyoCd=2470200169-00&ServiceCd=210&Type=search", "url2": "info@seizanrikai.jp" }, "geometry": { "type": "Point", "coordinates": [ 136.558798600000046, 34.9916281 ] } },
{ "type": "Feature", "properties": { "内容": "特別養護老人ホーム　日永英水苑　（従来型）【短期入所生活介護】三重県四日市市大字日永5530番地の23", "url": "https://www.kaigokensaku.mhlw.go.jp/24/index.php?action_kouhyou_detail_004_kani=true&JigyosyoCd=2470204633-00&ServiceCd=210&Type=search", "url2": "http://www.eisuikai.jp" }, "geometry": { "type": "Point", "coordinates": [ 136.585522034393307, 34.941194793418326 ] } },
{ "type": "Feature", "properties": { "内容": "特別養護老人ホーム　日永英水苑　（ユニット型）【短期入所生活介護】三重県四日市市大字日永5530番地の23", "url": "https://www.kaigokensaku.mhlw.go.jp/24/index.php?action_kouhyou_detail_004_kani=true&JigyosyoCd=2470204641-00&ServiceCd=210&Type=search", "url2": "http://www.eisuikai.jp" }, "geometry": { "type": "Point", "coordinates": [ 136.585463025794979, 34.941177203697848 ] } },
{ "type": "Feature", "properties": { "内容": "医療法人徳新会　四日市徳新会短期入所生活介護事業所【短期入所生活介護】三重県四日市市久保田二丁目１番２号", "url": "https://www.kaigokensaku.mhlw.go.jp/24/index.php?action_kouhyou_detail_004_kani=true&JigyosyoCd=2470206513-00&ServiceCd=210&Type=search", "url2": "https://yok-toku.jp" }, "geometry": { "type": "Point", "coordinates": [ 136.612286900000015, 34.973262500000025 ] } },
{ "type": "Feature", "properties": { "内容": "第二小山田特別養護老人ホーム【短期入所生活介護】三重県四日市市山田町5513", "url": "https://www.kaigokensaku.mhlw.go.jp/24/index.php?action_kouhyou_detail_004_kani=true&JigyosyoCd=2470200441-00&ServiceCd=210&Type=search", "url2": "http://seizanrikai.jp" }, "geometry": { "type": "Point", "coordinates": [ 136.526931099999956, 34.9469347 ] } },
{ "type": "Feature", "properties": { "内容": "特別養護老人ホーム　英水苑【短期入所生活介護】三重県四日市市智積町中須３４－１", "url": "https://www.kaigokensaku.mhlw.go.jp/24/index.php?action_kouhyou_detail_004_kani=true&JigyosyoCd=2470200391-00&ServiceCd=210&Type=search", "url2": "http://www.eisuikai.jp/" }, "geometry": { "type": "Point", "coordinates": [ 136.543005200000039, 34.9996771 ] } },
{ "type": "Feature", "properties": { "内容": "小山田特別養護老人ホーム　サテライト四郷【短期入所生活介護】三重県四日市市西日野町字小溝野4008", "url": "https://www.kaigokensaku.mhlw.go.jp/24/index.php?action_kouhyou_detail_004_kani=true&JigyosyoCd=2470202850-00&ServiceCd=210&Type=search", "url2": "https://www.seizanrikai.jp/" }, "geometry": { "type": "Point", "coordinates": [ 136.589397462211764, 34.949562619663055 ] } },
{ "type": "Feature", "properties": { "内容": "介護老人福祉施設　みのりの里【短期入所生活介護】三重県四日市市楠町本郷1139番地１", "url": "https://www.kaigokensaku.mhlw.go.jp/24/index.php?action_kouhyou_detail_004_kani=true&JigyosyoCd=2472200183-00&ServiceCd=210&Type=search", "url2": "ｔｏｋｕｊｕｋａｉ．ｃｏｍ" }, "geometry": { "type": "Point", "coordinates": [ 136.618520200000034, 34.9103254 ] } },
{ "type": "Feature", "properties": { "内容": "特別養護老人ホーム陽光苑【短期入所生活介護】三重県四日市市西坂部町1127番地", "url": "https://www.kaigokensaku.mhlw.go.jp/24/index.php?action_kouhyou_detail_004_kani=true&JigyosyoCd=2470200417-00&ServiceCd=210&Type=search", "url2": "http://www.miefukushikai.jp/" }, "geometry": { "type": "Point", "coordinates": [ 136.586632, 35.0074542 ] } },
{ "type": "Feature", "properties": { "内容": "介護総合センターかんざき　サテライト常磐【短期入所生活介護】四日市市城西町13-45", "url": "https://www.kaigokensaku.mhlw.go.jp/24/index.php?action_kouhyou_detail_004_kani=true&JigyosyoCd=2470203072-00&ServiceCd=210&Type=search", "url2": "https://seizanrikai.jp/" }, "geometry": { "type": "Point", "coordinates": [ 136.602221393548319, 34.965980977226415 ] } },
{ "type": "Feature", "properties": { "内容": "特別養護老人ホーム　風の路【短期入所生活介護】四日市市塩浜栄町471", "url": "https://www.kaigokensaku.mhlw.go.jp/24/index.php?action_kouhyou_detail_004_kani=true&JigyosyoCd=2470202322-00&ServiceCd=210&Type=search", "url2": "http://kazekaorukai.com" }, "geometry": { "type": "Point", "coordinates": [ 136.616477145052386, 34.929594212561419 ] } },
{ "type": "Feature", "properties": { "内容": "特別養護老人ホーム　サテライトみなと【短期入所生活介護】四日市市高砂町6-5", "url": "https://www.kaigokensaku.mhlw.go.jp/24/index.php?action_kouhyou_detail_004_kani=true&JigyosyoCd=2470203817-00&ServiceCd=210&Type=search", "url2": "https://www.kazekaorukai.com/" }, "geometry": { "type": "Point", "coordinates": [ 136.635703599999943, 34.9618213 ] } },
{ "type": "Feature", "properties": { "内容": "くぬぎの木ショートステイせせらぎ【短期入所生活介護】赤水町1245-7", "url": "https://www.kaigokensaku.mhlw.go.jp/24/index.php?action_kouhyou_detail_004_kani=true&JigyosyoCd=2470203791-00&ServiceCd=210&Type=search", "url2": "http://www.kunuginoki.jp" }, "geometry": { "type": "Point", "coordinates": [ 136.560220500000014, 35.0094456 ] } },
{ "type": "Feature", "properties": { "内容": "よっかいち諧朋苑　ショートステイ（ユニット型）【短期入所生活介護】四日市市西大鐘町山添1580番地", "url": "https://www.kaigokensaku.mhlw.go.jp/24/index.php?action_kouhyou_detail_004_kani=true&JigyosyoCd=2470203841-00&ServiceCd=210&Type=search", "url2": "http://www.kaihouen.jp/" }, "geometry": { "type": "Point", "coordinates": [ 136.603644688081772, 35.043198164388834 ] } },
{ "type": "Feature", "properties": { "内容": "よっかいち諧朋苑　ショートステイ【短期入所生活介護】四日市市西大鐘町字山添１５８０番地", "url": "https://www.kaigokensaku.mhlw.go.jp/24/index.php?action_kouhyou_detail_004_kani=true&JigyosyoCd=2470200094-00&ServiceCd=210&Type=search", "url2": "http://www.kaihouen.jp/" }, "geometry": { "type": "Point", "coordinates": [ 136.603648839544576, 35.043249650699686 ] } },
{ "type": "Feature", "properties": { "内容": "パナソニックエイジフリーケアセンター四日市芝田・ショートステイ【短期入所生活介護】三重県四日市市芝田1丁目10番11号", "url": "https://www.kaigokensaku.mhlw.go.jp/24/index.php?action_kouhyou_detail_004_kani=true&JigyosyoCd=2470205762-00&ServiceCd=210&Type=search", "url2": "http://sumai.panasonic.jp/agefree/" }, "geometry": { "type": "Point", "coordinates": [ 136.610176899999942, 34.9698724 ] } },
{ "type": "Feature", "properties": { "内容": "特別養護老人ホーム　高浜楽々館【短期入所生活介護】三重県四日市市高浜町8番26号", "url": "https://www.kaigokensaku.mhlw.go.jp/24/index.php?action_kouhyou_detail_004_kani=true&JigyosyoCd=2470206141-00&ServiceCd=210&Type=search", "url2": "http://www.suzuranfukushikai.jp/" }, "geometry": { "type": "Point", "coordinates": [ 136.638623648548901, 34.977652477877797 ] } },
{ "type": "Feature", "properties": { "内容": "ショートステイ和らぎ水沢【短期入所生活介護】水沢町2378-1", "url": "https://www.kaigokensaku.mhlw.go.jp/24/index.php?action_kouhyou_detail_004_kani=true&JigyosyoCd=2470206364-00&ServiceCd=210&Type=search", "url2": "https://souwafukushikai.com/" }, "geometry": { "type": "Point", "coordinates": [ 136.4729592, 34.9860165 ] } },
{ "type": "Feature", "properties": { "内容": "介護総合センターかんざき　サテライト川島【短期入所生活介護】三重県四日市市川島町字別山4037", "url": "https://www.kaigokensaku.mhlw.go.jp/24/index.php?action_kouhyou_detail_004_kani=true&JigyosyoCd=2470203080-00&ServiceCd=210&Type=search", "url2": "http://www.seizanrikai.jp" }, "geometry": { "type": "Point", "coordinates": [ 136.557167562139853, 34.968676050252526 ] } },
{ "type": "Feature", "properties": { "内容": "小山田特別養護老人ホーム【短期入所生活介護】三重県四日市市山田町5500-1", "url": "https://www.kaigokensaku.mhlw.go.jp/24/index.php?action_kouhyou_detail_004_kani=true&JigyosyoCd=2470200433-00&ServiceCd=210&Type=search", "url2": "https://seizanrikai.jp/" }, "geometry": { "type": "Point", "coordinates": [ 136.5283727, 34.9468736 ] } },
{ "type": "Feature", "properties": { "内容": "介護老人福祉施設　ヴィラ四日市【短期入所生活介護】三重県四日市市垂坂町8-2", "url": "https://www.kaigokensaku.mhlw.go.jp/24/index.php?action_kouhyou_detail_004_kani=true&JigyosyoCd=2470204732-00&ServiceCd=210&Type=search", "url2": "http//yokkaichi.tokuyou.jp/index." }, "geometry": { "type": "Point", "coordinates": [ 136.627655399999981, 35.0053741 ] } },
{ "type": "Feature", "properties": { "内容": "特別養護老人ホーム　アリビオ【短期入所生活介護】四日市市大字塩浜字八幡149-1", "url": "https://www.kaigokensaku.mhlw.go.jp/24/index.php?action_kouhyou_detail_004_kani=true&JigyosyoCd=2470203114-00&ServiceCd=210&Type=search", "url2": "http://www14.ocn.ne.jp/~kazkaoru/" }, "geometry": { "type": "Point", "coordinates": [ 136.614790035582018, 34.927936130347554 ] } },
{ "type": "Feature", "properties": { "内容": "在宅総合センター宮川さくら苑　ショートステイ【短期入所生活介護】三重県伊勢市中島２丁目２４－２４", "url": "https://www.kaigokensaku.mhlw.go.jp/24/index.php?action_kouhyou_detail_004_kani=true&JigyosyoCd=2470801503-00&ServiceCd=210&Type=search", "url2": "http://isewatarai-iryoseikyo.com/sakura.index.html" }, "geometry": { "type": "Point", "coordinates": [ 136.6879156, 34.4899603 ] } },
{ "type": "Feature", "properties": { "内容": "正邦苑指定短期入所生活介護事業所、正邦苑指定介護予防短期入所生活介護事業所【短期入所生活介護】三重県伊勢市村松町３２９４番地１", "url": "https://www.kaigokensaku.mhlw.go.jp/24/index.php?action_kouhyou_detail_004_kani=true&JigyosyoCd=2470800141-00&ServiceCd=210&Type=search", "url2": "http://www.jikeikai-ise.or.jp/" }, "geometry": { "type": "Point", "coordinates": [ 136.689518, 34.5442729 ] } },
{ "type": "Feature", "properties": { "内容": "正邦苑靜乾指定短期入所生活介護事業所【短期入所生活介護】三重県伊勢市村松町3355番地1", "url": "https://www.kaigokensaku.mhlw.go.jp/24/index.php?action_kouhyou_detail_004_kani=true&JigyosyoCd=2470800935-00&ServiceCd=210&Type=search", "url2": "http://www.jikeikai-ise.or.jp/shisetsu/seikan.html" }, "geometry": { "type": "Point", "coordinates": [ 136.691092799999979, 34.5440646 ] } },
{ "type": "Feature", "properties": { "内容": "特別養護老人ホーム　神路園【短期入所生活介護】三重県伊勢市二俣町577番地9", "url": "https://www.kaigokensaku.mhlw.go.jp/24/index.php?action_kouhyou_detail_004_kani=true&JigyosyoCd=2470800182-00&ServiceCd=210&Type=search", "url2": "http://www.amigo2.ne.jp/~kamizien/" }, "geometry": { "type": "Point", "coordinates": [ 136.681602099999964, 34.4748179 ] } },
{ "type": "Feature", "properties": { "内容": "指定短期入所生活介護事業所　高砂寮【短期入所生活介護】三重県伊勢市小俣町宮前38", "url": "https://www.kaigokensaku.mhlw.go.jp/24/index.php?action_kouhyou_detail_004_kani=true&JigyosyoCd=2472800248-00&ServiceCd=210&Type=search", "url2": "http://takasago-ise.jp" }, "geometry": { "type": "Point", "coordinates": [ 136.681316199999969, 34.4950954 ] } },
{ "type": "Feature", "properties": { "内容": "伊勢あさま苑指定短期入所生活介護事業所【短期入所生活介護】三重県伊勢市朝熊町3074-11", "url": "https://www.kaigokensaku.mhlw.go.jp/24/index.php?action_kouhyou_detail_004_kani=true&JigyosyoCd=2470800315-00&ServiceCd=210&Type=search", "url2": "http://www.asamaen.jp" }, "geometry": { "type": "Point", "coordinates": [ 136.759001300000023, 34.490104 ] } },
{ "type": "Feature", "properties": { "内容": "白百合園短期入所生活介護事業所【短期入所生活介護】三重県伊勢市上地町3130番地", "url": "https://www.kaigokensaku.mhlw.go.jp/24/index.php?action_kouhyou_detail_004_kani=true&JigyosyoCd=2470800117-00&ServiceCd=210&Type=search", "url2": "https://fukutokukai.jp/" }, "geometry": { "type": "Point", "coordinates": [ 136.656523900000025, 34.5008105 ] } },
{ "type": "Feature", "properties": { "内容": "双寿園短期入所生活介護事業所【短期入所生活介護】三重県伊勢市河崎3丁目15－33", "url": "https://www.kaigokensaku.mhlw.go.jp/24/index.php?action_kouhyou_detail_004_kani=true&JigyosyoCd=2470800422-00&ServiceCd=210&Type=search", "url2": "http://www.hoeikai.or.jp/main/" }, "geometry": { "type": "Point", "coordinates": [ 136.718765599999983, 34.4957555 ] } },
{ "type": "Feature", "properties": { "内容": "楽寿苑指定短期入所生活介護事業所【短期入所生活介護】三重県伊勢市馬瀬町1065番地", "url": "https://www.kaigokensaku.mhlw.go.jp/24/index.php?action_kouhyou_detail_004_kani=true&JigyosyoCd=2470800604-00&ServiceCd=210&Type=search", "url2": "http://www.hoeikai.or.jp/main/" }, "geometry": { "type": "Point", "coordinates": [ 136.724637, 34.5136921 ] } },
{ "type": "Feature", "properties": { "内容": "短期入所生活介護事業　いすず苑【短期入所生活介護】三重県伊勢市楠部町若ノ山2605-33", "url": "https://www.kaigokensaku.mhlw.go.jp/24/index.php?action_kouhyou_detail_004_kani=true&JigyosyoCd=2470800638-00&ServiceCd=210&Type=search", "url2": "https://isuzukai.or.jp" }, "geometry": { "type": "Point", "coordinates": [ 136.7389948, 34.476925 ] } },
{ "type": "Feature", "properties": { "内容": "小規模特別養護老人ホームきらり【短期入所生活介護】三重県松阪市飯高町宮本305番地", "url": "https://www.kaigokensaku.mhlw.go.jp/24/index.php?action_kouhyou_detail_004_kani=true&JigyosyoCd=2470704194-00&ServiceCd=210&Type=search", "url2": "https://choujyunomori.com/" }, "geometry": { "type": "Point", "coordinates": [ 136.242651099999989, 34.3985989 ] } },
{ "type": "Feature", "properties": { "内容": "小規模特別養護老人ホームさくら橋【短期入所生活介護】三重県松阪市飯南町粥見1693-1", "url": "https://www.kaigokensaku.mhlw.go.jp/24/index.php?action_kouhyou_detail_004_kani=true&JigyosyoCd=2470702065-00&ServiceCd=210&Type=search", "url2": "http://www.sakuraen.com/sakurabashi/" }, "geometry": { "type": "Point", "coordinates": [ 136.405895800000053, 34.4513553 ] } },
{ "type": "Feature", "properties": { "内容": "南勢カトリック特別養護老人ホーム【短期入所生活介護】三重県松阪市小阿坂町1986番地", "url": "https://www.kaigokensaku.mhlw.go.jp/24/index.php?action_kouhyou_detail_004_kani=true&JigyosyoCd=2470700218-00&ServiceCd=210&Type=search", "url2": "http://nankato.or.jp" }, "geometry": { "type": "Point", "coordinates": [ 136.473378799999978, 34.5787248 ] } },
{ "type": "Feature", "properties": { "内容": "おとまりショートぽ・ぷ・ら【短期入所生活介護】松阪市大口町９８", "url": "https://www.kaigokensaku.mhlw.go.jp/24/index.php?action_kouhyou_detail_004_kani=true&JigyosyoCd=2470704285-00&ServiceCd=210&Type=search", "url2": "www.matsusaka-popura.com" }, "geometry": { "type": "Point", "coordinates": [ 136.547295, 34.5902963 ] } },
{ "type": "Feature", "properties": { "内容": "短期入所生活介護事業所　飯高有徳園【短期入所生活介護】三重県松阪市飯高町下滝野1350番地2", "url": "https://www.kaigokensaku.mhlw.go.jp/24/index.php?action_kouhyou_detail_004_kani=true&JigyosyoCd=2472600036-00&ServiceCd=210&Type=search", "url2": "http://www.yu-toku.jp" }, "geometry": { "type": "Point", "coordinates": [ 136.341954699999974, 34.437499099999975 ] } },
{ "type": "Feature", "properties": { "内容": "特別養護老人ホーム　吉祥苑【短期入所生活介護】三重県松阪市鎌田町275-1", "url": "https://www.kaigokensaku.mhlw.go.jp/24/index.php?action_kouhyou_detail_004_kani=true&JigyosyoCd=2470700085-00&ServiceCd=210&Type=search", "url2": "http://www.sumire-kai.or.jp/" }, "geometry": { "type": "Point", "coordinates": [ 136.536339, 34.5822543 ] } },
{ "type": "Feature", "properties": { "内容": "ショートステイ　ハートケアなんせい【短期入所生活介護】三重県松阪市山室町２２９２－４", "url": "https://www.kaigokensaku.mhlw.go.jp/24/index.php?action_kouhyou_detail_004_kani=true&JigyosyoCd=2470701141-00&ServiceCd=210&Type=search", "url2": "http://www.nansei-hospital.jp/hcnansei/" }, "geometry": { "type": "Point", "coordinates": [ 136.527510399999983, 34.5440913 ] } },
{ "type": "Feature", "properties": { "内容": "特別養護老人ホーム　松阪天啓苑【短期入所生活介護】松阪市高須町3460番17", "url": "https://www.kaigokensaku.mhlw.go.jp/24/index.php?action_kouhyou_detail_004_kani=true&JigyosyoCd=2470701422-00&ServiceCd=210&Type=search", "url2": "ikushinkai-tm.jp" }, "geometry": { "type": "Point", "coordinates": [ 136.56564979999996, 34.5970592 ] } },
{ "type": "Feature", "properties": { "内容": "小規模特別養護老人ホームむつみ園【短期入所生活介護】松阪市嬉野算所町488", "url": "https://www.kaigokensaku.mhlw.go.jp/24/index.php?action_kouhyou_detail_004_kani=true&JigyosyoCd=2470701737-00&ServiceCd=210&Type=search", "url2": "http://www.mutsumifukushikai-mie.com" }, "geometry": { "type": "Point", "coordinates": [ 136.4860414, 34.6154154 ] } },
{ "type": "Feature", "properties": { "内容": "ケアステーションたきび　ショートステイ【短期入所生活介護】三重県松阪市宮町62-1", "url": "https://www.kaigokensaku.mhlw.go.jp/24/index.php?action_kouhyou_detail_004_kani=true&JigyosyoCd=2470701430-00&ServiceCd=210&Type=search", "url2": "http;//www.cs-takibi.jp/" }, "geometry": { "type": "Point", "coordinates": [ 136.547174199999972, 34.5787052 ] } },
{ "type": "Feature", "properties": { "内容": "特別養護老人ホーム第二吉祥苑【短期入所生活介護】三重県松阪市五主町391－1", "url": "https://www.kaigokensaku.mhlw.go.jp/24/index.php?action_kouhyou_detail_004_kani=true&JigyosyoCd=2472500392-00&ServiceCd=210&Type=search", "url2": "http://www.sumire-kai.or.ip/" }, "geometry": { "type": "Point", "coordinates": [ 136.537599, 34.6270802 ] } },
{ "type": "Feature", "properties": { "内容": "特別養護老人ホーム　第2まごころ苑【短期入所生活介護】三重県松阪市川井町1354‐1", "url": "https://www.kaigokensaku.mhlw.go.jp/24/index.php?action_kouhyou_detail_004_kani=true&JigyosyoCd=2470700432-00&ServiceCd=210&Type=search", "url2": "http://www.sawayaka-well.jp/" }, "geometry": { "type": "Point", "coordinates": [ 136.525945299999989, 34.5876699 ] } },
{ "type": "Feature", "properties": { "内容": "特別養護老人ホームやまゆりの里【短期入所生活介護】松阪市嬉野中川町1528－101", "url": "https://www.kaigokensaku.mhlw.go.jp/24/index.php?action_kouhyou_detail_004_kani=true&JigyosyoCd=2470701158-00&ServiceCd=210&Type=search", "url2": "https://www.akeai.or.jp/" }, "geometry": { "type": "Point", "coordinates": [ 136.47637229999998, 34.6249485 ] } },
{ "type": "Feature", "properties": { "内容": "協和苑短期入所生活介護事業所【短期入所生活介護】松阪市上川町３８２１番２", "url": "https://www.kaigokensaku.mhlw.go.jp/24/index.php?action_kouhyou_detail_004_kani=true&JigyosyoCd=2470700366-00&ServiceCd=210&Type=search", "url2": "http://miekf.com/" }, "geometry": { "type": "Point", "coordinates": [ 136.5491194, 34.5484111 ] } },
{ "type": "Feature", "properties": { "内容": "短期入所生活介護なでしこ苑（従来型）【短期入所生活介護】三重県松阪市曲町字小紋1481番地", "url": "https://www.kaigokensaku.mhlw.go.jp/24/index.php?action_kouhyou_detail_004_kani=true&JigyosyoCd=2470703949-00&ServiceCd=210&Type=search", "url2": "http://www.nadesicoen.com/" }, "geometry": { "type": "Point", "coordinates": [ 136.511367030782424, 34.583679044645763 ] } },
{ "type": "Feature", "properties": { "内容": "短期入所生活介護事業所なでしこ苑（ユニット型）【短期入所生活介護】三重県松阪市曲町字小紋1481番地", "url": "https://www.kaigokensaku.mhlw.go.jp/24/index.php?action_kouhyou_detail_004_kani=true&JigyosyoCd=2470703956-00&ServiceCd=210&Type=search", "url2": "https://www.nadesicoen.net" }, "geometry": { "type": "Point", "coordinates": [ 136.511360926549628, 34.583725238742495 ] } },
{ "type": "Feature", "properties": { "内容": "特別養護老人ホームさくらの郷【短期入所生活介護】三重県松阪市桜町35番地", "url": "https://www.kaigokensaku.mhlw.go.jp/24/index.php?action_kouhyou_detail_004_kani=true&JigyosyoCd=2470703022-00&ServiceCd=210&Type=search", "url2": "http://www.sakuraen.com/sakuranosato/" }, "geometry": { "type": "Point", "coordinates": [ 136.511208533423797, 34.568598522075241 ] } },
{ "type": "Feature", "properties": { "内容": "介護老人福祉施設　花みずき【短期入所生活介護】三重県松阪市久保町1926-1", "url": "https://www.kaigokensaku.mhlw.go.jp/24/index.php?action_kouhyou_detail_004_kani=true&JigyosyoCd=2470701505-00&ServiceCd=210&Type=search", "url2": null }, "geometry": { "type": "Point", "coordinates": [ 136.527455, 34.5391308 ] } },
{ "type": "Feature", "properties": { "内容": "特別養護老人ホーム　百花苑【短期入所生活介護】松阪市井村町277番地1", "url": "https://www.kaigokensaku.mhlw.go.jp/24/index.php?action_kouhyou_detail_004_kani=true&JigyosyoCd=2470702461-00&ServiceCd=210&Type=search", "url2": "http://www.sumire-kai.or.jp" }, "geometry": { "type": "Point", "coordinates": [ 136.5117692, 34.5763149 ] } },
{ "type": "Feature", "properties": { "内容": "指定老人短期入所生活介護施設　まごころ苑【短期入所生活介護】三重県松阪市川井町1358－1", "url": "https://www.kaigokensaku.mhlw.go.jp/24/index.php?action_kouhyou_detail_004_kani=true&JigyosyoCd=2470700283-00&ServiceCd=210&Type=search", "url2": "http://www.sawayaka-well.jp/" }, "geometry": { "type": "Point", "coordinates": [ 136.526213790212978, 34.587298883677384 ] } },
{ "type": "Feature", "properties": { "内容": "特別養護老人ホームさくら園【短期入所生活介護】三重県松阪市下蛸路町409-1", "url": "https://www.kaigokensaku.mhlw.go.jp/24/index.php?action_kouhyou_detail_004_kani=true&JigyosyoCd=2470702073-00&ServiceCd=210&Type=search", "url2": "http://www.sakuraen.com" }, "geometry": { "type": "Point", "coordinates": [ 136.542434599999979, 34.5243024 ] } },
{ "type": "Feature", "properties": { "内容": "ナーシング小津【短期入所生活介護】松阪市小津町938番地", "url": "https://www.kaigokensaku.mhlw.go.jp/24/index.php?action_kouhyou_detail_004_kani=true&JigyosyoCd=2470703485-00&ServiceCd=210&Type=search", "url2": "http://www.technocare-mie.com/index.html" }, "geometry": { "type": "Point", "coordinates": [ 136.507082699999955, 34.61685 ] } },
{ "type": "Feature", "properties": { "内容": "ショートステイ　松阪有徳園【短期入所生活介護】三重県松阪市久保町1855番地113", "url": "https://www.kaigokensaku.mhlw.go.jp/24/index.php?action_kouhyou_detail_004_kani=true&JigyosyoCd=2470703220-00&ServiceCd=210&Type=search", "url2": "http:/www.yu-toku.jp" }, "geometry": { "type": "Point", "coordinates": [ 136.5329405, 34.5424167 ] } },
{ "type": "Feature", "properties": { "内容": "指定短期入所生活介護事業所長寿苑【短期入所生活介護】三重県桑名市額田１２５６－２", "url": "https://www.kaigokensaku.mhlw.go.jp/24/index.php?action_kouhyou_detail_004_kani=true&JigyosyoCd=2470101441-00&ServiceCd=210&Type=search", "url2": "https://www.chojuen.org/" }, "geometry": { "type": "Point", "coordinates": [ 136.639456399999972, 35.0733582 ] } },
{ "type": "Feature", "properties": { "内容": "特別養護老人ホームアパティア長島苑【短期入所生活介護】三重県桑名市長島町西外面１０７０番地", "url": "https://www.kaigokensaku.mhlw.go.jp/24/index.php?action_kouhyou_detail_004_kani=true&JigyosyoCd=2472000070-00&ServiceCd=210&Type=search", "url2": "http://www/apatheia.jp" }, "geometry": { "type": "Point", "coordinates": [ 136.692095900000027, 35.0938962 ] } },
{ "type": "Feature", "properties": { "内容": "特別養護老人ホーム　いこい【短期入所生活介護】三重県桑名市大字西金井字村中１７０番地", "url": "https://www.kaigokensaku.mhlw.go.jp/24/index.php?action_kouhyou_detail_004_kani=true&JigyosyoCd=2470100203-00&ServiceCd=210&Type=search", "url2": "http://www.ikoi-mie.com" }, "geometry": { "type": "Point", "coordinates": [ 136.683803, 35.0622161 ] } },
{ "type": "Feature", "properties": { "内容": "特別養護老人ホーム　いこい【短期入所生活介護】桑名市大字西金井字村中170番地", "url": "https://www.kaigokensaku.mhlw.go.jp/24/index.php?action_kouhyou_detail_004_kani=true&JigyosyoCd=2470101755-00&ServiceCd=210&Type=search", "url2": "http://www.ikoi-mie.com" }, "geometry": { "type": "Point", "coordinates": [ 136.665876799999978, 35.0507944 ] } },
{ "type": "Feature", "properties": { "内容": "特別養護老人ホーム　いこい　サテライト　なごみ【短期入所生活介護】三重県桑名市大央町50-2", "url": "https://www.kaigokensaku.mhlw.go.jp/24/index.php?action_kouhyou_detail_004_kani=true&JigyosyoCd=2470102068-00&ServiceCd=210&Type=search", "url2": null }, "geometry": { "type": "Point", "coordinates": [ 136.688577600000031, 35.0609164 ] } },
{ "type": "Feature", "properties": { "内容": "共生型短期入所生活介護すずらん【短期入所生活介護】東汰上185", "url": "https://www.kaigokensaku.mhlw.go.jp/24/index.php?action_kouhyou_detail_004_kani=true&JigyosyoCd=2470102621-00&ServiceCd=210&Type=search", "url2": null }, "geometry": { "type": "Point", "coordinates": [ 136.6746459, 35.0875507 ] } },
{ "type": "Feature", "properties": { "内容": "老人ショートステイ事業所　ソフトハウス【短期入所生活介護】三重県桑名市多度町福永字西福永４４０番地４８", "url": "https://www.kaigokensaku.mhlw.go.jp/24/index.php?action_kouhyou_detail_004_kani=true&JigyosyoCd=2472000179-00&ServiceCd=210&Type=search", "url2": "http://softhouse.jp/" }, "geometry": { "type": "Point", "coordinates": [ 136.648705111114538, 35.144999692918361 ] } },
{ "type": "Feature", "properties": { "内容": "特別養護老人ホーム　鈴鹿聖十字の家【短期入所生活介護】三重県鈴鹿市木田町1961番地", "url": "https://www.kaigokensaku.mhlw.go.jp/24/index.php?action_kouhyou_detail_004_kani=true&JigyosyoCd=2470300035-00&ServiceCd=210&Type=search", "url2": "https://www.suzukaseijujikai.jp/" }, "geometry": { "type": "Point", "coordinates": [ 136.5628773, 34.904979 ] } },
{ "type": "Feature", "properties": { "内容": "伊勢マリンホーム　短期入所生活介護事業【短期入所生活介護】三重県鈴鹿市南若松町字南新田1", "url": "https://www.kaigokensaku.mhlw.go.jp/24/index.php?action_kouhyou_detail_004_kani=true&JigyosyoCd=2470300233-00&ServiceCd=210&Type=search", "url2": "http://isemarin,jp/" }, "geometry": { "type": "Point", "coordinates": [ 136.599581475193759, 34.838337592407328 ] } },
{ "type": "Feature", "properties": { "内容": "特別養護老人ホーム　鈴鹿グリーンホーム　短期入所生活介護事業所【短期入所生活介護】三重県鈴鹿市深溝町字北林2956番地", "url": "https://www.kaigokensaku.mhlw.go.jp/24/index.php?action_kouhyou_detail_004_kani=true&JigyosyoCd=2470300274-00&ServiceCd=210&Type=search", "url2": "https://suzuka-greenhome.jp/" }, "geometry": { "type": "Point", "coordinates": [ 136.505873887974531, 34.935272444635842 ] } },
{ "type": "Feature", "properties": { "内容": "ショートステイ鈴鹿グリーンホーム翠風【短期入所生活介護】三重県鈴鹿市岸田町字六名1547番地73", "url": "https://www.kaigokensaku.mhlw.go.jp/24/index.php?action_kouhyou_detail_004_kani=true&JigyosyoCd=2470303658-00&ServiceCd=210&Type=search", "url2": "https://suzuka-greenhome.jp/" }, "geometry": { "type": "Point", "coordinates": [ 136.506223423185901, 34.935790044246943 ] } },
{ "type": "Feature", "properties": { "内容": "特別養護老人ホームルーエハイム【短期入所生活介護】三重県鈴鹿市長法寺町字権現763番地", "url": "https://www.kaigokensaku.mhlw.go.jp/24/index.php?action_kouhyou_detail_004_kani=true&JigyosyoCd=2470300167-00&ServiceCd=210&Type=search", "url2": "https://www.ruheheim.com" }, "geometry": { "type": "Point", "coordinates": [ 136.508416096776045, 34.826491446418672 ] } },
{ "type": "Feature", "properties": { "内容": "短期入所生活介護事業所　かなしょうず園【短期入所生活介護】三重県鈴鹿市地子町字金生水８１４番地の３０", "url": "https://www.kaigokensaku.mhlw.go.jp/24/index.php?action_kouhyou_detail_004_kani=true&JigyosyoCd=2470300175-00&ServiceCd=210&Type=search", "url2": "https://tamada-group.jp/" }, "geometry": { "type": "Point", "coordinates": [ 136.558735617403471, 34.867907474221283 ] } },
{ "type": "Feature", "properties": { "内容": "ショートステイうの花【短期入所生活介護】三重県鈴鹿市石薬師町２３８５－４", "url": "https://www.kaigokensaku.mhlw.go.jp/24/index.php?action_kouhyou_detail_004_kani=true&JigyosyoCd=2470301751-00&ServiceCd=210&Type=search", "url2": null }, "geometry": { "type": "Point", "coordinates": [ 136.536903100000018, 34.9145101 ] } },
{ "type": "Feature", "properties": { "内容": "ショートステイ矢橋【短期入所生活介護】三重県鈴鹿市矢橋三丁目１６番１３号", "url": "https://www.kaigokensaku.mhlw.go.jp/24/index.php?action_kouhyou_detail_004_kani=true&JigyosyoCd=2470303674-00&ServiceCd=210&Type=search", "url2": "http://www.murase.or.jp" }, "geometry": { "type": "Point", "coordinates": [ 136.5910408, 34.885157 ] } },
{ "type": "Feature", "properties": { "内容": "特別養護老人ホームひまわり苑【短期入所生活介護】三重県鈴鹿市須賀一丁目28-23", "url": "https://www.kaigokensaku.mhlw.go.jp/24/index.php?action_kouhyou_detail_004_kani=true&JigyosyoCd=2470302460-00&ServiceCd=210&Type=search", "url2": "http://www.murase.or.jp/youkoukai-web/" }, "geometry": { "type": "Point", "coordinates": [ 136.591381, 34.8857738 ] } },
{ "type": "Feature", "properties": { "内容": "くすのき園　短期入所生活介護事業所【短期入所生活介護】三重県鈴鹿市若松西六丁目２８番１８号", "url": "https://www.kaigokensaku.mhlw.go.jp/24/index.php?action_kouhyou_detail_004_kani=true&JigyosyoCd=2470300472-00&ServiceCd=210&Type=search", "url2": "https://jidoukai-kusunokien.com/" }, "geometry": { "type": "Point", "coordinates": [ 136.612354099999948, 34.876572 ] } },
{ "type": "Feature", "properties": { "内容": "シンシア鈴鹿【短期入所生活介護】三重県鈴鹿市三日市町977番地の1", "url": "https://www.kaigokensaku.mhlw.go.jp/24/index.php?action_kouhyou_detail_004_kani=true&JigyosyoCd=2470302825-00&ServiceCd=210&Type=search", "url2": "http://www.sincere-gri.com" }, "geometry": { "type": "Point", "coordinates": [ 136.558957657533256, 34.87611081514742 ] } },
{ "type": "Feature", "properties": { "内容": "ショートステイ　桜の森白子ホーム【短期入所生活介護】三重県鈴鹿市南玉垣町7300-2", "url": "https://www.kaigokensaku.mhlw.go.jp/24/index.php?action_kouhyou_detail_004_kani=true&JigyosyoCd=2470303013-00&ServiceCd=210&Type=search", "url2": "http://www.shiroko-home.com/" }, "geometry": { "type": "Point", "coordinates": [ 136.584784300000024, 34.8493276 ] } },
{ "type": "Feature", "properties": { "内容": "希望の里たんぽぽ【短期入所生活介護】鈴鹿市道伯町２４０４", "url": "https://www.kaigokensaku.mhlw.go.jp/24/index.php?action_kouhyou_detail_004_kani=true&JigyosyoCd=2470301918-00&ServiceCd=210&Type=search", "url2": "http://kibou-tanpopo.jindo.com/" }, "geometry": { "type": "Point", "coordinates": [ 136.546061900000041, 34.8603894 ] } },
{ "type": "Feature", "properties": { "内容": "特別養護老人ホームグランツァ　短期入所生活介護事業所【短期入所生活介護】三重県名張市美旗中村１４１７－２特別養護老人ホームグランツァ", "url": "https://www.kaigokensaku.mhlw.go.jp/24/index.php?action_kouhyou_detail_004_kani=true&JigyosyoCd=2471301248-00&ServiceCd=210&Type=search", "url2": "https://www.n-ikuseien.jp/" }, "geometry": { "type": "Point", "coordinates": [ 136.1325525, 34.6460568 ] } },
{ "type": "Feature", "properties": { "内容": "老人短期入所事業ゆう【短期入所生活介護】木屋町812番地2", "url": "https://www.kaigokensaku.mhlw.go.jp/24/index.php?action_kouhyou_detail_004_kani=true&JigyosyoCd=2471301388-00&ServiceCd=210&Type=search", "url2": "https://www.okitsumo-fukushi.com/yuu/" }, "geometry": { "type": "Point", "coordinates": [ 136.085431, 34.622336 ] } },
{ "type": "Feature", "properties": { "内容": "名張特別養護老人ホーム【短期入所生活介護】三重県名張市新田2230-2", "url": "https://www.kaigokensaku.mhlw.go.jp/24/index.php?action_kouhyou_detail_004_kani=true&JigyosyoCd=2471300067-00&ServiceCd=210&Type=search", "url2": "https://www.nabari-kosei.or.jp/koureisha-fukushi/shortstay/" }, "geometry": { "type": "Point", "coordinates": [ 136.126331399336209, 34.662706471956959 ] } },
{ "type": "Feature", "properties": { "内容": "名張特別養護老人ホーム【短期入所生活介護】新田２２３０－２", "url": "https://www.kaigokensaku.mhlw.go.jp/24/index.php?action_kouhyou_detail_004_kani=true&JigyosyoCd=2471301024-00&ServiceCd=210&Type=search", "url2": "http://www.nabarikoseikyokai.jp/" }, "geometry": { "type": "Point", "coordinates": [ 136.126814196958918, 34.66251674236139 ] } },
{ "type": "Feature", "properties": { "内容": "ショートステイ　第２はなの里【短期入所生活介護】三重県名張市百合が丘西5番町1番地", "url": "https://www.kaigokensaku.mhlw.go.jp/24/index.php?action_kouhyou_detail_004_kani=true&JigyosyoCd=2471300638-00&ServiceCd=210&Type=search", "url2": "http://www.hananosato-nabari.com" }, "geometry": { "type": "Point", "coordinates": [ 136.096261799999979, 34.6040027 ] } },
{ "type": "Feature", "properties": { "内容": "特別養護老人ホーム　はなの里【短期入所生活介護】三重県名張市西田原2000番地", "url": "https://www.kaigokensaku.mhlw.go.jp/24/index.php?action_kouhyou_detail_004_kani=true&JigyosyoCd=2471300141-00&ServiceCd=210&Type=search", "url2": "http://www.hananosato-nabari.com" }, "geometry": { "type": "Point", "coordinates": [ 136.10661719999996, 34.6556786 ] } },
{ "type": "Feature", "properties": { "内容": "ショートステイ第３はなの里【短期入所生活介護】西田原２１００番地", "url": "https://www.kaigokensaku.mhlw.go.jp/24/index.php?action_kouhyou_detail_004_kani=true&JigyosyoCd=2471300778-00&ServiceCd=210&Type=search", "url2": "http://www.hananosato-nabari.com" }, "geometry": { "type": "Point", "coordinates": [ 136.106845, 34.6548065 ] } },
{ "type": "Feature", "properties": { "内容": "ショートステイ　第５はなの里【短期入所生活介護】三重県名張市百合が丘西５番町２７番地", "url": "https://www.kaigokensaku.mhlw.go.jp/24/index.php?action_kouhyou_detail_004_kani=true&JigyosyoCd=2471301446-00&ServiceCd=210&Type=search", "url2": "https//www.hananosato-nabari.com" }, "geometry": { "type": "Point", "coordinates": [ 136.0938879, 34.606209 ] } },
{ "type": "Feature", "properties": { "内容": "在宅複合型施設　グリーントピア名張【短期入所生活介護】三重県名張市東田原2745番地", "url": "https://www.kaigokensaku.mhlw.go.jp/24/index.php?action_kouhyou_detail_004_kani=true&JigyosyoCd=2471300018-00&ServiceCd=210&Type=search", "url2": "http://www.green-center.or.jp" }, "geometry": { "type": "Point", "coordinates": [ 136.111505599999987, 34.6519152 ] } },
{ "type": "Feature", "properties": { "内容": "ショートステイサービスセンター国津園【短期入所生活介護】三重県名張市神屋７６５番地", "url": "https://www.kaigokensaku.mhlw.go.jp/24/index.php?action_kouhyou_detail_004_kani=true&JigyosyoCd=2471300265-00&ServiceCd=210&Type=search", "url2": "https://www.kunitsuen.jp" }, "geometry": { "type": "Point", "coordinates": [ 136.145918400000028, 34.5881776 ] } },
{ "type": "Feature", "properties": { "内容": "特別養護老人ホーム　名張もみじ山荘【短期入所生活介護】三重県名張市赤目町長坂日之谷２５０番３", "url": "https://www.kaigokensaku.mhlw.go.jp/24/index.php?action_kouhyou_detail_004_kani=true&JigyosyoCd=2471301578-00&ServiceCd=210&Type=search", "url2": "http://nabari-momiji.jp@rice.ocn.ne.jp" }, "geometry": { "type": "Point", "coordinates": [ 136.0825552, 34.5714339 ] } },
{ "type": "Feature", "properties": { "内容": "ショートステイサンライフ【短期入所生活介護】尾鷲市大字南浦古里の上4689-1", "url": "https://www.kaigokensaku.mhlw.go.jp/24/index.php?action_kouhyou_detail_004_kani=true&JigyosyoCd=2471000261-00&ServiceCd=210&Type=search", "url2": "http://www.owasechojuen.or.jp/" }, "geometry": { "type": "Point", "coordinates": [ 136.217334592526214, 34.079934436629102 ] } },
{ "type": "Feature", "properties": { "内容": "あいあい日向ショートステイ【短期入所生活介護】三重県尾鷲市大字向井133番地の9", "url": "https://www.kaigokensaku.mhlw.go.jp/24/index.php?action_kouhyou_detail_004_kani=true&JigyosyoCd=2471000378-00&ServiceCd=210&Type=search", "url2": null }, "geometry": { "type": "Point", "coordinates": [ 136.215623700000037, 34.0595454 ] } },
{ "type": "Feature", "properties": { "内容": "あいあいの丘ショートステイ【短期入所生活介護】三重県尾鷲市矢浜四丁目1番46号あいあいの丘", "url": "https://www.kaigokensaku.mhlw.go.jp/24/index.php?action_kouhyou_detail_004_kani=true&JigyosyoCd=2471000501-00&ServiceCd=210&Type=search", "url2": null }, "geometry": { "type": "Point", "coordinates": [ 136.198466899999971, 34.0564341 ] } },
{ "type": "Feature", "properties": { "内容": "特別養護老人ホームあさひ【短期入所生活介護】三重県尾鷲市三木里町字木場９６７番地８", "url": "https://www.kaigokensaku.mhlw.go.jp/24/index.php?action_kouhyou_detail_004_kani=true&JigyosyoCd=2471000204-00&ServiceCd=210&Type=search", "url2": null }, "geometry": { "type": "Point", "coordinates": [ 136.1948061, 33.9990159 ] } },
{ "type": "Feature", "properties": { "内容": "小規模特別養護老人ホームあさひ【短期入所生活介護】三重県尾鷲市三木里町９６７－１", "url": "https://www.kaigokensaku.mhlw.go.jp/24/index.php?action_kouhyou_detail_004_kani=true&JigyosyoCd=2471000394-00&ServiceCd=210&Type=search", "url2": null }, "geometry": { "type": "Point", "coordinates": [ 136.202571423768973, 33.999569509240338 ] } },
{ "type": "Feature", "properties": { "内容": "ショートステイスバル台【短期入所生活介護】三重県尾鷲市大字南浦4587番地4特別養護老人ホームスバル台", "url": "https://www.kaigokensaku.mhlw.go.jp/24/index.php?action_kouhyou_detail_004_kani=true&JigyosyoCd=2471000089-00&ServiceCd=210&Type=search", "url2": "http://www.owasechojuen.or.jp/" }, "geometry": { "type": "Point", "coordinates": [ 136.206438, 34.0821872 ] } },
{ "type": "Feature", "properties": { "内容": "小規模ショートあさひ【短期入所生活介護】三重県尾鷲市三木里町967-1", "url": "https://www.kaigokensaku.mhlw.go.jp/24/index.php?action_kouhyou_detail_004_kani=true&JigyosyoCd=2471000493-00&ServiceCd=210&Type=search", "url2": null }, "geometry": { "type": "Point", "coordinates": [ 136.2038219, 33.9993048 ] } },
{ "type": "Feature", "properties": { "内容": "亀山愛の里ショ－トステイ【短期入所生活介護】亀山市川合町1288-4", "url": "https://www.kaigokensaku.mhlw.go.jp/24/index.php?action_kouhyou_detail_004_kani=true&JigyosyoCd=2470400652-00&ServiceCd=210&Type=search", "url2": "https://kameyama-ainosato.com" }, "geometry": { "type": "Point", "coordinates": [ 136.475439, 34.8626775 ] } },
{ "type": "Feature", "properties": { "内容": "安全の里短期入所生活介護事業所【短期入所生活介護】三重県亀山市住山町590番地1", "url": "https://www.kaigokensaku.mhlw.go.jp/24/index.php?action_kouhyou_detail_004_kani=true&JigyosyoCd=2470400017-00&ServiceCd=210&Type=search", "url2": "https://anzenfukushikai.or.jp/" }, "geometry": { "type": "Point", "coordinates": [ 136.429888799999958, 34.87527260000001 ] } },
{ "type": "Feature", "properties": { "内容": "ユニット型特別養護老人ホーム安全の里【短期入所生活介護】三重県亀山市住山町590番地1", "url": "https://www.kaigokensaku.mhlw.go.jp/24/index.php?action_kouhyou_detail_004_kani=true&JigyosyoCd=2470400991-00&ServiceCd=210&Type=search", "url2": "https://www.anzenfukushikai.or.jp/" }, "geometry": { "type": "Point", "coordinates": [ 136.429919500000011, 34.8753086 ] } },
{ "type": "Feature", "properties": { "内容": "華旺寿　短期入所生活介護事業所【短期入所生活介護】三重県亀山市関町坂下252番地", "url": "https://www.kaigokensaku.mhlw.go.jp/24/index.php?action_kouhyou_detail_004_kani=true&JigyosyoCd=2472300033-00&ServiceCd=210&Type=search", "url2": "https://www.hiragikaikaosu.com/" }, "geometry": { "type": "Point", "coordinates": [ 136.355877408598303, 34.890992901949353 ] } },
{ "type": "Feature", "properties": { "内容": "特別養護老人ホーム　亀寿苑【短期入所生活介護】三重県亀山市阿野田町2443-1", "url": "https://www.kaigokensaku.mhlw.go.jp/24/index.php?action_kouhyou_detail_004_kani=true&JigyosyoCd=2470400199-00&ServiceCd=210&Type=search", "url2": "https://www.kijuen.jp/" }, "geometry": { "type": "Point", "coordinates": [ 136.464527099999941, 34.8380106 ] } },
{ "type": "Feature", "properties": { "内容": "特別養護老人ホーム　野村きぼう苑【短期入所生活介護】野村3丁目28番20号", "url": "https://www.kaigokensaku.mhlw.go.jp/24/index.php?action_kouhyou_detail_004_kani=true&JigyosyoCd=2470400538-00&ServiceCd=210&Type=search", "url2": "http://nomura-kibouen.or.jp" }, "geometry": { "type": "Point", "coordinates": [ 135.47253520000001, 34.7303435 ] } },
{ "type": "Feature", "properties": { "内容": "さわやかシーサイド鳥羽【短期入所生活介護】鳥羽市小浜町字浜辺300-73", "url": "https://www.kaigokensaku.mhlw.go.jp/24/index.php?action_kouhyou_detail_004_kani=true&JigyosyoCd=2470900354-00&ServiceCd=210&Type=search", "url2": "http://www.sawayakaclub.jp" }, "geometry": { "type": "Point", "coordinates": [ 136.835596, 34.49068 ] } },
{ "type": "Feature", "properties": { "内容": "特別養護老人ホーム鳥羽陽光苑　短期入所生活介護【短期入所生活介護】三重県鳥羽市岩倉町６０９番地", "url": "https://www.kaigokensaku.mhlw.go.jp/24/index.php?action_kouhyou_detail_004_kani=true&JigyosyoCd=2470900040-00&ServiceCd=210&Type=search", "url2": "http://www.miefukushikai.jp/" }, "geometry": { "type": "Point", "coordinates": [ 136.848354, 34.4428947 ] } },
{ "type": "Feature", "properties": { "内容": "特別養護老人ホーム　鳥羽陽光苑ユニット【短期入所生活介護】岩倉町609", "url": "https://www.kaigokensaku.mhlw.go.jp/24/index.php?action_kouhyou_detail_004_kani=true&JigyosyoCd=2470900321-00&ServiceCd=210&Type=search", "url2": "ｈｔｔｐ//www.ｍｉｅｆｕｋｕｓｉｋａｉ．ｊｐ/" }, "geometry": { "type": "Point", "coordinates": [ 136.848354, 34.4428947 ] } },
{ "type": "Feature", "properties": { "内容": "特別養護老人ホームあらしま苑【短期入所生活介護】三重県鳥羽市安楽島町字高山1075番地58", "url": "https://www.kaigokensaku.mhlw.go.jp/24/index.php?action_kouhyou_detail_004_kani=true&JigyosyoCd=2470900339-00&ServiceCd=210&Type=search", "url2": "http://www.koushin.or.jp/" }, "geometry": { "type": "Point", "coordinates": [ 140.891878600000013, 36.941766800000011 ] } },
{ "type": "Feature", "properties": { "内容": "短期入所生活介護　虹の夢とば【短期入所生活介護】三重県鳥羽市鳥羽1丁目20番1号", "url": "https://www.kaigokensaku.mhlw.go.jp/24/index.php?action_kouhyou_detail_004_kani=true&JigyosyoCd=2470900388-00&ServiceCd=210&Type=search", "url2": "https://nijino-yume.com/" }, "geometry": { "type": "Point", "coordinates": [ 136.835445199999981, 34.487198 ] } },
{ "type": "Feature", "properties": { "内容": "特別養護老人ホームたちばな園【短期入所生活介護】三重県熊野市有馬町字中曽3466-1", "url": "https://www.kaigokensaku.mhlw.go.jp/24/index.php?action_kouhyou_detail_004_kani=true&JigyosyoCd=2471100012-00&ServiceCd=210&Type=search", "url2": "http://www.za.ztv.ne.jp/tachibanaen/" }, "geometry": { "type": "Point", "coordinates": [ 136.063616211070212, 33.873179263676029 ] } },
{ "type": "Feature", "properties": { "内容": "ケアホーム　熊南【短期入所生活介護】三重県熊野市紀和町板屋１３２－２", "url": "https://www.kaigokensaku.mhlw.go.jp/24/index.php?action_kouhyou_detail_004_kani=true&JigyosyoCd=2473100085-00&ServiceCd=210&Type=search", "url2": "https://yuunan3.wixsite.com/kiwakai" }, "geometry": { "type": "Point", "coordinates": [ 135.913829599999985, 33.873145 ] } },
{ "type": "Feature", "properties": { "内容": "特別養護老人ホーム　たちばな園あすか【短期入所生活介護】三重県熊野市飛鳥町大又250特別養護老人ホーム　たちばな園あすか", "url": "https://www.kaigokensaku.mhlw.go.jp/24/index.php?action_kouhyou_detail_004_kani=true&JigyosyoCd=2471100392-00&ServiceCd=210&Type=search", "url2": "http://www.za.ztv.ne.jp/tachibanaen/" }, "geometry": { "type": "Point", "coordinates": [ 136.105375900000013, 33.9628925 ] } },
{ "type": "Feature", "properties": { "内容": "六永会ホーム【短期入所生活介護】三重県いなべ市大安町南金井字南山請3710番", "url": "https://www.kaigokensaku.mhlw.go.jp/24/index.php?action_kouhyou_detail_004_kani=true&JigyosyoCd=2471400628-00&ServiceCd=210&Type=search", "url2": "rokuei666.com" }, "geometry": { "type": "Point", "coordinates": [ 136.563162653364543, 35.068508691200137 ] } },
{ "type": "Feature", "properties": { "内容": "特別養護老人ホーム翠明院【短期入所生活介護】三重県いなべ市藤原町上之山田1433番地3", "url": "https://www.kaigokensaku.mhlw.go.jp/24/index.php?action_kouhyou_detail_004_kani=true&JigyosyoCd=2472100136-00&ServiceCd=210&Type=search", "url2": "http://suimeiin.or.jp/" }, "geometry": { "type": "Point", "coordinates": [ 136.473469900000026, 35.2173818 ] } },
{ "type": "Feature", "properties": { "内容": "モモ大安ショートステイ【短期入所生活介護】三重県いなべ市大安町南金井705番地96", "url": "https://www.kaigokensaku.mhlw.go.jp/24/index.php?action_kouhyou_detail_004_kani=true&JigyosyoCd=2471400651-00&ServiceCd=210&Type=search", "url2": "https://www.momo-daian.or.jp/" }, "geometry": { "type": "Point", "coordinates": [ 136.557217492868091, 35.083662082820759 ] } },
{ "type": "Feature", "properties": { "内容": "特別養護老人ホームアイリス【短期入所生活介護】三重県いなべ市阿下喜３７２８の２", "url": "https://www.kaigokensaku.mhlw.go.jp/24/index.php?action_kouhyou_detail_004_kani=true&JigyosyoCd=2472100193-00&ServiceCd=210&Type=search", "url2": "http://hokusei-you.net/iris/index.php" }, "geometry": { "type": "Point", "coordinates": [ 136.516918600000054, 35.1451775 ] } },
{ "type": "Feature", "properties": { "内容": "ショートステイ　あおい【短期入所生活介護】三重県いなべ市大安町南金井2806-1", "url": "https://www.kaigokensaku.mhlw.go.jp/24/index.php?action_kouhyou_detail_004_kani=true&JigyosyoCd=2471400941-00&ServiceCd=210&Type=search", "url2": null }, "geometry": { "type": "Point", "coordinates": [ 136.540158741748115, 35.075386923176325 ] } },
{ "type": "Feature", "properties": { "内容": "志摩シルバーケア豊壽園【短期入所生活介護】三重県志摩市阿児町神明878-39", "url": "https://www.kaigokensaku.mhlw.go.jp/24/index.php?action_kouhyou_detail_004_kani=true&JigyosyoCd=2472900667-00&ServiceCd=210&Type=search", "url2": "http://www.sensin.or.jp" }, "geometry": { "type": "Point", "coordinates": [ 136.81711820000001, 34.3185035 ] } },
{ "type": "Feature", "properties": { "内容": "ショートステイ萌黄館【短期入所生活介護】三重県志摩市阿児町鵜方７６０番地", "url": "https://www.kaigokensaku.mhlw.go.jp/24/index.php?action_kouhyou_detail_004_kani=true&JigyosyoCd=2472900790-00&ServiceCd=210&Type=search", "url2": "marubun-k.co.jp" }, "geometry": { "type": "Point", "coordinates": [ 136.8160944, 34.3375552 ] } },
{ "type": "Feature", "properties": { "内容": "ショートステイ　飛鳥【短期入所生活介護】三重県志摩市志摩町布施田2290-1", "url": "https://www.kaigokensaku.mhlw.go.jp/24/index.php?action_kouhyou_detail_004_kani=true&JigyosyoCd=2472901467-00&ServiceCd=210&Type=search", "url2": "http://www.care-resort.co.jp/" }, "geometry": { "type": "Point", "coordinates": [ 136.823782700000038, 34.2639677 ] } },
{ "type": "Feature", "properties": { "内容": "志摩特別養護老人ホーム才庭寮【短期入所生活介護】志摩市阿児町神明1537番地１", "url": "https://www.kaigokensaku.mhlw.go.jp/24/index.php?action_kouhyou_detail_004_kani=true&JigyosyoCd=2472900097-00&ServiceCd=210&Type=search", "url2": "http://www.shima.mctv.ne.jp/~sikouiki/" }, "geometry": { "type": "Point", "coordinates": [ 136.85052769999993, 34.3215192 ] } },
{ "type": "Feature", "properties": { "内容": "志摩特別養護老人ホームともやま苑【短期入所生活介護】三重県志摩市大王町波切２２３３番地２", "url": "https://www.kaigokensaku.mhlw.go.jp/24/index.php?action_kouhyou_detail_004_kani=true&JigyosyoCd=2472900071-00&ServiceCd=210&Type=search", "url2": "http://www.shima.mctv.ne.jp/~sikouiki/" }, "geometry": { "type": "Point", "coordinates": [ 136.850120599999968, 34.2838159 ] } },
{ "type": "Feature", "properties": { "内容": "特別養護老人ホーム森の里木精館【短期入所生活介護】三重県伊賀市腰山1135", "url": "https://www.kaigokensaku.mhlw.go.jp/24/index.php?action_kouhyou_detail_004_kani=true&JigyosyoCd=2471201554-00&ServiceCd=210&Type=search", "url2": "https://aoyama-fukushikai.or.jp/" }, "geometry": { "type": "Point", "coordinates": [ 136.2094477, 34.6312421 ] } },
{ "type": "Feature", "properties": { "内容": "特別養護老人ホーム　おおやまだ鶴寿園　短期入所生活介護事業所【短期入所生活介護】三重県伊賀市真泥２０６６番地", "url": "https://www.kaigokensaku.mhlw.go.jp/24/index.php?action_kouhyou_detail_004_kani=true&JigyosyoCd=2473200083-00&ServiceCd=210&Type=search", "url2": "http://www.green-center.or.jp" }, "geometry": { "type": "Point", "coordinates": [ 136.196911, 34.760523 ] } },
{ "type": "Feature", "properties": { "内容": "特別養護老人ホームゆめが丘鶴寿園　短期入所生活介護【短期入所生活介護】三重県伊賀市ゆめが丘2-1-3", "url": "https://www.kaigokensaku.mhlw.go.jp/24/index.php?action_kouhyou_detail_004_kani=true&JigyosyoCd=2471201083-00&ServiceCd=210&Type=search", "url2": "http://www.green~center" }, "geometry": { "type": "Point", "coordinates": [ 136.164053500000023, 34.7343938 ] } },
{ "type": "Feature", "properties": { "内容": "ふくじゅえん短期入所施設【短期入所生活介護】三重県伊賀市西山宇治田東1650番地", "url": "https://www.kaigokensaku.mhlw.go.jp/24/index.php?action_kouhyou_detail_004_kani=true&JigyosyoCd=2471200093-00&ServiceCd=210&Type=search", "url2": "http://www.fukujyukai.or.jp/" }, "geometry": { "type": "Point", "coordinates": [ 136.081695, 34.7922059 ] } },
{ "type": "Feature", "properties": { "内容": "こうふう苑短期入所施設【短期入所生活介護】三重県伊賀市四十九町１８７０番地の８", "url": "https://www.kaigokensaku.mhlw.go.jp/24/index.php?action_kouhyou_detail_004_kani=true&JigyosyoCd=2471201315-00&ServiceCd=210&Type=search", "url2": "http://www.fukujyukai.or.jp/" }, "geometry": { "type": "Point", "coordinates": [ 136.135905, 34.7487837 ] } },
{ "type": "Feature", "properties": { "内容": "特別養護老人ホーム第二梨ノ木園【短期入所生活介護】三重県伊賀市朝屋７３１番地", "url": "https://www.kaigokensaku.mhlw.go.jp/24/index.php?action_kouhyou_detail_004_kani=true&JigyosyoCd=2471200101-00&ServiceCd=210&Type=search", "url2": "http://www.iga-sjk.or.jp/" }, "geometry": { "type": "Point", "coordinates": [ 136.10717939999995, 34.7556547 ] } },
{ "type": "Feature", "properties": { "内容": "短期入所生活介護センター伊賀シルバーケア豊壽園【短期入所生活介護】伊賀市久米町字大木872-1番地", "url": "https://www.kaigokensaku.mhlw.go.jp/24/index.php?action_kouhyou_detail_004_kani=true&JigyosyoCd=2471200986-00&ServiceCd=210&Type=search", "url2": "http：//www．sensin．or．jp/" }, "geometry": { "type": "Point", "coordinates": [ 136.128455199999962, 34.7566188 ] } },
{ "type": "Feature", "properties": { "内容": "いがの里【短期入所生活介護】三重県伊賀市愛田550番地", "url": "https://www.kaigokensaku.mhlw.go.jp/24/index.php?action_kouhyou_detail_004_kani=true&JigyosyoCd=2471200465-00&ServiceCd=210&Type=search", "url2": "https://aoyama-fukushikai.or.jp" }, "geometry": { "type": "Point", "coordinates": [ 136.223060900000064, 34.8071001 ] } },
{ "type": "Feature", "properties": { "内容": "なごみの家ショートステイ【短期入所生活介護】三重県伊賀市四十九町1721番地", "url": "https://www.kaigokensaku.mhlw.go.jp/24/index.php?action_kouhyou_detail_004_kani=true&JigyosyoCd=2471201489-00&ServiceCd=210&Type=search", "url2": "https://www.37-ie.com/" }, "geometry": { "type": "Point", "coordinates": [ 136.138840499999986, 34.7464184 ] } },
{ "type": "Feature", "properties": { "内容": "ショートステイセンターおおぞら【短期入所生活介護】三重県伊賀市高畑字深田780番地", "url": "https://www.kaigokensaku.mhlw.go.jp/24/index.php?action_kouhyou_detail_004_kani=true&JigyosyoCd=2471200713-00&ServiceCd=210&Type=search", "url2": "https://www.k-oozora.or.jp/" }, "geometry": { "type": "Point", "coordinates": [ 136.153435132788076, 34.784071510843937 ] } },
{ "type": "Feature", "properties": { "内容": "特別養護老人ホーム　彩四季【短期入所生活介護】三重県伊賀市市部奥山2611番5", "url": "https://www.kaigokensaku.mhlw.go.jp/24/index.php?action_kouhyou_detail_004_kani=true&JigyosyoCd=2471200044-00&ServiceCd=210&Type=search", "url2": null }, "geometry": { "type": "Point", "coordinates": [ 136.178785540658509, 34.739014752298097 ] } },
{ "type": "Feature", "properties": { "内容": "指定短期入所生活介護施設　いがのしろ【短期入所生活介護】三重県伊賀市山出字金坪２２２０番地の１０", "url": "https://www.kaigokensaku.mhlw.go.jp/24/index.php?action_kouhyou_detail_004_kani=true&JigyosyoCd=2471200176-00&ServiceCd=210&Type=search", "url2": "https://www.sawayakaen.or.jp/" }, "geometry": { "type": "Point", "coordinates": [ 136.120396091262819, 34.714015433265544 ] } },
{ "type": "Feature", "properties": { "内容": "特別養護老人ホーム　ぬくもり園【短期入所生活介護】三重県伊賀市馬場600番地", "url": "https://www.kaigokensaku.mhlw.go.jp/24/index.php?action_kouhyou_detail_004_kani=true&JigyosyoCd=2473200109-00&ServiceCd=210&Type=search", "url2": "https://nukumorien.com/" }, "geometry": { "type": "Point", "coordinates": [ 136.168707, 34.8264579 ] } },
{ "type": "Feature", "properties": { "内容": "特別養護老人ホーム森の里【短期入所生活介護】三重県伊賀市腰山1135番地", "url": "https://www.kaigokensaku.mhlw.go.jp/24/index.php?action_kouhyou_detail_004_kani=true&JigyosyoCd=2473300024-00&ServiceCd=210&Type=search", "url2": "https://aoyama-fukushikai.or.jp/" }, "geometry": { "type": "Point", "coordinates": [ 136.20888130000003, 34.6319609 ] } },
{ "type": "Feature", "properties": { "内容": "特別養護老人ホームすいせんの里【短期入所生活介護】桑名郡木曽岬町和富10-8番地", "url": "https://www.kaigokensaku.mhlw.go.jp/24/index.php?action_kouhyou_detail_004_kani=true&JigyosyoCd=2472000203-00&ServiceCd=210&Type=search", "url2": "http://suisen-no-sato.com/" }, "geometry": { "type": "Point", "coordinates": [ 136.751126262565549, 35.066178999382451 ] } },
{ "type": "Feature", "properties": { "内容": "北部陽光苑【短期入所生活介護】三重県員弁郡東員町山田３６００番１", "url": "https://www.kaigokensaku.mhlw.go.jp/24/index.php?action_kouhyou_detail_004_kani=true&JigyosyoCd=2472100847-00&ServiceCd=210&Type=search", "url2": "https://miefukushikai.jp/?page_id=277" }, "geometry": { "type": "Point", "coordinates": [ 136.59861317308139, 35.090823623696139 ] } },
{ "type": "Feature", "properties": { "内容": "老人短期入所施設　パークレジデンス【短期入所生活介護】三重県員弁郡東員町長深３１４０番２", "url": "https://www.kaigokensaku.mhlw.go.jp/24/index.php?action_kouhyou_detail_004_kani=true&JigyosyoCd=2472100276-00&ServiceCd=210&Type=search", "url2": "http://www.kenwakai.com/" }, "geometry": { "type": "Point", "coordinates": [ 136.5702073, 35.0552615 ] } },
{ "type": "Feature", "properties": { "内容": "ショートステイとういん【短期入所生活介護】三重県員弁郡東員町鳥取１３０８－１", "url": "https://www.kaigokensaku.mhlw.go.jp/24/index.php?action_kouhyou_detail_004_kani=true&JigyosyoCd=2472100599-00&ServiceCd=210&Type=search", "url2": null }, "geometry": { "type": "Point", "coordinates": [ 136.590053, 35.0948694 ] } },
{ "type": "Feature", "properties": { "内容": "ショートステイ　真菰の郷【短期入所生活介護】三重県菰野町永井456-1", "url": "https://www.kaigokensaku.mhlw.go.jp/24/index.php?action_kouhyou_detail_004_kani=true&JigyosyoCd=2472200852-00&ServiceCd=210&Type=search", "url2": "https://hukushi.jp/" }, "geometry": { "type": "Point", "coordinates": [ 136.525773676135231, 35.054897173205966 ] } },
{ "type": "Feature", "properties": { "内容": "特別養護老人ホーム　菰野聖十字の家　（ユニット）【短期入所生活介護】三重県三重郡菰野町宿野1433-69菰野聖十字の家", "url": "https://www.kaigokensaku.mhlw.go.jp/24/index.php?action_kouhyou_detail_004_kani=true&JigyosyoCd=2472200761-00&ServiceCd=210&Type=search", "url2": "https://www.suzukaseijujikai.jp/" }, "geometry": { "type": "Point", "coordinates": [ 136.5189368, 35.0031422 ] } },
{ "type": "Feature", "properties": { "内容": "特別養護老人ホーム菰野聖十字の家【短期入所生活介護】三重県三重郡菰野町宿野1433-69", "url": "https://www.kaigokensaku.mhlw.go.jp/24/index.php?action_kouhyou_detail_004_kani=true&JigyosyoCd=2472200076-00&ServiceCd=210&Type=search", "url2": "http://www.suzukaseijujikai.jp" }, "geometry": { "type": "Point", "coordinates": [ 136.519401099999982, 35.003151 ] } },
{ "type": "Feature", "properties": { "内容": "三重県三重郡老人福祉施設組合　特別養護老人ホームみずほ寮【短期入所生活介護】三重県三重郡菰野町菰野5833-1", "url": "https://www.kaigokensaku.mhlw.go.jp/24/index.php?action_kouhyou_detail_004_kani=true&JigyosyoCd=2472200027-00&ServiceCd=210&Type=search", "url2": "http://www.mizuho-ryo.net" }, "geometry": { "type": "Point", "coordinates": [ 136.475844300000063, 35.0101433 ] } },
{ "type": "Feature", "properties": { "内容": "特別養護老人ホーム往還【短期入所生活介護】三重県三重郡朝日町大字柿字熊之田564", "url": "https://www.kaigokensaku.mhlw.go.jp/24/index.php?action_kouhyou_detail_004_kani=true&JigyosyoCd=2472200373-00&ServiceCd=210&Type=search", "url2": "https://miekenjukai.com" }, "geometry": { "type": "Point", "coordinates": [ 136.666542, 35.031797 ] } },
{ "type": "Feature", "properties": { "内容": "ショートステイほほえみ【短期入所生活介護】三重県三重郡川越町大字亀崎新田字里中１５番地２", "url": "https://www.kaigokensaku.mhlw.go.jp/24/index.php?action_kouhyou_detail_004_kani=true&JigyosyoCd=2472200639-00&ServiceCd=210&Type=search", "url2": "https://www.hohoemi-g.com" }, "geometry": { "type": "Point", "coordinates": [ 136.688813900000014, 35.0256588 ] } },
{ "type": "Feature", "properties": { "内容": "老人短期入所事業所多気天啓苑【短期入所生活介護】三重県多気郡多気町四疋田字コウボシ５８０番", "url": "https://www.kaigokensaku.mhlw.go.jp/24/index.php?action_kouhyou_detail_004_kani=true&JigyosyoCd=2472700265-00&ServiceCd=210&Type=search", "url2": "http//ikushinkai‐tm.jp" }, "geometry": { "type": "Point", "coordinates": [ 136.533865696570473, 34.495245423841602 ] } },
{ "type": "Feature", "properties": { "内容": "特別養護老人ホーム　多気彩幸【短期入所生活介護】三重県多気郡多気町五佐奈字八重谷４３２－４８", "url": "https://www.kaigokensaku.mhlw.go.jp/24/index.php?action_kouhyou_detail_004_kani=true&JigyosyoCd=2472700521-00&ServiceCd=210&Type=search", "url2": "https://www.taki-saiko.jp/" }, "geometry": { "type": "Point", "coordinates": [ 136.561169699999937, 34.4954981 ] } },
{ "type": "Feature", "properties": { "内容": "特別養護老人ホーム　ウェルハート明和【短期入所生活介護】三重県多気郡明和町大字志貴1334", "url": "https://www.kaigokensaku.mhlw.go.jp/24/index.php?action_kouhyou_detail_004_kani=true&JigyosyoCd=2472700752-00&ServiceCd=210&Type=search", "url2": "http://www.wellheart.jp" }, "geometry": { "type": "Point", "coordinates": [ 136.617322618129322, 34.57305053044341 ] } },
{ "type": "Feature", "properties": { "内容": "地域密着型特別養護老人ホームウェルハート明和（ユニット型）【短期入所生活介護】三重県多気郡明和町志貴1335番地１", "url": "https://www.kaigokensaku.mhlw.go.jp/24/index.php?action_kouhyou_detail_004_kani=true&JigyosyoCd=2472701180-00&ServiceCd=210&Type=search", "url2": "http://www.wellheart.jp" }, "geometry": { "type": "Point", "coordinates": [ 136.617051430849216, 34.57326163208652 ] } },
{ "type": "Feature", "properties": { "内容": "三重県済生会介護老人福祉施設明和苑【短期入所生活介護】三重県多気郡明和町大字上野４３５", "url": "https://www.kaigokensaku.mhlw.go.jp/24/index.php?action_kouhyou_detail_004_kani=true&JigyosyoCd=2472700281-00&ServiceCd=210&Type=search", "url2": "http://www.meiwa-saiseikai.jp/meiwaen/" }, "geometry": { "type": "Point", "coordinates": [ 136.631467899999961, 34.5315811 ] } },
{ "type": "Feature", "properties": { "内容": "特別養護老人ホームやまびこ荘【短期入所生活介護】三重県多気郡大台町江馬260", "url": "https://www.kaigokensaku.mhlw.go.jp/24/index.php?action_kouhyou_detail_004_kani=true&JigyosyoCd=2472701396-00&ServiceCd=210&Type=search", "url2": null }, "geometry": { "type": "Point", "coordinates": [ 136.3364583, 34.3649744 ] } },
{ "type": "Feature", "properties": { "内容": "大台共生園短期入所生活介護事業所【短期入所生活介護】三重県多気郡大台町千代９９７", "url": "https://www.kaigokensaku.mhlw.go.jp/24/index.php?action_kouhyou_detail_004_kani=true&JigyosyoCd=2472700190-00&ServiceCd=210&Type=search", "url2": "https://www.kg-m.com" }, "geometry": { "type": "Point", "coordinates": [ 136.54858913410078, 34.445123484140403 ] } },
{ "type": "Feature", "properties": { "内容": "特別養護老人ホーム　大台共生園【短期入所生活介護】三重県多気郡大台町千代997番地", "url": "https://www.kaigokensaku.mhlw.go.jp/24/index.php?action_kouhyou_detail_004_kani=true&JigyosyoCd=2472700372-00&ServiceCd=210&Type=search", "url2": "https://kg-m.com/" }, "geometry": { "type": "Point", "coordinates": [ 136.548598998147583, 34.44518258423431 ] } },
{ "type": "Feature", "properties": { "内容": "社会福祉法人　ゆり【短期入所生活介護】三重県度会郡玉城町勝田字濱塚3086番地42", "url": "https://www.kaigokensaku.mhlw.go.jp/24/index.php?action_kouhyou_detail_004_kani=true&JigyosyoCd=2472801501-00&ServiceCd=210&Type=search", "url2": "https://yurihananosono.jp/" }, "geometry": { "type": "Point", "coordinates": [ 136.631519190907284, 34.476325996546635 ] } },
{ "type": "Feature", "properties": { "内容": "ショートステイ「柿の葉」【短期入所生活介護】三重県度会郡玉城町宮古字細谷2331番地１", "url": "https://www.kaigokensaku.mhlw.go.jp/24/index.php?action_kouhyou_detail_004_kani=true&JigyosyoCd=2472801683-00&ServiceCd=210&Type=search", "url2": null }, "geometry": { "type": "Point", "coordinates": [ 136.632816899999966, 34.4723419 ] } },
{ "type": "Feature", "properties": { "内容": "指定短期入所生活介護事業所わたらい緑清苑　（併設・空床型）【短期入所生活介護】三重県度会郡度会町棚橋1202番地", "url": "https://www.kaigokensaku.mhlw.go.jp/24/index.php?action_kouhyou_detail_004_kani=true&JigyosyoCd=2472800271-00&ServiceCd=210&Type=search", "url2": null }, "geometry": { "type": "Point", "coordinates": [ 136.6216882, 34.438428 ] } },
{ "type": "Feature", "properties": { "内容": "大宮園指定短期入所生活介護事業所【短期入所生活介護】三重県度会郡大紀町野原５１９番地１", "url": "https://www.kaigokensaku.mhlw.go.jp/24/index.php?action_kouhyou_detail_004_kani=true&JigyosyoCd=2472800438-00&ServiceCd=210&Type=search", "url2": "http://www.ma.mctv.ne.jp/~oomiyaen/" }, "geometry": { "type": "Point", "coordinates": [ 136.50858889999995, 34.4320597 ] } },
{ "type": "Feature", "properties": { "内容": "共生園指定短期入所生活介護事業所【短期入所生活介護】三重県度会郡大紀町崎1785", "url": "https://www.kaigokensaku.mhlw.go.jp/24/index.php?action_kouhyou_detail_004_kani=true&JigyosyoCd=2472800255-00&ServiceCd=210&Type=search", "url2": "http://www.kg-mie.com/" }, "geometry": { "type": "Point", "coordinates": [ 136.401060499999971, 34.2834694 ] } },
{ "type": "Feature", "properties": { "内容": "特別養護老人ホーム　特別養護老人ホームメディカルケア伊勢志摩【短期入所生活介護】三重県度会郡南伊勢町下津浦767番地8", "url": "https://www.kaigokensaku.mhlw.go.jp/24/index.php?action_kouhyou_detail_004_kani=true&JigyosyoCd=2472801659-00&ServiceCd=210&Type=search", "url2": "http://www.seichokai.org/" }, "geometry": { "type": "Point", "coordinates": [ 136.7318517, 34.3329322 ] } },
{ "type": "Feature", "properties": { "内容": "柑洋苑指定短期入所生活介護事業所【短期入所生活介護】三重県度会郡南伊勢町五ヶ所浦2870", "url": "https://www.kaigokensaku.mhlw.go.jp/24/index.php?action_kouhyou_detail_004_kani=true&JigyosyoCd=2472800081-00&ServiceCd=210&Type=search", "url2": null }, "geometry": { "type": "Point", "coordinates": [ 136.707452200000034, 34.3511567 ] } },
{ "type": "Feature", "properties": { "内容": "指定短期入所生活介護事業所真砂寮【短期入所生活介護】三重県度会郡南伊勢町小方竈17番地", "url": "https://www.kaigokensaku.mhlw.go.jp/24/index.php?action_kouhyou_detail_004_kani=true&JigyosyoCd=2472800297-00&ServiceCd=210&Type=search", "url2": null }, "geometry": { "type": "Point", "coordinates": [ 136.479930034900718, 34.262266340287887 ] } },
{ "type": "Feature", "properties": { "内容": "特別養護老人ホーム　メディカルケア伊勢志摩【短期入所生活介護】三重県度会郡南伊勢町下津浦７６７番地８", "url": "https://www.kaigokensaku.mhlw.go.jp/24/index.php?action_kouhyou_detail_004_kani=true&JigyosyoCd=2472801667-00&ServiceCd=210&Type=search", "url2": "http://www.seichokai.org/" }, "geometry": { "type": "Point", "coordinates": [ 136.723475900000039, 34.3346953 ] } },
{ "type": "Feature", "properties": { "内容": "みやま園短期入所生活介護事業所【短期入所生活介護】三重県北牟婁郡紀北町矢口浦842番地", "url": "https://www.kaigokensaku.mhlw.go.jp/24/index.php?action_kouhyou_detail_004_kani=true&JigyosyoCd=2473000087-00&ServiceCd=210&Type=search", "url2": "http://www.zd.ztv.ne.jp/miyamaen/" }, "geometry": { "type": "Point", "coordinates": [ 136.267201699999987, 34.1372244 ] } },
{ "type": "Feature", "properties": { "内容": "ショートステイ　ころころ【短期入所生活介護】北牟婁郡紀北町馬瀬字広田1635-2", "url": "https://www.kaigokensaku.mhlw.go.jp/24/index.php?action_kouhyou_detail_004_kani=true&JigyosyoCd=2473000368-00&ServiceCd=210&Type=search", "url2": "http:www.owasechojuen.or.jp" }, "geometry": { "type": "Point", "coordinates": [ 136.251126171908112, 34.151295712057511 ] } },
{ "type": "Feature", "properties": { "内容": "紀北町立老人ホーム赤羽寮【短期入所生活介護】三重県北牟婁郡紀北町島原1402番地1", "url": "https://www.kaigokensaku.mhlw.go.jp/24/index.php?action_kouhyou_detail_004_kani=true&JigyosyoCd=2473000095-00&ServiceCd=210&Type=search", "url2": null }, "geometry": { "type": "Point", "coordinates": [ 136.302526599999965, 34.2152007 ] } },
{ "type": "Feature", "properties": { "内容": "特別養護老人ホーム　エイジハウス【短期入所生活介護】三重県南牟婁郡御浜町神木23", "url": "https://www.kaigokensaku.mhlw.go.jp/24/index.php?action_kouhyou_detail_004_kani=true&JigyosyoCd=2473100077-00&ServiceCd=210&Type=search", "url2": null }, "geometry": { "type": "Point", "coordinates": [ 136.0286195, 33.8540339 ] } },
{ "type": "Feature", "properties": { "内容": "みはまショートステイセンター【短期入所生活介護】三重県南牟婁郡御浜町下市木3728番地3", "url": "https://www.kaigokensaku.mhlw.go.jp/24/index.php?action_kouhyou_detail_004_kani=true&JigyosyoCd=2473100432-00&ServiceCd=210&Type=search", "url2": null }, "geometry": { "type": "Point", "coordinates": [ 136.054906800000026, 33.8370117 ] } },
{ "type": "Feature", "properties": { "内容": "ショートステイセンターつどい【短期入所生活介護】三重県南牟婁郡紀宝町神内字長尾270-3", "url": "https://www.kaigokensaku.mhlw.go.jp/24/index.php?action_kouhyou_detail_004_kani=true&JigyosyoCd=2473100358-00&ServiceCd=210&Type=search", "url2": "http://npo-tsudoi.com]" }, "geometry": { "type": "Point", "coordinates": [ 136.0109476, 33.7467854 ] } },
{ "type": "Feature", "properties": { "内容": "亀楽苑【短期入所生活介護】三重県南牟婁郡紀宝町井田1609番地2", "url": "https://www.kaigokensaku.mhlw.go.jp/24/index.php?action_kouhyou_detail_004_kani=true&JigyosyoCd=2473100465-00&ServiceCd=210&Type=search", "url2": null }, "geometry": { "type": "Point", "coordinates": [ 136.023879399999942, 33.7588895 ] } },
{ "type": "Feature", "properties": { "内容": "宝寿園【短期入所生活介護】三重県南牟婁郡紀宝町北桧杖９０番地", "url": "https://www.kaigokensaku.mhlw.go.jp/24/index.php?action_kouhyou_detail_004_kani=true&JigyosyoCd=2473100028-00&ServiceCd=210&Type=search", "url2": null }, "geometry": { "type": "Point", "coordinates": [ 135.972192700000051, 33.7289154 ] } }
]
}
