{
"type": "FeatureCollection",
"name": "geo_24_小規模多機能型居宅介護",
"crs": { "type": "name", "properties": { "name": "urn:ogc:def:crs:OGC:1.3:CRS84" } },
"features": [
{ "type": "Feature", "properties": { "内容": "第二美杉小規模多機能型居宅介護施設シルバーケア豊壽園【小規模多機能型居宅介護】三重県津市美杉町下之川5299-1美杉ホットテラス", "url": "https://www.kaigokensaku.mhlw.go.jp/24/index.php?action_kouhyou_detail_004_kani=true&JigyosyoCd=2490500291-00&ServiceCd=730&Type=search", "url2": "http://www.sensin.or.jp" }, "geometry": { "type": "Point", "coordinates": [ 136.340840800000024, 34.5553095 ] } },
{ "type": "Feature", "properties": { "内容": "喜楽苑【小規模多機能型居宅介護】津市一志町其倉２８７", "url": "https://www.kaigokensaku.mhlw.go.jp/24/index.php?action_kouhyou_detail_004_kani=true&JigyosyoCd=2490500168-00&ServiceCd=730&Type=search", "url2": null }, "geometry": { "type": "Point", "coordinates": [ 136.417112399999951, 34.6680316 ] } },
{ "type": "Feature", "properties": { "内容": "和楽苑【小規模多機能型居宅介護】三重県津市一志町其倉２８７", "url": "https://www.kaigokensaku.mhlw.go.jp/24/index.php?action_kouhyou_detail_004_kani=true&JigyosyoCd=2490500218-00&ServiceCd=730&Type=search", "url2": null }, "geometry": { "type": "Point", "coordinates": [ 136.416736890737866, 34.667722757496939 ] } },
{ "type": "Feature", "properties": { "内容": "寿楽苑【小規模多機能型居宅介護】三重県津市芸濃町椋本２７８２－１", "url": "https://www.kaigokensaku.mhlw.go.jp/24/index.php?action_kouhyou_detail_004_kani=true&JigyosyoCd=2490500283-00&ServiceCd=730&Type=search", "url2": null }, "geometry": { "type": "Point", "coordinates": [ 136.439786209431418, 34.80760187845862 ] } },
{ "type": "Feature", "properties": { "内容": "小規模多機能ホーム　すずらんの家【小規模多機能型居宅介護】三重県津市安濃町戸島1704-1", "url": "https://www.kaigokensaku.mhlw.go.jp/24/index.php?action_kouhyou_detail_004_kani=true&JigyosyoCd=2490500358-00&ServiceCd=730&Type=search", "url2": "https://chidori-kai.jp/" }, "geometry": { "type": "Point", "coordinates": [ 136.421812, 34.7826323 ] } },
{ "type": "Feature", "properties": { "内容": "美杉小規模多機能型居宅介護施設　シルバーケア豊壽園【小規模多機能型居宅介護】三重県津市美杉町八知5540-6", "url": "https://www.kaigokensaku.mhlw.go.jp/24/index.php?action_kouhyou_detail_004_kani=true&JigyosyoCd=2490500101-00&ServiceCd=730&Type=search", "url2": "http://www.sensin.or.jp/" }, "geometry": { "type": "Point", "coordinates": [ 136.262574023942534, 34.554732179162166 ] } },
{ "type": "Feature", "properties": { "内容": "白山小規模多機能型居宅介護施設シルバーケア豊壽園【小規模多機能型居宅介護】津市白山町川口７７７８番地", "url": "https://www.kaigokensaku.mhlw.go.jp/24/index.php?action_kouhyou_detail_004_kani=true&JigyosyoCd=2490500127-00&ServiceCd=730&Type=search", "url2": "http://www.sensin.or.jp" }, "geometry": { "type": "Point", "coordinates": [ 136.350066199999986, 34.6439704 ] } },
{ "type": "Feature", "properties": { "内容": "小規模多機能ホームとのむら【小規模多機能型居宅介護】三重県津市殿村1553番地", "url": "https://www.kaigokensaku.mhlw.go.jp/24/index.php?action_kouhyou_detail_004_kani=true&JigyosyoCd=2490500234-00&ServiceCd=730&Type=search", "url2": "http://www.tonomura-web.com" }, "geometry": { "type": "Point", "coordinates": [ 136.462864200000013, 34.7234525 ] } },
{ "type": "Feature", "properties": { "内容": "クレヨン・四日市【小規模多機能型居宅介護】三重県四日市市赤堀1丁目６－５", "url": "https://www.kaigokensaku.mhlw.go.jp/24/index.php?action_kouhyou_detail_004_kani=true&JigyosyoCd=2490200249-00&ServiceCd=730&Type=search", "url2": null }, "geometry": { "type": "Point", "coordinates": [ 136.613108399999987, 34.9580877 ] } },
{ "type": "Feature", "properties": { "内容": "セントケア日永【小規模多機能型居宅介護】三重県四日市市大字日永5450-59", "url": "https://www.kaigokensaku.mhlw.go.jp/24/index.php?action_kouhyou_detail_004_kani=true&JigyosyoCd=2490200405-00&ServiceCd=730&Type=search", "url2": "https://saint-care-mie/" }, "geometry": { "type": "Point", "coordinates": [ 136.588597229425432, 34.943535329293766 ] } },
{ "type": "Feature", "properties": { "内容": "小規模多機能型居宅介護りょうわ【小規模多機能型居宅介護】三重県四日市市尾平町2643番地", "url": "https://www.kaigokensaku.mhlw.go.jp/24/index.php?action_kouhyou_detail_004_kani=true&JigyosyoCd=2490200561-00&ServiceCd=730&Type=search", "url2": null }, "geometry": { "type": "Point", "coordinates": [ 136.59043650000001, 34.9790484 ] } },
{ "type": "Feature", "properties": { "内容": "コミュニティケアホーム三重西【小規模多機能型居宅介護】三重7丁目109", "url": "https://www.kaigokensaku.mhlw.go.jp/24/index.php?action_kouhyou_detail_004_kani=true&JigyosyoCd=2490200298-00&ServiceCd=730&Type=search", "url2": "https://seizanrikai.jp" }, "geometry": { "type": "Point", "coordinates": [ 136.584368899999959, 34.9860037 ] } },
{ "type": "Feature", "properties": { "内容": "伊勢太陽の家【小規模多機能型居宅介護】中須町字坂東辻1258番地", "url": "https://www.kaigokensaku.mhlw.go.jp/24/index.php?action_kouhyou_detail_004_kani=true&JigyosyoCd=2490800055-00&ServiceCd=730&Type=search", "url2": null }, "geometry": { "type": "Point", "coordinates": [ 136.6756, 34.48774 ] } },
{ "type": "Feature", "properties": { "内容": "小規模多機能ホーム　つながりの家【小規模多機能型居宅介護】三重県伊勢市一之木４丁目5番23号", "url": "https://www.kaigokensaku.mhlw.go.jp/24/index.php?action_kouhyou_detail_004_kani=true&JigyosyoCd=2490800170-00&ServiceCd=730&Type=search", "url2": null }, "geometry": { "type": "Point", "coordinates": [ 136.704583599999978, 34.4998792 ] } },
{ "type": "Feature", "properties": { "内容": "小規模多機能ホーム森伸伊勢中央【小規模多機能型居宅介護】三重県伊勢市一之木5丁目3番50", "url": "https://www.kaigokensaku.mhlw.go.jp/24/index.php?action_kouhyou_detail_004_kani=true&JigyosyoCd=2490800188-00&ServiceCd=730&Type=search", "url2": "http://www.morisin.co.jp" }, "geometry": { "type": "Point", "coordinates": [ 136.709172303704804, 34.4996017 ] } },
{ "type": "Feature", "properties": { "内容": "小規模多機能ホームふたみ【小規模多機能型居宅介護】三重県伊勢市二見町松下1349-64", "url": "https://www.kaigokensaku.mhlw.go.jp/24/index.php?action_kouhyou_detail_004_kani=true&JigyosyoCd=2490800485-00&ServiceCd=730&Type=search", "url2": "https://welfare-mie.jp/" }, "geometry": { "type": "Point", "coordinates": [ 136.795580932540872, 34.502752367730778 ] } },
{ "type": "Feature", "properties": { "内容": "小規模多機能ホーム　森伸伊勢西【小規模多機能型居宅介護】三重県伊勢市磯町1835-4", "url": "https://www.kaigokensaku.mhlw.go.jp/24/index.php?action_kouhyou_detail_004_kani=true&JigyosyoCd=2490800063-00&ServiceCd=730&Type=search", "url2": "http://www.morisin.co.jp" }, "geometry": { "type": "Point", "coordinates": [ 136.685763389018035, 34.512598102522368 ] } },
{ "type": "Feature", "properties": { "内容": "小規模多機能センター　みその【小規模多機能型居宅介護】伊勢市御薗町長屋３０６７－１", "url": "https://www.kaigokensaku.mhlw.go.jp/24/index.php?action_kouhyou_detail_004_kani=true&JigyosyoCd=2490800089-00&ServiceCd=730&Type=search", "url2": "http://www.welfare-mie.jp" }, "geometry": { "type": "Point", "coordinates": [ 136.706205599999947, 34.5052924 ] } },
{ "type": "Feature", "properties": { "内容": "小規模多機能ふるさと楓の家【小規模多機能型居宅介護】三重県伊勢市楠部町510－93", "url": "https://www.kaigokensaku.mhlw.go.jp/24/index.php?action_kouhyou_detail_004_kani=true&JigyosyoCd=2490800139-00&ServiceCd=730&Type=search", "url2": "http://care-net.biz/24/mamiihand/" }, "geometry": { "type": "Point", "coordinates": [ 136.728345499999932, 34.4749222 ] } },
{ "type": "Feature", "properties": { "内容": "小規模多機能ホーム　みそのむら【小規模多機能型居宅介護】三重県伊勢市御薗町高向481番地", "url": "https://www.kaigokensaku.mhlw.go.jp/24/index.php?action_kouhyou_detail_004_kani=true&JigyosyoCd=2490800022-00&ServiceCd=730&Type=search", "url2": "http://www.misonomura.jp" }, "geometry": { "type": "Point", "coordinates": [ 136.702417100000048, 34.5026953 ] } },
{ "type": "Feature", "properties": { "内容": "いこいの家小規模多機能型居宅介護事業所【小規模多機能型居宅介護】松阪市岡本町上川原４４４－１", "url": "https://www.kaigokensaku.mhlw.go.jp/24/index.php?action_kouhyou_detail_004_kani=true&JigyosyoCd=2490700032-00&ServiceCd=730&Type=search", "url2": "http://betaniya.jp/" }, "geometry": { "type": "Point", "coordinates": [ 136.496243830380337, 34.551800000883993 ] } },
{ "type": "Feature", "properties": { "内容": "小規模多機能型居宅介護事業所　夢の元気村【小規模多機能型居宅介護】飯南町向粥見249番地", "url": "https://www.kaigokensaku.mhlw.go.jp/24/index.php?action_kouhyou_detail_004_kani=true&JigyosyoCd=2490700164-00&ServiceCd=730&Type=search", "url2": "https://genkimura.org" }, "geometry": { "type": "Point", "coordinates": [ 136.373941236926271, 34.439533286919598 ] } },
{ "type": "Feature", "properties": { "内容": "小規模多機能型居宅介護　ふるさと　いまきた【小規模多機能型居宅介護】今北町15番地ふるさと　いまきた　（　第3ふるさと　）", "url": "https://www.kaigokensaku.mhlw.go.jp/24/index.php?action_kouhyou_detail_004_kani=true&JigyosyoCd=2490100118-00&ServiceCd=730&Type=search", "url2": "http://takurousho-furusato.com" }, "geometry": { "type": "Point", "coordinates": [ 136.691455499999961, 35.0687821 ] } },
{ "type": "Feature", "properties": { "内容": "愛の家小規模多機能型居宅介護多度柚井【小規模多機能型居宅介護】三重県桑名市多度柚井1165", "url": "https://www.kaigokensaku.mhlw.go.jp/24/index.php?action_kouhyou_detail_004_kani=true&JigyosyoCd=2490100431-00&ServiceCd=730&Type=search", "url2": null }, "geometry": { "type": "Point", "coordinates": [ 136.639017599999988, 35.1439885 ] } },
{ "type": "Feature", "properties": { "内容": "ケアパーク和月小規模多機能ホーム【小規模多機能型居宅介護】三重県桑名市大字太夫123番地2", "url": "https://www.kaigokensaku.mhlw.go.jp/24/index.php?action_kouhyou_detail_004_kani=true&JigyosyoCd=2490100175-00&ServiceCd=730&Type=search", "url2": "http://care-sweet.com" }, "geometry": { "type": "Point", "coordinates": [ 136.66738220000002, 35.0645543 ] } },
{ "type": "Feature", "properties": { "内容": "皆月　小規模多機能【小規模多機能型居宅介護】桑名市西別所上野前30番地１スィートリビング皆月内併設", "url": "https://www.kaigokensaku.mhlw.go.jp/24/index.php?action_kouhyou_detail_004_kani=true&JigyosyoCd=2490100357-00&ServiceCd=730&Type=search", "url2": "http//care-sweet.com" }, "geometry": { "type": "Point", "coordinates": [ 136.667682208598308, 35.058840127092566 ] } },
{ "type": "Feature", "properties": { "内容": "小規模多機能型居宅介護みらい【小規模多機能型居宅介護】桑名市長島町福吉268－1シニアプラザながしま", "url": "https://www.kaigokensaku.mhlw.go.jp/24/index.php?action_kouhyou_detail_004_kani=true&JigyosyoCd=2490100332-00&ServiceCd=730&Type=search", "url2": "https://www.sato-group.jp" }, "geometry": { "type": "Point", "coordinates": [ 136.716936713491776, 35.05763590055507 ] } },
{ "type": "Feature", "properties": { "内容": "ふるさとの里【小規模多機能型居宅介護】桑名市大字北別所字蔵金坊１６０７", "url": "https://www.kaigokensaku.mhlw.go.jp/24/index.php?action_kouhyou_detail_004_kani=true&JigyosyoCd=2490100191-00&ServiceCd=730&Type=search", "url2": "http://www.takurousho-furusato.com/news/html/" }, "geometry": { "type": "Point", "coordinates": [ 136.673487099999988, 35.0741591 ] } },
{ "type": "Feature", "properties": { "内容": "だんらん【小規模多機能型居宅介護】三重県桑名市今北町15れんげの里　きらく苑", "url": "https://www.kaigokensaku.mhlw.go.jp/24/index.php?action_kouhyou_detail_004_kani=true&JigyosyoCd=2490100209-00&ServiceCd=730&Type=search", "url2": "https://renge-sato.com" }, "geometry": { "type": "Point", "coordinates": [ 136.659999563754241, 35.070449028569243 ] } },
{ "type": "Feature", "properties": { "内容": "パシフィック株式会社　悠久の里【小規模多機能型居宅介護】安塚町１３５０－６５", "url": "https://www.kaigokensaku.mhlw.go.jp/24/index.php?action_kouhyou_detail_004_kani=true&JigyosyoCd=2490300031-00&ServiceCd=730&Type=search", "url2": null }, "geometry": { "type": "Point", "coordinates": [ 136.573896099999956, 34.8639949 ] } },
{ "type": "Feature", "properties": { "内容": "小規模多機能センター鈴鹿けやき苑【小規模多機能型居宅介護】三重県鈴鹿市石薬師町字寺東４５２番地６９小規模多機能センター鈴鹿けやき苑・宙（そら）", "url": "https://www.kaigokensaku.mhlw.go.jp/24/index.php?action_kouhyou_detail_004_kani=true&JigyosyoCd=2490300072-00&ServiceCd=730&Type=search", "url2": "http://www.keyakien.jp/" }, "geometry": { "type": "Point", "coordinates": [ 136.553239434840407, 34.90146540438721 ] } },
{ "type": "Feature", "properties": { "内容": "セントケア豊後町【小規模多機能型居宅介護】名張市豊後町262番地1", "url": "https://www.kaigokensaku.mhlw.go.jp/24/index.php?action_kouhyou_detail_004_kani=true&JigyosyoCd=2491300162-00&ServiceCd=730&Type=search", "url2": "https://saint-care-mie.com" }, "geometry": { "type": "Point", "coordinates": [ 136.085690399999976, 34.6204815 ] } },
{ "type": "Feature", "properties": { "内容": "名張やわらぎの郷【小規模多機能型居宅介護】三重県名張市赤目町丈六414番地1", "url": "https://www.kaigokensaku.mhlw.go.jp/24/index.php?action_kouhyou_detail_004_kani=true&JigyosyoCd=2491300246-00&ServiceCd=730&Type=search", "url2": "https://www3.hp-ez.com/hp/nabari-yawaragi/" }, "geometry": { "type": "Point", "coordinates": [ 136.07429778493352, 34.602505176936944 ] } },
{ "type": "Feature", "properties": { "内容": "多機能ホーム　ゆり【小規模多機能型居宅介護】三重県名張市百合が丘西5番町2番地", "url": "https://www.kaigokensaku.mhlw.go.jp/24/index.php?action_kouhyou_detail_004_kani=true&JigyosyoCd=2491300428-00&ServiceCd=730&Type=search", "url2": "http://hananosato-nabari.com/" }, "geometry": { "type": "Point", "coordinates": [ 136.0953857, 34.6047374 ] } },
{ "type": "Feature", "properties": { "内容": "小規模多機能型居宅介護事業所「ひより」【小規模多機能型居宅介護】三重県名張市美旗中村字弓谷2327番地", "url": "https://www.kaigokensaku.mhlw.go.jp/24/index.php?action_kouhyou_detail_004_kani=true&JigyosyoCd=2491300105-00&ServiceCd=730&Type=search", "url2": "http://www.terada-hp.or.jp" }, "geometry": { "type": "Point", "coordinates": [ 136.128009199999951, 34.6554928 ] } },
{ "type": "Feature", "properties": { "内容": "憩いの家ファボール【小規模多機能型居宅介護】三重県名張市つつじが丘南6番町230番地", "url": "https://www.kaigokensaku.mhlw.go.jp/24/index.php?action_kouhyou_detail_004_kani=true&JigyosyoCd=2491300303-00&ServiceCd=730&Type=search", "url2": "https://www.keihoukai.net/favor-toki/" }, "geometry": { "type": "Point", "coordinates": [ 136.133441700000049, 34.5986041 ] } },
{ "type": "Feature", "properties": { "内容": "多機能ホーム　はなの里【小規模多機能型居宅介護】三重県名張市新田2940番地-6", "url": "https://www.kaigokensaku.mhlw.go.jp/24/index.php?action_kouhyou_detail_004_kani=true&JigyosyoCd=2491300212-00&ServiceCd=730&Type=search", "url2": "http://www.hananosato-nabari.com" }, "geometry": { "type": "Point", "coordinates": [ 136.108086500000013, 34.656323 ] } },
{ "type": "Feature", "properties": { "内容": "小規模多機能型居宅介護施設　うぐいす【小規模多機能型居宅介護】三重県名張市滝之原３３７番地の１", "url": "https://www.kaigokensaku.mhlw.go.jp/24/index.php?action_kouhyou_detail_004_kani=true&JigyosyoCd=2491300048-00&ServiceCd=730&Type=search", "url2": null }, "geometry": { "type": "Point", "coordinates": [ 136.152711100000033, 34.6374782 ] } },
{ "type": "Feature", "properties": { "内容": "小規模多機能型居宅介護事業所　とんぼ池【小規模多機能型居宅介護】三重県名張市箕曲中村720番地1", "url": "https://www.kaigokensaku.mhlw.go.jp/24/index.php?action_kouhyou_detail_004_kani=true&JigyosyoCd=2491300022-00&ServiceCd=730&Type=search", "url2": "http://www.tonboike.com" }, "geometry": { "type": "Point", "coordinates": [ 136.090592187545468, 34.608061009533678 ] } },
{ "type": "Feature", "properties": { "内容": "多機能介護施設　宴【小規模多機能型居宅介護】三重県名張市梅が丘南1番町211", "url": "https://www.kaigokensaku.mhlw.go.jp/24/index.php?action_kouhyou_detail_004_kani=true&JigyosyoCd=2491300147-00&ServiceCd=730&Type=search", "url2": null }, "geometry": { "type": "Point", "coordinates": [ 136.09038446812292, 34.636443671048248 ] } },
{ "type": "Feature", "properties": { "内容": "小規模多機能ホームスマイル【小規模多機能型居宅介護】三重県名張市蔵持町原出２４７－１", "url": "https://www.kaigokensaku.mhlw.go.jp/24/index.php?action_kouhyou_detail_004_kani=true&JigyosyoCd=2491300360-00&ServiceCd=730&Type=search", "url2": "http://www.mrsmile-sh.jp/" }, "geometry": { "type": "Point", "coordinates": [ 136.109805, 34.634155100000022 ] } },
{ "type": "Feature", "properties": { "内容": "サテライト型小規模多機能ホーム　宝寿の郷【小規模多機能型居宅介護】三重県亀山市和田町1534－1", "url": "https://www.kaigokensaku.mhlw.go.jp/24/index.php?action_kouhyou_detail_004_kani=true&JigyosyoCd=2490400039-00&ServiceCd=730&Type=search", "url2": "www.houjunosato.jp" }, "geometry": { "type": "Point", "coordinates": [ 136.477932900000042, 34.8575004 ] } },
{ "type": "Feature", "properties": { "内容": "小規模多機能ホーム　わだのさと【小規模多機能型居宅介護】三重県亀山市和田町１６番１", "url": "https://www.kaigokensaku.mhlw.go.jp/24/index.php?action_kouhyou_detail_004_kani=true&JigyosyoCd=2490400054-00&ServiceCd=730&Type=search", "url2": "www.wadanosato＠houjunosato.jp" }, "geometry": { "type": "Point", "coordinates": [ 136.479641, 34.8570783 ] } },
{ "type": "Feature", "properties": { "内容": "ラ・ケアくざき【小規模多機能型居宅介護】三重県鳥羽市国崎町140", "url": "https://www.kaigokensaku.mhlw.go.jp/24/index.php?action_kouhyou_detail_004_kani=true&JigyosyoCd=2490900046-00&ServiceCd=730&Type=search", "url2": null }, "geometry": { "type": "Point", "coordinates": [ 136.923795199999972, 34.4160048 ] } },
{ "type": "Feature", "properties": { "内容": "小規模多機能ホーム大正堂【小規模多機能型居宅介護】三重県いなべ市北勢町大辻新田２８８番地２", "url": "https://www.kaigokensaku.mhlw.go.jp/24/index.php?action_kouhyou_detail_004_kani=true&JigyosyoCd=2491400095-00&ServiceCd=730&Type=search", "url2": null }, "geometry": { "type": "Point", "coordinates": [ 136.542779900000028, 35.1499722 ] } },
{ "type": "Feature", "properties": { "内容": "阿児小規模多機能型居宅介護施設シルバーケア豊壽園【小規模多機能型居宅介護】三重県志摩市阿児町神明878-26", "url": "https://www.kaigokensaku.mhlw.go.jp/24/index.php?action_kouhyou_detail_004_kani=true&JigyosyoCd=2492900077-00&ServiceCd=730&Type=search", "url2": "http://www.sensin.or.jp/" }, "geometry": { "type": "Point", "coordinates": [ 136.817972899999972, 34.319555 ] } },
{ "type": "Feature", "properties": { "内容": "小規模多機能型居宅介護しらふじの里【小規模多機能型居宅介護】三重県伊賀市山畑1578番地", "url": "https://www.kaigokensaku.mhlw.go.jp/24/index.php?action_kouhyou_detail_004_kani=true&JigyosyoCd=2491200131-00&ServiceCd=730&Type=search", "url2": null }, "geometry": { "type": "Point", "coordinates": [ 136.23401309999997, 34.7930902 ] } },
{ "type": "Feature", "properties": { "内容": "ブーケ【小規模多機能型居宅介護】員弁郡東員町穴太２５７８－７", "url": "https://www.kaigokensaku.mhlw.go.jp/24/index.php?action_kouhyou_detail_004_kani=true&JigyosyoCd=2492100025-00&ServiceCd=730&Type=search", "url2": "rainin0723.wixsite.com/care-home/blank-c21jb" }, "geometry": { "type": "Point", "coordinates": [ 136.618660699999964, 35.0935642 ] } },
{ "type": "Feature", "properties": { "内容": "小規模多機能センター　八風の里【小規模多機能型居宅介護】三重郡菰野町永井3068-2八風の里", "url": "https://www.kaigokensaku.mhlw.go.jp/24/index.php?action_kouhyou_detail_004_kani=true&JigyosyoCd=2492200031-00&ServiceCd=730&Type=search", "url2": null }, "geometry": { "type": "Point", "coordinates": [ 136.523566399999936, 35.0616904 ] } },
{ "type": "Feature", "properties": { "内容": "小規模多機能型居宅介護施設　メジロ苑【小規模多機能型居宅介護】三重県多気郡多気町笠木1345番地", "url": "https://www.kaigokensaku.mhlw.go.jp/24/index.php?action_kouhyou_detail_004_kani=true&JigyosyoCd=2492700162-00&ServiceCd=730&Type=search", "url2": null }, "geometry": { "type": "Point", "coordinates": [ 136.577696, 34.4942126 ] } },
{ "type": "Feature", "properties": { "内容": "JA多気郡シルバーセンターすまいる【小規模多機能型居宅介護】三重県多気郡明和町1167番地1", "url": "https://www.kaigokensaku.mhlw.go.jp/24/index.php?action_kouhyou_detail_004_kani=true&JigyosyoCd=2492700121-00&ServiceCd=730&Type=search", "url2": "https://www.ja-takigun.or.jp/" }, "geometry": { "type": "Point", "coordinates": [ 136.618774562951671, 34.551151526384174 ] } },
{ "type": "Feature", "properties": { "内容": "小規模多機能型居宅介護　玉城【小規模多機能型居宅介護】度会郡玉城町宮古２３２９－４", "url": "https://www.kaigokensaku.mhlw.go.jp/24/index.php?action_kouhyou_detail_004_kani=true&JigyosyoCd=2492800020-00&ServiceCd=730&Type=search", "url2": null }, "geometry": { "type": "Point", "coordinates": [ 136.624814799999967, 34.4687865 ] } },
{ "type": "Feature", "properties": { "内容": "小規模多機能型居宅介護　わたらい【小規模多機能型居宅介護】麻加江516-1", "url": "https://www.kaigokensaku.mhlw.go.jp/24/index.php?action_kouhyou_detail_004_kani=true&JigyosyoCd=2492800046-00&ServiceCd=730&Type=search", "url2": null }, "geometry": { "type": "Point", "coordinates": [ 136.556581199999982, 34.437366 ] } },
{ "type": "Feature", "properties": { "内容": "小規模多機能型居宅介護事業所　にじ【小規模多機能型居宅介護】三重県北牟婁郡紀北町東長島1075-1", "url": "https://www.kaigokensaku.mhlw.go.jp/24/index.php?action_kouhyou_detail_004_kani=true&JigyosyoCd=2493000109-00&ServiceCd=730&Type=search", "url2": "www.mc-sei.com" }, "geometry": { "type": "Point", "coordinates": [ 136.329395275663643, 34.212452925436082 ] } },
{ "type": "Feature", "properties": { "内容": "小規模多機能ホーム　たいき【小規模多機能型居宅介護】三重県北牟婁郡紀北町三浦６７３番地２", "url": "https://www.kaigokensaku.mhlw.go.jp/24/index.php?action_kouhyou_detail_004_kani=true&JigyosyoCd=2493000075-00&ServiceCd=730&Type=search", "url2": "http://taiki2006.jimdo.com/" }, "geometry": { "type": "Point", "coordinates": [ 136.280438900000036, 34.1664486 ] } },
{ "type": "Feature", "properties": { "内容": "おろし複合福祉施設　つどい【小規模多機能型居宅介護】三重県南牟婁郡御浜町上野２４０－２", "url": "https://www.kaigokensaku.mhlw.go.jp/24/index.php?action_kouhyou_detail_004_kani=true&JigyosyoCd=2493100032-00&ServiceCd=730&Type=search", "url2": "orositudoi@zd.ztv.ne.jp" }, "geometry": { "type": "Point", "coordinates": [ 135.982638100000031, 33.8456764 ] } },
{ "type": "Feature", "properties": { "内容": "あたわ共生施設つどい【小規模多機能型居宅介護】三重県南牟婁郡御浜町阿田和3808-11あたわ共生施設つどい", "url": "https://www.kaigokensaku.mhlw.go.jp/24/index.php?action_kouhyou_detail_004_kani=true&JigyosyoCd=2493100057-00&ServiceCd=730&Type=search", "url2": null }, "geometry": { "type": "Point", "coordinates": [ 136.032597577627428, 33.788679889570723 ] } }
]
}
