{
"type": "FeatureCollection",
"name": "geo_24_特別支援学校",
"crs": { "type": "name", "properties": { "name": "urn:ogc:def:crs:EPSG::6668" } },
"features": [
{ "type": "Feature", "properties": { "P29_001": "24201", "P29_002": "E124110000016", "P29_003": "16012", "P29_004": "三重大学教育学部附属特別支援学校", "P29_005": "三重県津市観音寺町484", "P29_006": "1", "P29_007": "0", "P29_008": "00", "P29_009": null }, "geometry": { "type": "Point", "coordinates": [ 136.500289784714766, 34.727046884407777 ] } },
{ "type": "Feature", "properties": { "P29_001": "24201", "P29_002": "E124210070019", "P29_003": "16012", "P29_004": "三重県立盲学校", "P29_005": "三重県津市高茶屋4-39-1", "P29_006": "2", "P29_007": "0", "P29_008": "00", "P29_009": null }, "geometry": { "type": "Point", "coordinates": [ 136.50752064275315, 34.669705650788629 ] } },
{ "type": "Feature", "properties": { "P29_001": "24201", "P29_002": "E124210070028", "P29_003": "16012", "P29_004": "三重県立聾学校", "P29_005": "三重県津市藤方2304-2", "P29_006": "2", "P29_007": "0", "P29_008": "00", "P29_009": null }, "geometry": { "type": "Point", "coordinates": [ 136.517671210060001, 34.694080039107718 ] } },
{ "type": "Feature", "properties": { "P29_001": "24201", "P29_002": "E124210070037", "P29_003": "16012", "P29_004": "三重県立城山特別支援学校", "P29_005": "三重県津市城山1-5-29", "P29_006": "2", "P29_007": "0", "P29_008": "00", "P29_009": null }, "geometry": { "type": "Point", "coordinates": [ 136.509514521374825, 34.675371872874841 ] } },
{ "type": "Feature", "properties": { "P29_001": "24207", "P29_002": "E124210070046", "P29_003": "16012", "P29_004": "三重県立杉の子特別支援学校", "P29_005": "三重県鈴鹿市加佐登3-2-2", "P29_006": "2", "P29_007": "0", "P29_008": "00", "P29_009": null }, "geometry": { "type": "Point", "coordinates": [ 136.524722464236902, 34.891423684406448 ] } },
{ "type": "Feature", "properties": { "P29_001": "24207", "P29_002": "E124210070055", "P29_003": "16012", "P29_004": "三重県立杉の子特別支援学校石薬師分校", "P29_005": "三重県鈴鹿市石薬師町字寺東452", "P29_006": "2", "P29_007": "0", "P29_008": "00", "P29_009": null }, "geometry": { "type": "Point", "coordinates": [ 136.551869601361801, 34.903312219762412 ] } },
{ "type": "Feature", "properties": { "P29_001": "24201", "P29_002": "E124210070064", "P29_003": "16012", "P29_004": "三重県立かがやき特別支援学校", "P29_005": "三重県津市大里窪田町357", "P29_006": "2", "P29_007": "0", "P29_008": "00", "P29_009": null }, "geometry": { "type": "Point", "coordinates": [ 136.481231862460248, 34.771972216591109 ] } },
{ "type": "Feature", "properties": { "P29_001": "24201", "P29_002": "E124210070073", "P29_003": "16012", "P29_004": "三重県立かがやき特別支援学校草の実分校", "P29_005": "三重県津市大里窪田町340-5", "P29_006": "2", "P29_007": "0", "P29_008": "00", "P29_009": null }, "geometry": { "type": "Point", "coordinates": [ 136.478850799785079, 34.769542915337283 ] } },
{ "type": "Feature", "properties": { "P29_001": "24201", "P29_002": "E124210070082", "P29_003": "16012", "P29_004": "三重県立かがやき特別支援学校あすなろ分校", "P29_005": "三重県津市大里窪田町340-5", "P29_006": "2", "P29_007": "0", "P29_008": "00", "P29_009": null }, "geometry": { "type": "Point", "coordinates": [ 136.479352076137729, 34.769297602169701 ] } },
{ "type": "Feature", "properties": { "P29_001": "24201", "P29_002": "E124210070091", "P29_003": "16012", "P29_004": "三重県立稲葉特別支援学校", "P29_005": "三重県津市稲葉町字上野4101", "P29_006": "2", "P29_007": "0", "P29_008": "00", "P29_009": null }, "geometry": { "type": "Point", "coordinates": [ 136.38738074446087, 34.712232066676329 ] } },
{ "type": "Feature", "properties": { "P29_001": "24208", "P29_002": "E124210070108", "P29_003": "16012", "P29_004": "三重県立特別支援学校伊賀つばさ学園", "P29_005": "三重県名張市美旗町南西原229-2", "P29_006": "2", "P29_007": "0", "P29_008": "00", "P29_009": null }, "geometry": { "type": "Point", "coordinates": [ 136.123828769810558, 34.657920575384914 ] } },
{ "type": "Feature", "properties": { "P29_001": "24204", "P29_002": "E124210070117", "P29_003": "16012", "P29_004": "三重県立松阪あゆみ特別支援学校", "P29_005": "三重県松阪市久保町1846-195", "P29_006": "2", "P29_007": "0", "P29_008": "00", "P29_009": null }, "geometry": { "type": "Point", "coordinates": [ 136.538643367370156, 34.543845850633019 ] } },
{ "type": "Feature", "properties": { "P29_001": "24461", "P29_002": "E124210070126", "P29_003": "16012", "P29_004": "三重県立特別支援学校玉城わかば学園", "P29_005": "三重県度会郡玉城町宮古726-17", "P29_006": "2", "P29_007": "0", "P29_008": "00", "P29_009": null }, "geometry": { "type": "Point", "coordinates": [ 136.63349319471493, 34.475392716621265 ] } },
{ "type": "Feature", "properties": { "P29_001": "24202", "P29_002": "E124210070135", "P29_003": "16012", "P29_004": "三重県立特別支援学校西日野にじ学園", "P29_005": "三重県四日市市西日野町4070-35", "P29_006": "2", "P29_007": "0", "P29_008": "00", "P29_009": null }, "geometry": { "type": "Point", "coordinates": [ 136.587295939291323, 34.949054136385463 ] } },
{ "type": "Feature", "properties": { "P29_001": "24202", "P29_002": "E124210070144", "P29_003": "16012", "P29_004": "三重県立特別支援学校北勢きらら学園", "P29_005": "三重県四日市市下海老町字高松161", "P29_006": "2", "P29_007": "0", "P29_008": "00", "P29_009": null }, "geometry": { "type": "Point", "coordinates": [ 136.574725344372155, 35.021670415776683 ] } },
{ "type": "Feature", "properties": { "P29_001": "24205", "P29_002": "E124210070153", "P29_003": "16012", "P29_004": "三重県立くわな特別支援学校", "P29_005": "三重県桑名市大字東方字尾弓田1073", "P29_006": "2", "P29_007": "0", "P29_008": "00", "P29_009": null }, "geometry": { "type": "Point", "coordinates": [ 136.67871984894947, 35.07521656385299 ] } },
{ "type": "Feature", "properties": { "P29_001": "24470", "P29_002": "E124210070162", "P29_003": "16012", "P29_004": "三重県立度会特別支援学校", "P29_005": "三重県度会郡度会町大野木1825", "P29_006": "2", "P29_007": "0", "P29_008": "00", "P29_009": null }, "geometry": { "type": "Point", "coordinates": [ 136.628601137102208, 34.43604331028574 ] } },
{ "type": "Feature", "properties": { "P29_001": "24212", "P29_002": "E124210070171", "P29_003": "16012", "P29_004": "三重県立特別支援学校東紀州くろしお学園", "P29_005": "三重県熊野市金山町2496", "P29_006": "2", "P29_007": "0", "P29_008": "00", "P29_009": null }, "geometry": { "type": "Point", "coordinates": [ 136.057177306600948, 33.868543728307628 ] } },
{ "type": "Feature", "properties": { "P29_001": "24209", "P29_002": "E124210070180", "P29_003": "16012", "P29_004": "三重県立特別支援学校東紀州くろしお学園おわせ分校", "P29_005": "三重県尾鷲市光ケ丘28-61", "P29_006": "2", "P29_007": "0", "P29_008": "00", "P29_009": null }, "geometry": { "type": "Point", "coordinates": [ 136.174412687619252, 34.064466123066026 ] } },
{ "type": "Feature", "properties": { "P29_001": "24202", "P29_002": "E124310075012", "P29_003": "16012", "P29_004": "特別支援学校聖母の家学園", "P29_005": "三重県四日市市波木町330-5", "P29_006": "4", "P29_007": "0", "P29_008": "00", "P29_009": null }, "geometry": { "type": "Point", "coordinates": [ 136.573647469879063, 34.937898205743103 ] } }
]
}
