{
"type": "FeatureCollection",
"name": "geo_24_介護老人保健施設",
"crs": { "type": "name", "properties": { "name": "urn:ogc:def:crs:OGC:1.3:CRS84" } },
"features": [
{ "type": "Feature", "properties": { "内容": "介護老人保健施設　いこいの森【介護老人保健施設】三重県津市河芸町東千里3番地の１", "url": "https://www.kaigokensaku.mhlw.go.jp/24/index.php?action_kouhyou_detail_004_kani=true&JigyosyoCd=2452480029-00&ServiceCd=520&Type=search", "url2": "https://www.mie-ikoinomori.or.jp" }, "geometry": { "type": "Point", "coordinates": [ 136.552071500000011, 34.8031044 ] } },
{ "type": "Feature", "properties": { "内容": "介護老人保健施設つつじの里【介護老人保健施設】三重県津市白山町二本木1163", "url": "https://www.kaigokensaku.mhlw.go.jp/24/index.php?action_kouhyou_detail_004_kani=true&JigyosyoCd=2450580044-00&ServiceCd=520&Type=search", "url2": "http://www.akeai.or.jp/" }, "geometry": { "type": "Point", "coordinates": [ 136.371187700000064, 34.6680964 ] } },
{ "type": "Feature", "properties": { "内容": "介護老人保健施設　第二さくら苑【介護老人保健施設】三重県津市榊原町5599番地", "url": "https://www.kaigokensaku.mhlw.go.jp/24/index.php?action_kouhyou_detail_004_kani=true&JigyosyoCd=2450580051-00&ServiceCd=520&Type=search", "url2": "http://ohrin-mc.jp/sakuraen_dai2/" }, "geometry": { "type": "Point", "coordinates": [ 136.36865986333774, 34.70042032855131 ] } },
{ "type": "Feature", "properties": { "内容": "地域総合ケアセンター津介護老人保健施設シルバーケア豊壽園【介護老人保健施設】三重県津市高茶屋小森上野町野田737", "url": "https://www.kaigokensaku.mhlw.go.jp/24/index.php?action_kouhyou_detail_004_kani=true&JigyosyoCd=2450580036-00&ServiceCd=520&Type=search", "url2": "http://www.sensin.or.jp/" }, "geometry": { "type": "Point", "coordinates": [ 136.5202392, 34.6784929 ] } },
{ "type": "Feature", "properties": { "内容": "介護老人保健施設　万葉の里（ユニット型）【介護老人保健施設】三重県津市一志町高野236-5", "url": "https://www.kaigokensaku.mhlw.go.jp/24/index.php?action_kouhyou_detail_004_kani=true&JigyosyoCd=2450580069-00&ServiceCd=520&Type=search", "url2": null }, "geometry": { "type": "Point", "coordinates": [ 136.43258620000006, 34.6596328 ] } },
{ "type": "Feature", "properties": { "内容": "介護老人保健施設　万葉の里【介護老人保健施設】三重県津市一志町高野２３６－５", "url": "https://www.kaigokensaku.mhlw.go.jp/24/index.php?action_kouhyou_detail_004_kani=true&JigyosyoCd=2452580034-00&ServiceCd=520&Type=search", "url2": null }, "geometry": { "type": "Point", "coordinates": [ 136.43258620000006, 34.6596328 ] } },
{ "type": "Feature", "properties": { "内容": "介護老人保健施設　あのう【介護老人保健施設】三重県津市安濃町東観音寺３５３番地", "url": "https://www.kaigokensaku.mhlw.go.jp/24/index.php?action_kouhyou_detail_004_kani=true&JigyosyoCd=2452480037-00&ServiceCd=520&Type=search", "url2": "http://www.akeai.or.jp" }, "geometry": { "type": "Point", "coordinates": [ 136.4409935, 34.7642044 ] } },
{ "type": "Feature", "properties": { "内容": "介護老人保健施設さくら苑【介護老人保健施設】三重県津市榊原町5630番地", "url": "https://www.kaigokensaku.mhlw.go.jp/24/index.php?action_kouhyou_detail_004_kani=true&JigyosyoCd=2450680059-00&ServiceCd=520&Type=search", "url2": "http://www.ohrin-mc.jp/sakuraen/" }, "geometry": { "type": "Point", "coordinates": [ 136.368925399999966, 34.700816 ] } },
{ "type": "Feature", "properties": { "内容": "津老人保健施設アルカディア【介護老人保健施設】津市乙部１１－５", "url": "https://www.kaigokensaku.mhlw.go.jp/24/index.php?action_kouhyou_detail_004_kani=true&JigyosyoCd=2450580028-00&ServiceCd=520&Type=search", "url2": "https://www.arcadia-mie.jp/" }, "geometry": { "type": "Point", "coordinates": [ 136.520026199999961, 34.7173659 ] } },
{ "type": "Feature", "properties": { "内容": "介護老人保健施設トマト【介護老人保健施設】三重県津市殿村８６０番地２", "url": "https://www.kaigokensaku.mhlw.go.jp/24/index.php?action_kouhyou_detail_004_kani=true&JigyosyoCd=2450580010-00&ServiceCd=520&Type=search", "url2": "http://www.tomato.or.jp/" }, "geometry": { "type": "Point", "coordinates": [ 136.463696999475133, 34.726527735018536 ] } },
{ "type": "Feature", "properties": { "内容": "芹の里介護老人保健施設【介護老人保健施設】三重県津市久居井戸山町　７５９番地の７", "url": "https://www.kaigokensaku.mhlw.go.jp/24/index.php?action_kouhyou_detail_004_kani=true&JigyosyoCd=2450680018-00&ServiceCd=520&Type=search", "url2": "https://www.seri-roken.or.jp" }, "geometry": { "type": "Point", "coordinates": [ 136.483456, 34.6691686 ] } },
{ "type": "Feature", "properties": { "内容": "介護老人保健施設ロマン【介護老人保健施設】津市芸濃町椋本6176", "url": "https://www.kaigokensaku.mhlw.go.jp/24/index.php?action_kouhyou_detail_004_kani=true&JigyosyoCd=2452480011-00&ServiceCd=520&Type=search", "url2": "http://www.roman.or.jp" }, "geometry": { "type": "Point", "coordinates": [ 136.442589233729592, 34.810506491148189 ] } },
{ "type": "Feature", "properties": { "内容": "萩の原介護老人保健施設【介護老人保健施設】三重県津市久居井戸山町759番地", "url": "https://www.kaigokensaku.mhlw.go.jp/24/index.php?action_kouhyou_detail_004_kani=true&JigyosyoCd=2450680034-00&ServiceCd=520&Type=search", "url2": "http://www.inoue-med.com" }, "geometry": { "type": "Point", "coordinates": [ 136.482839399999989, 34.6691352 ] } },
{ "type": "Feature", "properties": { "内容": "介護老人保健施設　みえ川村老健【介護老人保健施設】四日市市城東町３番２１号", "url": "https://www.kaigokensaku.mhlw.go.jp/24/index.php?action_kouhyou_detail_004_kani=true&JigyosyoCd=2450280033-00&ServiceCd=520&Type=search", "url2": "http://www.syutaikai.jp" }, "geometry": { "type": "Point", "coordinates": [ 136.609597300000019, 34.9646841 ] } },
{ "type": "Feature", "properties": { "内容": "小山田老人保健施設【介護老人保健施設】四日市市山田町5501-1", "url": "https://www.kaigokensaku.mhlw.go.jp/24/index.php?action_kouhyou_detail_004_kani=true&JigyosyoCd=2450280017-00&ServiceCd=520&Type=search", "url2": "https://seizanrikai.jp/service/" }, "geometry": { "type": "Point", "coordinates": [ 136.527800500000012, 34.9461681 ] } },
{ "type": "Feature", "properties": { "内容": "介護老人保健施設ちゅうぶ【介護老人保健施設】三重県四日市市中部８－１５", "url": "https://www.kaigokensaku.mhlw.go.jp/24/index.php?action_kouhyou_detail_004_kani=true&JigyosyoCd=2450280058-00&ServiceCd=520&Type=search", "url2": "http://www.rijinkai.jp/" }, "geometry": { "type": "Point", "coordinates": [ 136.6253337932541, 34.968628645663294 ] } },
{ "type": "Feature", "properties": { "内容": "四日市羽津医療センター附属介護老人保健施設【介護老人保健施設】四日市市羽津山町10-8", "url": "https://www.kaigokensaku.mhlw.go.jp/24/index.php?action_kouhyou_detail_004_kani=true&JigyosyoCd=2450280041-00&ServiceCd=520&Type=search", "url2": "http://yokkaichi.jcho.go.jp/rouken/" }, "geometry": { "type": "Point", "coordinates": [ 136.626350399999978, 34.9896899 ] } },
{ "type": "Feature", "properties": { "内容": "富田浜老人保健施設（従来型）【介護老人保健施設】三重県四日市市富田浜町２６－１４", "url": "https://www.kaigokensaku.mhlw.go.jp/24/index.php?action_kouhyou_detail_004_kani=true&JigyosyoCd=2450280066-00&ServiceCd=520&Type=search", "url2": "http://tomidahama.jp/" }, "geometry": { "type": "Point", "coordinates": [ 136.652400630163584, 34.997869508994654 ] } },
{ "type": "Feature", "properties": { "内容": "介護老人保健施設　老健クローバー【介護老人保健施設】四日市市小古曽町2728－1", "url": "https://www.kaigokensaku.mhlw.go.jp/24/index.php?action_kouhyou_detail_004_kani=true&JigyosyoCd=2450280074-00&ServiceCd=520&Type=search", "url2": "http://shouwa-cl.or.jp" }, "geometry": { "type": "Point", "coordinates": [ 136.594655872352632, 34.919448369157287 ] } },
{ "type": "Feature", "properties": { "内容": "富田浜老人保健施設（ユニット型）【介護老人保健施設】三重県四日市市富田浜町２６－１４", "url": "https://www.kaigokensaku.mhlw.go.jp/24/index.php?action_kouhyou_detail_004_kani=true&JigyosyoCd=2450280082-00&ServiceCd=520&Type=search", "url2": "http://tomidahama.jp/" }, "geometry": { "type": "Point", "coordinates": [ 136.652389901327524, 34.997909058480744 ] } },
{ "type": "Feature", "properties": { "内容": "小規模介護老人保健施設　浜っこサテライト【介護老人保健施設】三重県四日市市富田浜町29-20", "url": "https://www.kaigokensaku.mhlw.go.jp/24/index.php?action_kouhyou_detail_004_kani=true&JigyosyoCd=2450280090-00&ServiceCd=520&Type=search", "url2": "https://tomidahama.jp" }, "geometry": { "type": "Point", "coordinates": [ 136.6528207, 34.9988833 ] } },
{ "type": "Feature", "properties": { "内容": "介護老人保健施設みえの郷【介護老人保健施設】三重県四日市市山田町5538番地の1", "url": "https://www.kaigokensaku.mhlw.go.jp/24/index.php?action_kouhyou_detail_004_kani=true&JigyosyoCd=2450280025-00&ServiceCd=520&Type=search", "url2": "http://www.syutaikai.jp/n_mie/" }, "geometry": { "type": "Point", "coordinates": [ 136.527192199999945, 34.945271 ] } },
{ "type": "Feature", "properties": { "内容": "ふたみ介護老人保健施設シルバーケア豊壽園【介護老人保健施設】三重県伊勢市二見町三津字池田855番地", "url": "https://www.kaigokensaku.mhlw.go.jp/24/index.php?action_kouhyou_detail_004_kani=true&JigyosyoCd=2452880061-00&ServiceCd=520&Type=search", "url2": "https://www.sensin.or.jp/" }, "geometry": { "type": "Point", "coordinates": [ 136.773046900000054, 34.500200200000016 ] } },
{ "type": "Feature", "properties": { "内容": "介護老人保健施設山咲苑【介護老人保健施設】三重県伊勢市楠部町若ノ山２６０５－１３", "url": "https://www.kaigokensaku.mhlw.go.jp/24/index.php?action_kouhyou_detail_004_kani=true&JigyosyoCd=2450880014-00&ServiceCd=520&Type=search", "url2": "https://yamasakien.biz/" }, "geometry": { "type": "Point", "coordinates": [ 136.747399705809812, 34.480210156174557 ] } },
{ "type": "Feature", "properties": { "内容": "医療法人全心会　伊勢老健ひかり【介護老人保健施設】三重県伊勢市御薗町高向775番地1", "url": "https://www.kaigokensaku.mhlw.go.jp/24/index.php?action_kouhyou_detail_004_kani=true&JigyosyoCd=2450880030-00&ServiceCd=520&Type=search", "url2": "https://ise-rouken-hikari.com/about/" }, "geometry": { "type": "Point", "coordinates": [ 136.69722040000002, 34.501057399999986 ] } },
{ "type": "Feature", "properties": { "内容": "介護老人保健施設　上野の郷【介護老人保健施設】三重県伊勢市上野町２８５５－１", "url": "https://www.kaigokensaku.mhlw.go.jp/24/index.php?action_kouhyou_detail_004_kani=true&JigyosyoCd=2450880022-00&ServiceCd=520&Type=search", "url2": "www.uenonosato.jp/" }, "geometry": { "type": "Point", "coordinates": [ 136.653430800000024, 34.4350997 ] } },
{ "type": "Feature", "properties": { "内容": "介護老人保健施設　やまゆりの里【介護老人保健施設】三重県松阪市嬉野中川町１５２９－１", "url": "https://www.kaigokensaku.mhlw.go.jp/24/index.php?action_kouhyou_detail_004_kani=true&JigyosyoCd=2450780040-00&ServiceCd=520&Type=search", "url2": "http://www.akeai.or.jp/" }, "geometry": { "type": "Point", "coordinates": [ 136.475372099999959, 34.6341892 ] } },
{ "type": "Feature", "properties": { "内容": "介護老人保健施設　緑風苑【介護老人保健施設】三重県松阪市久保町1927－6", "url": "https://www.kaigokensaku.mhlw.go.jp/24/index.php?action_kouhyou_detail_004_kani=true&JigyosyoCd=2450780024-00&ServiceCd=520&Type=search", "url2": "https://aikeikai.or.jp/" }, "geometry": { "type": "Point", "coordinates": [ 136.526649600000042, 34.5373837 ] } },
{ "type": "Feature", "properties": { "内容": "介護老人保健施設嘉祥苑【介護老人保健施設】三重県松阪市鎌田町２３４番地の１", "url": "https://www.kaigokensaku.mhlw.go.jp/24/index.php?action_kouhyou_detail_004_kani=true&JigyosyoCd=2450780016-00&ServiceCd=520&Type=search", "url2": "http://www.kashouen.or.jp" }, "geometry": { "type": "Point", "coordinates": [ 136.535973332206737, 34.581796749775755 ] } },
{ "type": "Feature", "properties": { "内容": "老人保健施設さくらんぼ【介護老人保健施設】三重県松阪市飯南町粥見5471-18", "url": "https://www.kaigokensaku.mhlw.go.jp/24/index.php?action_kouhyou_detail_004_kani=true&JigyosyoCd=2450780057-00&ServiceCd=520&Type=search", "url2": "http://www.sakuraen.com/sakuranbo/" }, "geometry": { "type": "Point", "coordinates": [ 136.375915099999929, 34.4456662 ] } },
{ "type": "Feature", "properties": { "内容": "医療法人　松徳会　介護老人保健施設　カトレア【介護老人保健施設】松阪市山室町６９０番地１", "url": "https://www.kaigokensaku.mhlw.go.jp/24/index.php?action_kouhyou_detail_004_kani=true&JigyosyoCd=2450780032-00&ServiceCd=520&Type=search", "url2": "http://www.shoutoku.or.jp/" }, "geometry": { "type": "Point", "coordinates": [ 136.502296500000057, 34.5299505 ] } },
{ "type": "Feature", "properties": { "内容": "介護老人保健施設まとかた【介護老人保健施設】三重県松阪市東黒部町835", "url": "https://www.kaigokensaku.mhlw.go.jp/24/index.php?action_kouhyou_detail_004_kani=true&JigyosyoCd=2450780065-00&ServiceCd=520&Type=search", "url2": "http://www.matokata.com" }, "geometry": { "type": "Point", "coordinates": [ 136.591302258335872, 34.591504102554978 ] } },
{ "type": "Feature", "properties": { "内容": "介護老人保健施設　ながしま【介護老人保健施設】桑名市長島町福吉271", "url": "https://www.kaigokensaku.mhlw.go.jp/24/index.php?action_kouhyou_detail_004_kani=true&JigyosyoCd=2452080019-00&ServiceCd=520&Type=search", "url2": "http://www.sato-group.jp" }, "geometry": { "type": "Point", "coordinates": [ 136.7156913, 35.0570317 ] } },
{ "type": "Feature", "properties": { "内容": "ヨナハ介護老人保健施設【介護老人保健施設】三重県桑名市大字大福字雀塚４７１番地2", "url": "https://www.kaigokensaku.mhlw.go.jp/24/index.php?action_kouhyou_detail_004_kani=true&JigyosyoCd=2450180035-00&ServiceCd=520&Type=search", "url2": "https://yonaha.or.jp/ynr/" }, "geometry": { "type": "Point", "coordinates": [ 136.685633496820031, 35.045789024826313 ] } },
{ "type": "Feature", "properties": { "内容": "介護老人保健施設ハート【介護老人保健施設】三重県桑名市大字西方字斧峠1306-10", "url": "https://www.kaigokensaku.mhlw.go.jp/24/index.php?action_kouhyou_detail_004_kani=true&JigyosyoCd=2450180027-00&ServiceCd=520&Type=search", "url2": "https://www.aoki-naika.jp/heart/index.html" }, "geometry": { "type": "Point", "coordinates": [ 136.669154299999946, 35.0661209 ] } },
{ "type": "Feature", "properties": { "内容": "介護老人保健施設だいそう【介護老人保健施設】三重県桑名市多度町柚井字境川１３２番地", "url": "https://www.kaigokensaku.mhlw.go.jp/24/index.php?action_kouhyou_detail_004_kani=true&JigyosyoCd=2450180076-00&ServiceCd=520&Type=search", "url2": "http://www.daiso-cn.com" }, "geometry": { "type": "Point", "coordinates": [ 136.64661, 35.140499 ] } },
{ "type": "Feature", "properties": { "内容": "介護老人保健施設ことぶき【介護老人保健施設】三重県桑名市大央町21番地15", "url": "https://www.kaigokensaku.mhlw.go.jp/24/index.php?action_kouhyou_detail_004_kani=true&JigyosyoCd=2450180043-00&ServiceCd=520&Type=search", "url2": "http://www.sato-group.jp/kotobuki.html" }, "geometry": { "type": "Point", "coordinates": [ 136.689591299999961, 35.0620357 ] } },
{ "type": "Feature", "properties": { "内容": "東新苑介護老人保健施設【介護老人保健施設】三重県桑名市大字江場20番地", "url": "https://www.kaigokensaku.mhlw.go.jp/24/index.php?action_kouhyou_detail_004_kani=true&JigyosyoCd=2450180019-00&ServiceCd=520&Type=search", "url2": "http://www.toushinen.jp" }, "geometry": { "type": "Point", "coordinates": [ 136.695024099999955, 35.0553477 ] } },
{ "type": "Feature", "properties": { "内容": "ケアセンター　ビオトープ【介護老人保健施設】三重県桑名市内堀28番地の1", "url": "https://www.kaigokensaku.mhlw.go.jp/24/index.php?action_kouhyou_detail_004_kani=true&JigyosyoCd=2450180068-00&ServiceCd=520&Type=search", "url2": "http://www.moriei.jp" }, "geometry": { "type": "Point", "coordinates": [ 136.693940800000064, 35.0623914 ] } },
{ "type": "Feature", "properties": { "内容": "介護老人保健施設　アルテハイム鈴鹿【介護老人保健施設】鈴鹿市平田１丁目3番５号", "url": "https://www.kaigokensaku.mhlw.go.jp/24/index.php?action_kouhyou_detail_004_kani=true&JigyosyoCd=2450380015-00&ServiceCd=520&Type=search", "url2": null }, "geometry": { "type": "Point", "coordinates": [ 136.539811900000018, 34.8745216 ] } },
{ "type": "Feature", "properties": { "内容": "介護老人保健施設　鈴の丘【介護老人保健施設】三重県鈴鹿市庄野町2550番地", "url": "https://www.kaigokensaku.mhlw.go.jp/24/index.php?action_kouhyou_detail_004_kani=true&JigyosyoCd=2450380031-00&ServiceCd=520&Type=search", "url2": "http://www.mecha.ne.jp/~suzu-oka/" }, "geometry": { "type": "Point", "coordinates": [ 136.508813420901447, 34.88790888331809 ] } },
{ "type": "Feature", "properties": { "内容": "介護老人保健施設　鈴の丘（ユニット型）【介護老人保健施設】三重県鈴鹿市庄野町2550番地", "url": "https://www.kaigokensaku.mhlw.go.jp/24/index.php?action_kouhyou_detail_004_kani=true&JigyosyoCd=2450380056-00&ServiceCd=520&Type=search", "url2": "http://www.mecha.ne.jp/~suzu-oka/" }, "geometry": { "type": "Point", "coordinates": [ 136.508812979098479, 34.887885388180415 ] } },
{ "type": "Feature", "properties": { "内容": "介護老人保健施設ひまわり【介護老人保健施設】鈴鹿市神戸三丁目１２－１０", "url": "https://www.kaigokensaku.mhlw.go.jp/24/index.php?action_kouhyou_detail_004_kani=true&JigyosyoCd=2450380023-00&ServiceCd=520&Type=search", "url2": "http://www.murase.or.jp/" }, "geometry": { "type": "Point", "coordinates": [ 136.584028699999976, 34.8784021 ] } },
{ "type": "Feature", "properties": { "内容": "介護老人保健施設パークヒルズ高塚【介護老人保健施設】三重県鈴鹿市高塚町字北新地２０３６", "url": "https://www.kaigokensaku.mhlw.go.jp/24/index.php?action_kouhyou_detail_004_kani=true&JigyosyoCd=2450380049-00&ServiceCd=520&Type=search", "url2": "www.shiokawa-hp.jp" }, "geometry": { "type": "Point", "coordinates": [ 136.51201810091095, 34.909979958102106 ] } },
{ "type": "Feature", "properties": { "内容": "介護老人保健施設　憩いの街【介護老人保健施設】三重県名張市鴻之台1番町72番地", "url": "https://www.kaigokensaku.mhlw.go.jp/24/index.php?action_kouhyou_detail_004_kani=true&JigyosyoCd=2451380030-00&ServiceCd=520&Type=search", "url2": "http://www.keihoukai.net/" }, "geometry": { "type": "Point", "coordinates": [ 136.111522773051092, 34.630191210800319 ] } },
{ "type": "Feature", "properties": { "内容": "亀山老人保健施設【介護老人保健施設】亀山市羽若町松本645-14", "url": "https://www.kaigokensaku.mhlw.go.jp/24/index.php?action_kouhyou_detail_004_kani=true&JigyosyoCd=2450480013-00&ServiceCd=520&Type=search", "url2": "http://www.seizanrikai.jp" }, "geometry": { "type": "Point", "coordinates": [ 136.452744700000039, 34.8646211 ] } },
{ "type": "Feature", "properties": { "内容": "介護老人保健施設　鳥羽豊和苑【介護老人保健施設】三重県鳥羽市安楽島町字腰掛1045-77", "url": "https://www.kaigokensaku.mhlw.go.jp/24/index.php?action_kouhyou_detail_004_kani=true&JigyosyoCd=2450980012-00&ServiceCd=520&Type=search", "url2": "http://www.houwakai.or.jp" }, "geometry": { "type": "Point", "coordinates": [ 136.862155978373693, 34.474526143093513 ] } },
{ "type": "Feature", "properties": { "内容": "介護老人保健施設　鳥羽豊和苑　ユニット【介護老人保健施設】三重県鳥羽市安楽島町字腰掛1045－77", "url": "https://www.kaigokensaku.mhlw.go.jp/24/index.php?action_kouhyou_detail_004_kani=true&JigyosyoCd=2450980020-00&ServiceCd=520&Type=search", "url2": "http://www.houwakai.or.jp" }, "geometry": { "type": "Point", "coordinates": [ 136.8708517, 34.4633458 ] } },
{ "type": "Feature", "properties": { "内容": "医療法人紀南会介護老人保健施設オレンジロードむつみ苑【介護老人保健施設】三重県熊野市久生屋町847番地2", "url": "https://www.kaigokensaku.mhlw.go.jp/24/index.php?action_kouhyou_detail_004_kani=true&JigyosyoCd=2451180018-00&ServiceCd=520&Type=search", "url2": "https://www.mutsumien-kumano.jp/" }, "geometry": { "type": "Point", "coordinates": [ 136.074300200000039, 33.865183299999984 ] } },
{ "type": "Feature", "properties": { "内容": "医療法人（社団）大和会　介護老人保健施設銀花【介護老人保健施設】三重県いなべ市北勢町阿下喜６８０番地", "url": "https://www.kaigokensaku.mhlw.go.jp/24/index.php?action_kouhyou_detail_004_kani=true&JigyosyoCd=2452180025-00&ServiceCd=520&Type=search", "url2": "http://www.kusaka-hp.jp/ginka.html" }, "geometry": { "type": "Point", "coordinates": [ 136.517776799999979, 35.1450803 ] } },
{ "type": "Feature", "properties": { "内容": "介護老人保健施設　オアシス【介護老人保健施設】いなべ市北勢町阿下喜3732番地", "url": "https://www.kaigokensaku.mhlw.go.jp/24/index.php?action_kouhyou_detail_004_kani=true&JigyosyoCd=2451480012-00&ServiceCd=520&Type=search", "url2": "http://www.kusaka-hp.jp/oasisu/index.html" }, "geometry": { "type": "Point", "coordinates": [ 136.517636878295889, 35.14476915676331 ] } },
{ "type": "Feature", "properties": { "内容": "志摩地域医療福祉センター　志摩市介護老人保健施設　志摩の里【介護老人保健施設】三重県志摩市志摩町片田4807番地1", "url": "https://www.kaigokensaku.mhlw.go.jp/24/index.php?action_kouhyou_detail_004_kani=true&JigyosyoCd=2452980028-00&ServiceCd=520&Type=search", "url2": "https://www.jadecom.or.jp/jadecomhp/shimanosato/html/" }, "geometry": { "type": "Point", "coordinates": [ 136.832087399999978, 34.2612293 ] } },
{ "type": "Feature", "properties": { "内容": "介護老人保健施設志摩豊和苑【介護老人保健施設】三重県志摩市阿児町国府1061-152", "url": "https://www.kaigokensaku.mhlw.go.jp/24/index.php?action_kouhyou_detail_004_kani=true&JigyosyoCd=2452980010-00&ServiceCd=520&Type=search", "url2": "http://www.houwakai.or.jp/m-shimahou.html" }, "geometry": { "type": "Point", "coordinates": [ 136.87429510000004, 34.3369007 ] } },
{ "type": "Feature", "properties": { "内容": "介護老人保健施設おかなみ【介護老人保健施設】三重県伊賀市上之庄2711番地1", "url": "https://www.kaigokensaku.mhlw.go.jp/24/index.php?action_kouhyou_detail_004_kani=true&JigyosyoCd=2451280016-00&ServiceCd=520&Type=search", "url2": "http://www.okanami.com/" }, "geometry": { "type": "Point", "coordinates": [ 136.114229900000026, 34.7297095 ] } },
{ "type": "Feature", "properties": { "内容": "介護老人保健施設第２おかなみ【介護老人保健施設】三重県伊賀市下友生字鳥ケ峯2916番地", "url": "https://www.kaigokensaku.mhlw.go.jp/24/index.php?action_kouhyou_detail_004_kani=true&JigyosyoCd=2451280024-00&ServiceCd=520&Type=search", "url2": "http://www.okanami.com" }, "geometry": { "type": "Point", "coordinates": [ 136.15727956078797, 34.753981505251794 ] } },
{ "type": "Feature", "properties": { "内容": "介護老人保健施設伊賀ゆめが丘【介護老人保健施設】三重県伊賀市ゆめが丘４丁目１－５", "url": "https://www.kaigokensaku.mhlw.go.jp/24/index.php?action_kouhyou_detail_004_kani=true&JigyosyoCd=2451280032-00&ServiceCd=520&Type=search", "url2": "http://www.okanami.com" }, "geometry": { "type": "Point", "coordinates": [ 136.1569541, 34.736976700000014 ] } },
{ "type": "Feature", "properties": { "内容": "介護老人保健施設　伊賀さくら苑【介護老人保健施設】三重県伊賀市円徳院324番地1", "url": "https://www.kaigokensaku.mhlw.go.jp/24/index.php?action_kouhyou_detail_004_kani=true&JigyosyoCd=2451280040-00&ServiceCd=520&Type=search", "url2": "http://www.ohrin-mc.jp/iga/" }, "geometry": { "type": "Point", "coordinates": [ 136.1838755, 34.811718 ] } },
{ "type": "Feature", "properties": { "内容": "老健きそさき【介護老人保健施設】三重県桑名郡木曽岬町大字和富１０番17", "url": "https://www.kaigokensaku.mhlw.go.jp/24/index.php?action_kouhyou_detail_004_kani=true&JigyosyoCd=2452080035-00&ServiceCd=520&Type=search", "url2": "http://www.wangansakuraclinic.jp/" }, "geometry": { "type": "Point", "coordinates": [ 136.751218200000039, 35.06686220000001 ] } },
{ "type": "Feature", "properties": { "内容": "ビオトープさくら【介護老人保健施設】三重県桑名郡木曽岬町大字和富１０番１７", "url": "https://www.kaigokensaku.mhlw.go.jp/24/index.php?action_kouhyou_detail_004_kani=true&JigyosyoCd=2452080027-00&ServiceCd=520&Type=search", "url2": "http://www.wangansakuraclinic.jp/" }, "geometry": { "type": "Point", "coordinates": [ 136.751218200000039, 35.0668622 ] } },
{ "type": "Feature", "properties": { "内容": "老人保健施設友愛トピア【介護老人保健施設】三重県三重郡菰野町大字宿野字神明田371", "url": "https://www.kaigokensaku.mhlw.go.jp/24/index.php?action_kouhyou_detail_004_kani=true&JigyosyoCd=2452280031-00&ServiceCd=520&Type=search", "url2": "http://www.yuuaitopia.com" }, "geometry": { "type": "Point", "coordinates": [ 136.527685045399494, 35.005881381204915 ] } },
{ "type": "Feature", "properties": { "内容": "湯の山介護老人保健施設【介護老人保健施設】三重県三重郡菰野町千草字東江野7045番地73", "url": "https://www.kaigokensaku.mhlw.go.jp/24/index.php?action_kouhyou_detail_004_kani=true&JigyosyoCd=2452280015-00&ServiceCd=520&Type=search", "url2": "https://yonaha.or.jp/yrr/" }, "geometry": { "type": "Point", "coordinates": [ 136.48972040000001, 35.0339631 ] } },
{ "type": "Feature", "properties": { "内容": "介護老人保健施設　聖十字ハイツ【介護老人保健施設】三重県三重郡菰野町宿野1641-10", "url": "https://www.kaigokensaku.mhlw.go.jp/24/index.php?action_kouhyou_detail_004_kani=true&JigyosyoCd=2452280023-00&ServiceCd=520&Type=search", "url2": "https://www.suzukaseijujikai.jp/" }, "geometry": { "type": "Point", "coordinates": [ 136.518571679762317, 35.00396775843214 ] } },
{ "type": "Feature", "properties": { "内容": "介護老人保健施設　あさけ【介護老人保健施設】三重県三重郡川越町大字豊田３０２番地１", "url": "https://www.kaigokensaku.mhlw.go.jp/24/index.php?action_kouhyou_detail_004_kani=true&JigyosyoCd=2452280049-00&ServiceCd=520&Type=search", "url2": "https://www.tokujukai.com/sisetsu/asake/" }, "geometry": { "type": "Point", "coordinates": [ 136.661273697561626, 35.016143666037898 ] } },
{ "type": "Feature", "properties": { "内容": "介護老人保健施設　みずほの里【介護老人保健施設】三重県多気郡多気町仁田706番7号", "url": "https://www.kaigokensaku.mhlw.go.jp/24/index.php?action_kouhyou_detail_004_kani=true&JigyosyoCd=2452780014-00&ServiceCd=520&Type=search", "url2": "http://www.mizuhonosato.or.jp" }, "geometry": { "type": "Point", "coordinates": [ 136.545707200000038, 34.4922008 ] } },
{ "type": "Feature", "properties": { "内容": "介護老人保健施設　なごみの里【介護老人保健施設】三重県多気郡多気町古江大字東山1512-1", "url": "https://www.kaigokensaku.mhlw.go.jp/24/index.php?action_kouhyou_detail_004_kani=true&JigyosyoCd=2452780022-00&ServiceCd=520&Type=search", "url2": "http://www.pmc.or.jp/nagomi/" }, "geometry": { "type": "Point", "coordinates": [ 136.480439100000012, 34.4610221 ] } },
{ "type": "Feature", "properties": { "内容": "介護老人保健施設第二嘉祥苑「アコラス」【介護老人保健施設】三重県多気郡明和町大字南藤原字一水口７５１番地", "url": "https://www.kaigokensaku.mhlw.go.jp/24/index.php?action_kouhyou_detail_004_kani=true&JigyosyoCd=2452780030-00&ServiceCd=520&Type=search", "url2": "http://www.kashouen.or.jp" }, "geometry": { "type": "Point", "coordinates": [ 136.62026888542789, 34.583765302199069 ] } },
{ "type": "Feature", "properties": { "内容": "大台町介護老人保健施設みやがわ（従来型）【介護老人保健施設】三重県多気郡大台町江馬114", "url": "https://www.kaigokensaku.mhlw.go.jp/24/index.php?action_kouhyou_detail_004_kani=true&JigyosyoCd=2452780048-00&ServiceCd=520&Type=search", "url2": "http://www.akeai.or.jp/" }, "geometry": { "type": "Point", "coordinates": [ 136.339600635036845, 34.364050704365646 ] } },
{ "type": "Feature", "properties": { "内容": "大台町介護老人保健施設みやがわ（ユニット型）【介護老人保健施設】三重県多気郡大台町江馬114", "url": "https://www.kaigokensaku.mhlw.go.jp/24/index.php?action_kouhyou_detail_004_kani=true&JigyosyoCd=2452780055-00&ServiceCd=520&Type=search", "url2": "http.//www.akeai.or.jp/" }, "geometry": { "type": "Point", "coordinates": [ 136.33945922905616, 34.363789398521384 ] } },
{ "type": "Feature", "properties": { "内容": "玉城町介護老人保健施設ケアハイツ玉城【介護老人保健施設】三重県度会郡玉城町佐田８８１", "url": "https://www.kaigokensaku.mhlw.go.jp/24/index.php?action_kouhyou_detail_004_kani=true&JigyosyoCd=2452880012-00&ServiceCd=520&Type=search", "url2": "http://www.tamaki-hsp.jp/care/index.html" }, "geometry": { "type": "Point", "coordinates": [ 136.639008798672421, 34.489626959271718 ] } },
{ "type": "Feature", "properties": { "内容": "介護老人保健施設　弘樹苑【介護老人保健施設】三重県度会郡玉城町原字風呂山2835", "url": "https://www.kaigokensaku.mhlw.go.jp/24/index.php?action_kouhyou_detail_004_kani=true&JigyosyoCd=2452880038-00&ServiceCd=520&Type=search", "url2": "http://www.amigo2.ne.jp/~a2880038/" }, "geometry": { "type": "Point", "coordinates": [ 136.590276563268986, 34.471560338506954 ] } },
{ "type": "Feature", "properties": { "内容": "介護老人保健施設　暁【介護老人保健施設】三重県度会郡大紀町大内山2951番1", "url": "https://www.kaigokensaku.mhlw.go.jp/24/index.php?action_kouhyou_detail_004_kani=true&JigyosyoCd=2452880020-00&ServiceCd=520&Type=search", "url2": "http://www.sw-jsk.or.jp/" }, "geometry": { "type": "Point", "coordinates": [ 136.351785226983679, 34.261695889554211 ] } },
{ "type": "Feature", "properties": { "内容": "介護老人保健施設　水脈の郷【介護老人保健施設】三重県度会郡南伊勢町慥柄浦1－1", "url": "https://www.kaigokensaku.mhlw.go.jp/24/index.php?action_kouhyou_detail_004_kani=true&JigyosyoCd=2452880095-00&ServiceCd=520&Type=search", "url2": "http://www.miekosei.or.jp/6_nah/" }, "geometry": { "type": "Point", "coordinates": [ 136.569623049890197, 34.290390085361963 ] } },
{ "type": "Feature", "properties": { "内容": "介護老人保健施設　輝【介護老人保健施設】三重県北牟婁郡紀北町東長島2482", "url": "https://www.kaigokensaku.mhlw.go.jp/24/index.php?action_kouhyou_detail_004_kani=true&JigyosyoCd=2453080026-00&ServiceCd=520&Type=search", "url2": "http://www.kaiseihp.com/kirari/index.html" }, "geometry": { "type": "Point", "coordinates": [ 136.339835200000039, 34.2082228 ] } },
{ "type": "Feature", "properties": { "内容": "介護老人保健施設　菖蒲園【介護老人保健施設】三重県北牟婁郡紀北町上里239-8", "url": "https://www.kaigokensaku.mhlw.go.jp/24/index.php?action_kouhyou_detail_004_kani=true&JigyosyoCd=2453080034-00&ServiceCd=520&Type=search", "url2": null }, "geometry": { "type": "Point", "coordinates": [ 136.2334042, 34.1444952 ] } },
{ "type": "Feature", "properties": { "内容": "介護老人保健施設きなん苑【介護老人保健施設】三重県南牟婁郡御浜町阿田和１７７", "url": "https://www.kaigokensaku.mhlw.go.jp/24/index.php?action_kouhyou_detail_004_kani=true&JigyosyoCd=2453180016-00&ServiceCd=520&Type=search", "url2": "http;//www.kinan-hp-mie.jp/" }, "geometry": { "type": "Point", "coordinates": [ 136.035325300000068, 33.8017149 ] } }
]
}
