{
"type": "FeatureCollection",
"name": "geo_24_特定福祉用具販売",
"crs": { "type": "name", "properties": { "name": "urn:ogc:def:crs:OGC:1.3:CRS84" } },
"features": [
{ "type": "Feature", "properties": { "内容": "フランスベッド株式会社メディカル三重営業所【特定福祉用具販売】三重県津市芸濃町椋本2020三重中央倉庫2F", "url": "https://www.kaigokensaku.mhlw.go.jp/24/index.php?action_kouhyou_detail_004_kani=true&JigyosyoCd=2472400395-00&ServiceCd=410&Type=search", "url2": "http://www.francebed.co.jp" }, "geometry": { "type": "Point", "coordinates": [ 136.432307300000048, 34.8024324 ] } },
{ "type": "Feature", "properties": { "内容": "株式会社ケアクレスト【特定福祉用具販売】三重県津市庄田町1400", "url": "https://www.kaigokensaku.mhlw.go.jp/24/index.php?action_kouhyou_detail_004_kani=true&JigyosyoCd=2470600400-00&ServiceCd=410&Type=search", "url2": "https://carecrest.studio.site/" }, "geometry": { "type": "Point", "coordinates": [ 136.42161980000003, 34.6761112 ] } },
{ "type": "Feature", "properties": { "内容": "ヤガミホームヘルスセンター津【特定福祉用具販売】三重県津市丸之内養正町4番1号丸之内三重ビル", "url": "https://www.kaigokensaku.mhlw.go.jp/24/index.php?action_kouhyou_detail_004_kani=true&JigyosyoCd=2470500436-00&ServiceCd=410&Type=search", "url2": "http://www.yagami.co.jp/yhhc" }, "geometry": { "type": "Point", "coordinates": [ 136.506198847362441, 34.71995413240662 ] } },
{ "type": "Feature", "properties": { "内容": "グリーンヒル　ケアサポートセンター【特定福祉用具販売】三重県津市緑が丘一丁目１番地１", "url": "https://www.kaigokensaku.mhlw.go.jp/24/index.php?action_kouhyou_detail_004_kani=true&JigyosyoCd=2470506631-00&ServiceCd=410&Type=search", "url2": "http://www.akeai.or.jp/" }, "geometry": { "type": "Point", "coordinates": [ 136.472137919512306, 34.713650121035229 ] } },
{ "type": "Feature", "properties": { "内容": "本町福祉用具販売事業シルバーケア豊壽園【特定福祉用具販売】三重県津市本町26番地13号", "url": "https://www.kaigokensaku.mhlw.go.jp/24/index.php?action_kouhyou_detail_004_kani=true&JigyosyoCd=2470600046-00&ServiceCd=410&Type=search", "url2": "http://www.sensin.or.jp/" }, "geometry": { "type": "Point", "coordinates": [ 136.508823986508219, 34.712028982133511 ] } },
{ "type": "Feature", "properties": { "内容": "ライフ・テクノサービス津【特定福祉用具販売】津市垂水686", "url": "https://www.kaigokensaku.mhlw.go.jp/24/index.php?action_kouhyou_detail_004_kani=true&JigyosyoCd=2470500030-00&ServiceCd=410&Type=search", "url2": "http://www.life-techno.jp/" }, "geometry": { "type": "Point", "coordinates": [ 136.507840200000032, 34.6926885 ] } },
{ "type": "Feature", "properties": { "内容": "近鉄スマイルライフ　中南勢支店【特定福祉用具販売】津市高茶屋小森町４０９０－２", "url": "https://www.kaigokensaku.mhlw.go.jp/24/index.php?action_kouhyou_detail_004_kani=true&JigyosyoCd=2470503828-00&ServiceCd=410&Type=search", "url2": "http://www.k-smile.com" }, "geometry": { "type": "Point", "coordinates": [ 136.495126699999986, 34.6718073 ] } },
{ "type": "Feature", "properties": { "内容": "株式会社　トーカイ　三重支店【特定福祉用具販売】三重県津市高茶屋小森町４０９番地１", "url": "https://www.kaigokensaku.mhlw.go.jp/24/index.php?action_kouhyou_detail_004_kani=true&JigyosyoCd=2470500329-00&ServiceCd=410&Type=search", "url2": "http://www.tokai-corp.com/" }, "geometry": { "type": "Point", "coordinates": [ 136.517067699999984, 34.6739322 ] } },
{ "type": "Feature", "properties": { "内容": "ダスキンヘルスレント三重中ステーション【特定福祉用具販売】三重県津市納所町41-7", "url": "https://www.kaigokensaku.mhlw.go.jp/24/index.php?action_kouhyou_detail_004_kani=true&JigyosyoCd=2470505385-00&ServiceCd=410&Type=search", "url2": "https://healthrent.duskin.jp/" }, "geometry": { "type": "Point", "coordinates": [ 136.49446118137601, 34.726286945573818 ] } },
{ "type": "Feature", "properties": { "内容": "株式会社enカンパニー【特定福祉用具販売】三重県津市久居西鷹跡町478-10", "url": "https://www.kaigokensaku.mhlw.go.jp/24/index.php?action_kouhyou_detail_004_kani=true&JigyosyoCd=2470506227-00&ServiceCd=410&Type=search", "url2": "https://encompany.jp/" }, "geometry": { "type": "Point", "coordinates": [ 136.463143, 34.6748134 ] } },
{ "type": "Feature", "properties": { "内容": "株式会社星医療酸器四日市営業所【特定福祉用具販売】三重県四日市市新正2-15-2", "url": "https://www.kaigokensaku.mhlw.go.jp/24/index.php?action_kouhyou_detail_004_kani=true&JigyosyoCd=2470206406-00&ServiceCd=410&Type=search", "url2": null }, "geometry": { "type": "Point", "coordinates": [ 136.618384232336751, 34.957415340833926 ] } },
{ "type": "Feature", "properties": { "内容": "シルバーサポート三重中央店【特定福祉用具販売】三重県四日市市川原町23－23", "url": "https://www.kaigokensaku.mhlw.go.jp/24/index.php?action_kouhyou_detail_004_kani=true&JigyosyoCd=2470205564-00&ServiceCd=410&Type=search", "url2": "http://www.ramico.co.jp/" }, "geometry": { "type": "Point", "coordinates": [ 137.08483769999998, 34.8702576 ] } },
{ "type": "Feature", "properties": { "内容": "日本ケアシステム株式会社　四日市営業所【特定福祉用具販売】三重県四日市市ときわ2丁目12番23号", "url": "https://www.kaigokensaku.mhlw.go.jp/24/index.php?action_kouhyou_detail_004_kani=true&JigyosyoCd=2470200052-00&ServiceCd=410&Type=search", "url2": "http://www.jcs-jcs.com/" }, "geometry": { "type": "Point", "coordinates": [ 136.594061915855377, 34.967434022508805 ] } },
{ "type": "Feature", "properties": { "内容": "日本ケアシステム株式会社　北勢営業所【特定福祉用具販売】三重県四日市市川北3丁目1番11号", "url": "https://www.kaigokensaku.mhlw.go.jp/24/index.php?action_kouhyou_detail_004_kani=true&JigyosyoCd=2470202520-00&ServiceCd=410&Type=search", "url2": "https://www.jcs-jcs.com" }, "geometry": { "type": "Point", "coordinates": [ 136.642423399999984, 35.0235747 ] } },
{ "type": "Feature", "properties": { "内容": "さん・あーす【特定福祉用具販売】別名五丁目1574番地2", "url": "https://www.kaigokensaku.mhlw.go.jp/24/index.php?action_kouhyou_detail_004_kani=true&JigyosyoCd=2470205846-00&ServiceCd=410&Type=search", "url2": null }, "geometry": { "type": "Point", "coordinates": [ 136.631505060574341, 34.994990795236646 ] } },
{ "type": "Feature", "properties": { "内容": "ライフ・テクノサービス四日市【特定福祉用具販売】四日市市大治田2-18-19", "url": "https://www.kaigokensaku.mhlw.go.jp/24/index.php?action_kouhyou_detail_004_kani=true&JigyosyoCd=2470201472-00&ServiceCd=410&Type=search", "url2": "http://www.life-techno.jp/" }, "geometry": { "type": "Point", "coordinates": [ 136.599853171886309, 34.931642611105381 ] } },
{ "type": "Feature", "properties": { "内容": "近鉄スマイルライフ株式会社【特定福祉用具販売】三重県四日市市柳町81番地", "url": "https://www.kaigokensaku.mhlw.go.jp/24/index.php?action_kouhyou_detail_004_kani=true&JigyosyoCd=2470202785-00&ServiceCd=410&Type=search", "url2": "http://www.k-smile.com" }, "geometry": { "type": "Point", "coordinates": [ 136.621890435581946, 34.934749451112332 ] } },
{ "type": "Feature", "properties": { "内容": "ダスキンヘルスレント　三重北ステーション【特定福祉用具販売】三重県四日市市生桑町233-5", "url": "https://www.kaigokensaku.mhlw.go.jp/24/index.php?action_kouhyou_detail_004_kani=true&JigyosyoCd=2470205671-00&ServiceCd=410&Type=search", "url2": "https://healthrent.duskin.jp" }, "geometry": { "type": "Point", "coordinates": [ 136.599534649782498, 34.985067791409762 ] } },
{ "type": "Feature", "properties": { "内容": "フクチャン【特定福祉用具販売】三重県四日市市小杉町299-1", "url": "https://www.kaigokensaku.mhlw.go.jp/24/index.php?action_kouhyou_detail_004_kani=true&JigyosyoCd=2470206653-00&ServiceCd=410&Type=search", "url2": "https://taxi29chan.jimdofree.com/" }, "geometry": { "type": "Point", "coordinates": [ 136.6061075, 34.9895668 ] } },
{ "type": "Feature", "properties": { "内容": "株式会社ヤマシタ三重営業所【特定福祉用具販売】三重県四日市市城西町15-41", "url": "https://www.kaigokensaku.mhlw.go.jp/24/index.php?action_kouhyou_detail_004_kani=true&JigyosyoCd=2470204617-00&ServiceCd=410&Type=search", "url2": "http://www.yco.co.jp" }, "geometry": { "type": "Point", "coordinates": [ 136.601514899999984, 34.9647393 ] } },
{ "type": "Feature", "properties": { "内容": "パーソナルケアくろべ【特定福祉用具販売】三重県四日市市鵜の森1丁目4-3メディカルセンタービル1階", "url": "https://www.kaigokensaku.mhlw.go.jp/24/index.php?action_kouhyou_detail_004_kani=true&JigyosyoCd=2470204658-00&ServiceCd=410&Type=search", "url2": "http://www.misonomura.jp/conceptroom/index.html" }, "geometry": { "type": "Point", "coordinates": [ 136.6160495, 34.9661905 ] } },
{ "type": "Feature", "properties": { "内容": "株式会社JUデザイン【特定福祉用具販売】三重県四日市市東坂部町53-1", "url": "https://www.kaigokensaku.mhlw.go.jp/24/index.php?action_kouhyou_detail_004_kani=true&JigyosyoCd=2470206596-00&ServiceCd=410&Type=search", "url2": "https://cocoro-hs-group.com" }, "geometry": { "type": "Point", "coordinates": [ 136.5948994, 34.9931891 ] } },
{ "type": "Feature", "properties": { "内容": "三重県四日市市笹川１丁目１８２番地1【特定福祉用具販売】三重県四日市市笹川１丁目１８２番地1", "url": "https://www.kaigokensaku.mhlw.go.jp/24/index.php?action_kouhyou_detail_004_kani=true&JigyosyoCd=2470206570-00&ServiceCd=410&Type=search", "url2": "https://jayacare.jp/" }, "geometry": { "type": "Point", "coordinates": [ 136.582074799999987, 34.9483869 ] } },
{ "type": "Feature", "properties": { "内容": "ダスキンヘルスレント伊勢ステーション【特定福祉用具販売】上地町1177-2", "url": "https://www.kaigokensaku.mhlw.go.jp/24/index.php?action_kouhyou_detail_004_kani=true&JigyosyoCd=2470802295-00&ServiceCd=410&Type=search", "url2": "http://healthrent.duskin.jp" }, "geometry": { "type": "Point", "coordinates": [ 136.6697838, 34.4960422 ] } },
{ "type": "Feature", "properties": { "内容": "住環境事業部【特定福祉用具販売】三重県伊勢市小俣町明野1308", "url": "https://www.kaigokensaku.mhlw.go.jp/24/index.php?action_kouhyou_detail_004_kani=true&JigyosyoCd=2470800463-00&ServiceCd=410&Type=search", "url2": "http://www.morisin.co.jp" }, "geometry": { "type": "Point", "coordinates": [ 136.669747381680281, 34.520091564108313 ] } },
{ "type": "Feature", "properties": { "内容": "有限会社イスズライフケア【特定福祉用具販売】三重県伊勢市湯田１４９０", "url": "https://www.kaigokensaku.mhlw.go.jp/24/index.php?action_kouhyou_detail_004_kani=true&JigyosyoCd=2472800511-00&ServiceCd=410&Type=search", "url2": "http://www.isuzu-lifecare.co.jp" }, "geometry": { "type": "Point", "coordinates": [ 136.646893404477993, 34.507237266412154 ] } },
{ "type": "Feature", "properties": { "内容": "ケアフィットコールス【特定福祉用具販売】三重県伊勢市小俣町宮前６４１番地1", "url": "https://www.kaigokensaku.mhlw.go.jp/24/index.php?action_kouhyou_detail_004_kani=true&JigyosyoCd=2470802402-00&ServiceCd=410&Type=search", "url2": "http://care-fit.com" }, "geometry": { "type": "Point", "coordinates": [ 136.671217, 34.4962394 ] } },
{ "type": "Feature", "properties": { "内容": "グッド・ナル【特定福祉用具販売】伊勢市竹ヶ鼻町３７３番地", "url": "https://www.kaigokensaku.mhlw.go.jp/24/index.php?action_kouhyou_detail_004_kani=true&JigyosyoCd=2470802212-00&ServiceCd=410&Type=search", "url2": "http://goodnal.com/index.html" }, "geometry": { "type": "Point", "coordinates": [ 136.726477497446695, 34.509470255231435 ] } },
{ "type": "Feature", "properties": { "内容": "株式会社　愛安住　伊勢営業所【特定福祉用具販売】三重県伊勢市前山町１２３－３", "url": "https://www.kaigokensaku.mhlw.go.jp/24/index.php?action_kouhyou_detail_004_kani=true&JigyosyoCd=2470802287-00&ServiceCd=410&Type=search", "url2": "https://www.aianju.co.jp" }, "geometry": { "type": "Point", "coordinates": [ 136.6921208, 34.4690941 ] } },
{ "type": "Feature", "properties": { "内容": "ライフ・テクノサービス伊勢【特定福祉用具販売】伊勢市御薗町長屋3146-1", "url": "https://www.kaigokensaku.mhlw.go.jp/24/index.php?action_kouhyou_detail_004_kani=true&JigyosyoCd=2472800636-00&ServiceCd=410&Type=search", "url2": "http://www.life-techno.jp/" }, "geometry": { "type": "Point", "coordinates": [ 136.698951833746946, 34.496167542839849 ] } },
{ "type": "Feature", "properties": { "内容": "株式会社ｕｋ【特定福祉用具販売】宝塚町1565番地", "url": "https://www.kaigokensaku.mhlw.go.jp/24/index.php?action_kouhyou_detail_004_kani=true&JigyosyoCd=2470704210-00&ServiceCd=410&Type=search", "url2": "https://www.ueda-kengyo.com/" }, "geometry": { "type": "Point", "coordinates": [ 136.5203564, 34.5540745 ] } },
{ "type": "Feature", "properties": { "内容": "ＭＯＭＯ工房株式会社【特定福祉用具販売】三重県松阪市嬉野平生町９６０－２０", "url": "https://www.kaigokensaku.mhlw.go.jp/24/index.php?action_kouhyou_detail_004_kani=true&JigyosyoCd=2470701885-00&ServiceCd=410&Type=search", "url2": "www.momo-kobo.com" }, "geometry": { "type": "Point", "coordinates": [ 136.463595, 34.6439063 ] } },
{ "type": "Feature", "properties": { "内容": "福祉用具　株式会社アルバ【特定福祉用具販売】三重県松阪市下村町８６９番地54エスペランサ下村", "url": "https://www.kaigokensaku.mhlw.go.jp/24/index.php?action_kouhyou_detail_004_kani=true&JigyosyoCd=2470704418-00&ServiceCd=410&Type=search", "url2": "http//esperanℤa-kaigo.com/" }, "geometry": { "type": "Point", "coordinates": [ 136.5409888, 34.5500194 ] } },
{ "type": "Feature", "properties": { "内容": "株式会社　松阪介護サービス【特定福祉用具販売】三重県松阪市鎌田町232番地の5", "url": "https://www.kaigokensaku.mhlw.go.jp/24/index.php?action_kouhyou_detail_004_kani=true&JigyosyoCd=2470700564-00&ServiceCd=410&Type=search", "url2": null }, "geometry": { "type": "Point", "coordinates": [ 136.536437146032767, 34.581807238826251 ] } },
{ "type": "Feature", "properties": { "内容": "株式会社ケアクレスト　松阪事業所【特定福祉用具販売】三重県松阪市郷津町１６４－１", "url": "https://www.kaigokensaku.mhlw.go.jp/24/index.php?action_kouhyou_detail_004_kani=true&JigyosyoCd=2470703394-00&ServiceCd=410&Type=search", "url2": "https://carecrest.studio.site/" }, "geometry": { "type": "Point", "coordinates": [ 136.54574070000001, 34.5890401 ] } },
{ "type": "Feature", "properties": { "内容": "亀楽堂有限会社【特定福祉用具販売】松阪市大黒田町1741番地1", "url": "https://www.kaigokensaku.mhlw.go.jp/24/index.php?action_kouhyou_detail_004_kani=true&JigyosyoCd=2470700275-00&ServiceCd=410&Type=search", "url2": "http://www.kirakudo.jp/" }, "geometry": { "type": "Point", "coordinates": [ 136.523826699999972, 34.5668662 ] } },
{ "type": "Feature", "properties": { "内容": "ダスキンヘルスレント松阪ステーション【特定福祉用具販売】松阪市宝塚町108-3マツザカ第2ﾋﾞﾙ", "url": "https://www.kaigokensaku.mhlw.go.jp/24/index.php?action_kouhyou_detail_004_kani=true&JigyosyoCd=2470701836-00&ServiceCd=410&Type=search", "url2": "http://healthrent.duskin.jp" }, "geometry": { "type": "Point", "coordinates": [ 136.514830699999948, 34.5519288 ] } },
{ "type": "Feature", "properties": { "内容": "アイリス南郊株式会社【特定福祉用具販売】三重県松阪市山室町2358番地11", "url": "https://www.kaigokensaku.mhlw.go.jp/24/index.php?action_kouhyou_detail_004_kani=true&JigyosyoCd=2470700200-00&ServiceCd=410&Type=search", "url2": null }, "geometry": { "type": "Point", "coordinates": [ 136.528946499999961, 34.5383642 ] } },
{ "type": "Feature", "properties": { "内容": "株式会社　愛安住　松阪営業所【特定福祉用具販売】松阪市久保町698-1", "url": "https://www.kaigokensaku.mhlw.go.jp/24/index.php?action_kouhyou_detail_004_kani=true&JigyosyoCd=2470701810-00&ServiceCd=410&Type=search", "url2": "https://www.aianju.co.jp" }, "geometry": { "type": "Point", "coordinates": [ 136.5404115, 34.5591402 ] } },
{ "type": "Feature", "properties": { "内容": "アクアレンタルケア【特定福祉用具販売】三重県松阪市西之庄町51-2", "url": "https://www.kaigokensaku.mhlw.go.jp/24/index.php?action_kouhyou_detail_004_kani=true&JigyosyoCd=2470704459-00&ServiceCd=410&Type=search", "url2": null }, "geometry": { "type": "Point", "coordinates": [ 136.5226446, 34.5808545 ] } },
{ "type": "Feature", "properties": { "内容": "総合レンタリース飯南【特定福祉用具販売】三重県松阪市飯南町粥見１７６８－１", "url": "https://www.kaigokensaku.mhlw.go.jp/24/index.php?action_kouhyou_detail_004_kani=true&JigyosyoCd=2470702743-00&ServiceCd=410&Type=search", "url2": null }, "geometry": { "type": "Point", "coordinates": [ 136.4040846, 34.449227600000029 ] } },
{ "type": "Feature", "properties": { "内容": "有限会社　クローバー【特定福祉用具販売】三重県松阪市曽原町１６５－１", "url": "https://www.kaigokensaku.mhlw.go.jp/24/index.php?action_kouhyou_detail_004_kani=true&JigyosyoCd=2472500194-00&ServiceCd=410&Type=search", "url2": null }, "geometry": { "type": "Point", "coordinates": [ 136.48311549999994, 34.6377112 ] } },
{ "type": "Feature", "properties": { "内容": "ライフ・テクノサービス松阪【特定福祉用具販売】三重県松阪市新松ヶ島町182-1", "url": "https://www.kaigokensaku.mhlw.go.jp/24/index.php?action_kouhyou_detail_004_kani=true&JigyosyoCd=2470703006-00&ServiceCd=410&Type=search", "url2": "life-techno.jp" }, "geometry": { "type": "Point", "coordinates": [ 136.5244242878357, 34.59938358278437 ] } },
{ "type": "Feature", "properties": { "内容": "スミナス　松阪事業所【特定福祉用具販売】三重県松阪市荒木町174-10", "url": "https://www.kaigokensaku.mhlw.go.jp/24/index.php?action_kouhyou_detail_004_kani=true&JigyosyoCd=2470704269-00&ServiceCd=410&Type=search", "url2": null }, "geometry": { "type": "Point", "coordinates": [ 136.544837203041084, 34.591186128925045 ] } },
{ "type": "Feature", "properties": { "内容": "アクティブ福祉用具レンタル販売【特定福祉用具販売】三重県桑名市増田595番地", "url": "https://www.kaigokensaku.mhlw.go.jp/24/index.php?action_kouhyou_detail_004_kani=true&JigyosyoCd=2470102530-00&ServiceCd=410&Type=search", "url2": null }, "geometry": { "type": "Point", "coordinates": [ 136.650375625597803, 35.058342031535958 ] } },
{ "type": "Feature", "properties": { "内容": "株式会社さくらライフクリエイト【特定福祉用具販売】大字江場413番地", "url": "https://www.kaigokensaku.mhlw.go.jp/24/index.php?action_kouhyou_detail_004_kani=true&JigyosyoCd=2470101904-00&ServiceCd=410&Type=search", "url2": null }, "geometry": { "type": "Point", "coordinates": [ 136.694493599999987, 35.0514536 ] } },
{ "type": "Feature", "properties": { "内容": "つばさ【特定福祉用具販売】三重県桑名市大字矢田109-9", "url": "https://www.kaigokensaku.mhlw.go.jp/24/index.php?action_kouhyou_detail_004_kani=true&JigyosyoCd=2470102837-00&ServiceCd=410&Type=search", "url2": null }, "geometry": { "type": "Point", "coordinates": [ 136.681878, 35.0614049 ] } },
{ "type": "Feature", "properties": { "内容": "エバーグリーン中京【特定福祉用具販売】三重県桑名市大字和泉524番地", "url": "https://www.kaigokensaku.mhlw.go.jp/24/index.php?action_kouhyou_detail_004_kani=true&JigyosyoCd=2470100948-00&ServiceCd=410&Type=search", "url2": null }, "geometry": { "type": "Point", "coordinates": [ 136.690615591401638, 35.041369929579645 ] } },
{ "type": "Feature", "properties": { "内容": "ライフ・テクノサービス桑名【特定福祉用具販売】三重県桑名市江場682-1", "url": "https://www.kaigokensaku.mhlw.go.jp/24/index.php?action_kouhyou_detail_004_kani=true&JigyosyoCd=2470102324-00&ServiceCd=410&Type=search", "url2": "http://www.life-techno.jp" }, "geometry": { "type": "Point", "coordinates": [ 136.685763651320968, 35.046668458020626 ] } },
{ "type": "Feature", "properties": { "内容": "株式会社　ユーヒナ鈴鹿【特定福祉用具販売】三重県鈴鹿市安塚町1501番地", "url": "https://www.kaigokensaku.mhlw.go.jp/24/index.php?action_kouhyou_detail_004_kani=true&JigyosyoCd=2470302510-00&ServiceCd=410&Type=search", "url2": null }, "geometry": { "type": "Point", "coordinates": [ 136.5666215, 34.8638919 ] } },
{ "type": "Feature", "properties": { "内容": "Resoraレントケアサポート【特定福祉用具販売】三重県鈴鹿市一ノ宮町622-1", "url": "https://www.kaigokensaku.mhlw.go.jp/24/index.php?action_kouhyou_detail_004_kani=true&JigyosyoCd=2470303740-00&ServiceCd=410&Type=search", "url2": "https://www.resora-net.com/" }, "geometry": { "type": "Point", "coordinates": [ 136.5991287, 34.8994074 ] } },
{ "type": "Feature", "properties": { "内容": "株式会社ケアクレスト　鈴鹿事業所【特定福祉用具販売】三重県鈴鹿市末広西6-12", "url": "https://www.kaigokensaku.mhlw.go.jp/24/index.php?action_kouhyou_detail_004_kani=true&JigyosyoCd=2470302874-00&ServiceCd=410&Type=search", "url2": "https://carecrest.studio.site/" }, "geometry": { "type": "Point", "coordinates": [ 136.55717162610344, 34.85956431974892 ] } },
{ "type": "Feature", "properties": { "内容": "日本ケアシステム株式会社　鈴鹿営業所【特定福祉用具販売】三重県鈴鹿市神戸7丁目8番18号", "url": "https://www.kaigokensaku.mhlw.go.jp/24/index.php?action_kouhyou_detail_004_kani=true&JigyosyoCd=2470300894-00&ServiceCd=410&Type=search", "url2": "http://www.jcs-jcs.com/" }, "geometry": { "type": "Point", "coordinates": [ 136.576966260453418, 34.88500709265525 ] } },
{ "type": "Feature", "properties": { "内容": "株式会社　愛安住　鈴鹿営業所【特定福祉用具販売】鈴鹿市西条4丁目109", "url": "https://www.kaigokensaku.mhlw.go.jp/24/index.php?action_kouhyou_detail_004_kani=true&JigyosyoCd=2470302122-00&ServiceCd=410&Type=search", "url2": "https://www.aianju.co.jp" }, "geometry": { "type": "Point", "coordinates": [ 136.574481631499907, 34.880397948567619 ] } },
{ "type": "Feature", "properties": { "内容": "タニオカライフ【特定福祉用具販売】三重県鈴鹿市稲生3丁目4-15", "url": "https://www.kaigokensaku.mhlw.go.jp/24/index.php?action_kouhyou_detail_004_kani=true&JigyosyoCd=2470303617-00&ServiceCd=410&Type=search", "url2": "https://taniokalife.jp/" }, "geometry": { "type": "Point", "coordinates": [ 136.5597917, 34.839893 ] } },
{ "type": "Feature", "properties": { "内容": "ライフ・テクノサービス鈴鹿【特定福祉用具販売】三重県鈴鹿市石薬師町1472", "url": "https://www.kaigokensaku.mhlw.go.jp/24/index.php?action_kouhyou_detail_004_kani=true&JigyosyoCd=2470302890-00&ServiceCd=410&Type=search", "url2": "http://www.life-techno.jp/" }, "geometry": { "type": "Point", "coordinates": [ 136.549669570659745, 34.907470039778367 ] } },
{ "type": "Feature", "properties": { "内容": "福祉用具レンタル販売つくし【特定福祉用具販売】三重県岸岡町３０７８-8", "url": "https://www.kaigokensaku.mhlw.go.jp/24/index.php?action_kouhyou_detail_004_kani=true&JigyosyoCd=2470302940-00&ServiceCd=410&Type=search", "url2": null }, "geometry": { "type": "Point", "coordinates": [ 136.608688699999988, 34.8507638 ] } },
{ "type": "Feature", "properties": { "内容": "三重県名張市梅が丘北三番町２７６番地【特定福祉用具販売】梅が丘北三番町２７６番地", "url": "https://www.kaigokensaku.mhlw.go.jp/24/index.php?action_kouhyou_detail_004_kani=true&JigyosyoCd=2471301628-00&ServiceCd=410&Type=search", "url2": "http://sunao-kaigotools.jp/" }, "geometry": { "type": "Point", "coordinates": [ 136.0861313, 34.6367655 ] } },
{ "type": "Feature", "properties": { "内容": "株式会社ケアクレスト　名張事業所【特定福祉用具販売】三重県名張市東町1747-8", "url": "https://www.kaigokensaku.mhlw.go.jp/24/index.php?action_kouhyou_detail_004_kani=true&JigyosyoCd=2471301503-00&ServiceCd=410&Type=search", "url2": "https://carecrest.studio.site/" }, "geometry": { "type": "Point", "coordinates": [ 136.0955597, 34.627773 ] } },
{ "type": "Feature", "properties": { "内容": "ワイズライフサポート【特定福祉用具販売】三重県名張市桔梗が丘4番町5-7-10　2階", "url": "https://www.kaigokensaku.mhlw.go.jp/24/index.php?action_kouhyou_detail_004_kani=true&JigyosyoCd=2471301552-00&ServiceCd=410&Type=search", "url2": null }, "geometry": { "type": "Point", "coordinates": [ 136.124432399999989, 34.6487449 ] } },
{ "type": "Feature", "properties": { "内容": "ライフ・テクノサービス名張【特定福祉用具販売】三重県名張市鴻之台1-72", "url": "https://www.kaigokensaku.mhlw.go.jp/24/index.php?action_kouhyou_detail_004_kani=true&JigyosyoCd=2471300935-00&ServiceCd=410&Type=search", "url2": "https://www.life-techno.jp/" }, "geometry": { "type": "Point", "coordinates": [ 136.112028193201581, 34.630563454369991 ] } },
{ "type": "Feature", "properties": { "内容": "株式会社愛安住　名張営業所【特定福祉用具販売】三重県名張市夏見494-20", "url": "https://www.kaigokensaku.mhlw.go.jp/24/index.php?action_kouhyou_detail_004_kani=true&JigyosyoCd=2471300653-00&ServiceCd=410&Type=search", "url2": "https://www.aianju.co.jp" }, "geometry": { "type": "Point", "coordinates": [ 136.101108132540929, 34.614990626766719 ] } },
{ "type": "Feature", "properties": { "内容": "福祉ショップ　ライト【特定福祉用具販売】三重県尾鷲市大字向井127-1サービス付き高齢者向け住宅内", "url": "https://www.kaigokensaku.mhlw.go.jp/24/index.php?action_kouhyou_detail_004_kani=true&JigyosyoCd=2471000576-00&ServiceCd=410&Type=search", "url2": null }, "geometry": { "type": "Point", "coordinates": [ 136.21479117724607, 34.059706866353245 ] } },
{ "type": "Feature", "properties": { "内容": "合同会社　Ｕｐ【特定福祉用具販売】三重県尾鷲市栄町7番17号", "url": "https://www.kaigokensaku.mhlw.go.jp/24/index.php?action_kouhyou_detail_004_kani=true&JigyosyoCd=2471000642-00&ServiceCd=410&Type=search", "url2": null }, "geometry": { "type": "Point", "coordinates": [ 136.1951501, 34.0758026 ] } },
{ "type": "Feature", "properties": { "内容": "介護ショップ　まんまる【特定福祉用具販売】三重県亀山市栄町１４８８-２０５", "url": "https://www.kaigokensaku.mhlw.go.jp/24/index.php?action_kouhyou_detail_004_kani=true&JigyosyoCd=2470400355-00&ServiceCd=410&Type=search", "url2": "manmarukaigo.co.jp" }, "geometry": { "type": "Point", "coordinates": [ 136.470947799999976, 34.8580418 ] } },
{ "type": "Feature", "properties": { "内容": "株式会社スグリ【特定福祉用具販売】三重県亀山市東御幸町１２０－１０第２亀山プラザ１Ｆ", "url": "https://www.kaigokensaku.mhlw.go.jp/24/index.php?action_kouhyou_detail_004_kani=true&JigyosyoCd=2470401015-00&ServiceCd=410&Type=search", "url2": null }, "geometry": { "type": "Point", "coordinates": [ 136.4530684, 34.8500638 ] } },
{ "type": "Feature", "properties": { "内容": "株式会社　安心クリエイト【特定福祉用具販売】三重県鳥羽市大明西町6番8号", "url": "https://www.kaigokensaku.mhlw.go.jp/24/index.php?action_kouhyou_detail_004_kani=true&JigyosyoCd=2470900255-00&ServiceCd=410&Type=search", "url2": null }, "geometry": { "type": "Point", "coordinates": [ 136.845935342035943, 34.469210856300506 ] } },
{ "type": "Feature", "properties": { "内容": "有限会社タキモト【特定福祉用具販売】三重県熊野市木本町633-3", "url": "https://www.kaigokensaku.mhlw.go.jp/24/index.php?action_kouhyou_detail_004_kani=true&JigyosyoCd=2471100103-00&ServiceCd=410&Type=search", "url2": null }, "geometry": { "type": "Point", "coordinates": [ 136.10061440000004, 33.890982056996286 ] } },
{ "type": "Feature", "properties": { "内容": "ＡＩＤＣＡＲＥ福祉用具レンタル・販売【特定福祉用具販売】三重県いなべ市員弁町東一色９３９番地2", "url": "https://www.kaigokensaku.mhlw.go.jp/24/index.php?action_kouhyou_detail_004_kani=true&JigyosyoCd=2471400883-00&ServiceCd=410&Type=search", "url2": "aidcare4165@yahoo.co.jp" }, "geometry": { "type": "Point", "coordinates": [ 136.571177899999981, 35.0957706 ] } },
{ "type": "Feature", "properties": { "内容": "つなぐ介護用品【特定福祉用具販売】三重県いなべ市員弁町上笠田2654番地1", "url": "https://www.kaigokensaku.mhlw.go.jp/24/index.php?action_kouhyou_detail_004_kani=true&JigyosyoCd=2471400875-00&ServiceCd=410&Type=search", "url2": null }, "geometry": { "type": "Point", "coordinates": [ 136.5490462, 35.1240353 ] } },
{ "type": "Feature", "properties": { "内容": "虹福祉用具レンタル【特定福祉用具販売】三重県志摩市阿児町鵜方874-170メゾン横山Ⅰ　103号室", "url": "https://www.kaigokensaku.mhlw.go.jp/24/index.php?action_kouhyou_detail_004_kani=true&JigyosyoCd=2472901897-00&ServiceCd=410&Type=search", "url2": null }, "geometry": { "type": "Point", "coordinates": [ 136.8028314, 34.3365912 ] } },
{ "type": "Feature", "properties": { "内容": "介護と福祉のお店　ほうわ【特定福祉用具販売】志摩市磯部町穴川1183-90", "url": "https://www.kaigokensaku.mhlw.go.jp/24/index.php?action_kouhyou_detail_004_kani=true&JigyosyoCd=2472901178-00&ServiceCd=410&Type=search", "url2": "http://www.houwakai.or.jp" }, "geometry": { "type": "Point", "coordinates": [ 136.812811300000021, 34.3494121 ] } },
{ "type": "Feature", "properties": { "内容": "しま福祉用具貸与販売事業　シルバーケア豊壽園【特定福祉用具販売】三重県志摩市阿児町鵜方字小入口3503番地10", "url": "https://www.kaigokensaku.mhlw.go.jp/24/index.php?action_kouhyou_detail_004_kani=true&JigyosyoCd=2472901681-00&ServiceCd=410&Type=search", "url2": "http://www,sensin,or,jp" }, "geometry": { "type": "Point", "coordinates": [ 136.8208855, 34.3297179 ] } },
{ "type": "Feature", "properties": { "内容": "株式会社モリ京【特定福祉用具販売】三重県志摩市阿児町鵜方2009番地1", "url": "https://www.kaigokensaku.mhlw.go.jp/24/index.php?action_kouhyou_detail_004_kani=true&JigyosyoCd=2472900196-00&ServiceCd=410&Type=search", "url2": null }, "geometry": { "type": "Point", "coordinates": [ 136.828957299999956, 34.3295454 ] } },
{ "type": "Feature", "properties": { "内容": "大木薬局　浜島店【特定福祉用具販売】三重県志摩市浜島町浜島3219番地", "url": "https://www.kaigokensaku.mhlw.go.jp/24/index.php?action_kouhyou_detail_004_kani=true&JigyosyoCd=2472901913-00&ServiceCd=410&Type=search", "url2": "https://www.pharmarise.com/" }, "geometry": { "type": "Point", "coordinates": [ 136.7493038, 34.2979322 ] } },
{ "type": "Feature", "properties": { "内容": "ライフ・テクノサービス志摩【特定福祉用具販売】三重県志摩市阿児鵜方1146-3", "url": "https://www.kaigokensaku.mhlw.go.jp/24/index.php?action_kouhyou_detail_004_kani=true&JigyosyoCd=2472901699-00&ServiceCd=410&Type=search", "url2": "http://www.life-techno/jp/" }, "geometry": { "type": "Point", "coordinates": [ 136.818702025820357, 34.331766242872561 ] } },
{ "type": "Feature", "properties": { "内容": "Ｐ－あしすと【特定福祉用具販売】三重県志摩市阿児町鵜方5264番地1", "url": "https://www.kaigokensaku.mhlw.go.jp/24/index.php?action_kouhyou_detail_004_kani=true&JigyosyoCd=2472901806-00&ServiceCd=410&Type=search", "url2": "https://www.danran-shima-recruit.com" }, "geometry": { "type": "Point", "coordinates": [ 136.8152435, 34.325216 ] } },
{ "type": "Feature", "properties": { "内容": "リウセ家具店【特定福祉用具販売】三重県伊賀市上野東町2923", "url": "https://www.kaigokensaku.mhlw.go.jp/24/index.php?action_kouhyou_detail_004_kani=true&JigyosyoCd=2471200531-00&ServiceCd=410&Type=search", "url2": "https://www.riuse-kaguten.com/" }, "geometry": { "type": "Point", "coordinates": [ 136.1319145, 34.7662087 ] } },
{ "type": "Feature", "properties": { "内容": "株式会社ケアクレスト　伊賀事業所【特定福祉用具販売】伊賀市千歳725", "url": "https://www.kaigokensaku.mhlw.go.jp/24/index.php?action_kouhyou_detail_004_kani=true&JigyosyoCd=2471201141-00&ServiceCd=410&Type=search", "url2": "https://carecrest.studio.site/" }, "geometry": { "type": "Point", "coordinates": [ 136.1059775, 34.7390537 ] } },
{ "type": "Feature", "properties": { "内容": "レンタルケアH【特定福祉用具販売】三重県伊賀市ゆめが丘1-3-3　ゆめテクノ伊賀５号", "url": "https://www.kaigokensaku.mhlw.go.jp/24/index.php?action_kouhyou_detail_004_kani=true&JigyosyoCd=2471201448-00&ServiceCd=410&Type=search", "url2": "https://www.rentalcare.co.jp" }, "geometry": { "type": "Point", "coordinates": [ 136.152033823150163, 34.740604075941363 ] } },
{ "type": "Feature", "properties": { "内容": "株式会社　愛安住【特定福祉用具販売】三重県伊賀市大野木2112番地28", "url": "https://www.kaigokensaku.mhlw.go.jp/24/index.php?action_kouhyou_detail_004_kani=true&JigyosyoCd=2471200283-00&ServiceCd=410&Type=search", "url2": "https://www.aianju.co.jp" }, "geometry": { "type": "Point", "coordinates": [ 136.099106099999972, 34.7380397 ] } },
{ "type": "Feature", "properties": { "内容": "株式会社　米岡家具センター【特定福祉用具販売】伊賀市土橋63-1", "url": "https://www.kaigokensaku.mhlw.go.jp/24/index.php?action_kouhyou_detail_004_kani=true&JigyosyoCd=2471200036-00&ServiceCd=410&Type=search", "url2": "http://yoneoka.jimdo.com" }, "geometry": { "type": "Point", "coordinates": [ 136.145561499999985, 34.7903021 ] } },
{ "type": "Feature", "properties": { "内容": "ライフ・テクノサービス伊賀【特定福祉用具販売】伊賀市小田町406-1", "url": "https://www.kaigokensaku.mhlw.go.jp/24/index.php?action_kouhyou_detail_004_kani=true&JigyosyoCd=2471200333-00&ServiceCd=410&Type=search", "url2": "http://www.life-techno.jp/" }, "geometry": { "type": "Point", "coordinates": [ 136.124458575342373, 34.777559831297602 ] } },
{ "type": "Feature", "properties": { "内容": "ブーケ【特定福祉用具販売】員弁郡東員町穴太2578-7", "url": "https://www.kaigokensaku.mhlw.go.jp/24/index.php?action_kouhyou_detail_004_kani=true&JigyosyoCd=2472100771-00&ServiceCd=410&Type=search", "url2": "https://shinei-care-home.wixsite.com/care-home" }, "geometry": { "type": "Point", "coordinates": [ 136.618660699999964, 35.0935642 ] } },
{ "type": "Feature", "properties": { "内容": "株式会社ビューティーマイト【特定福祉用具販売】三重県三重郡菰野町竹成2622-13", "url": "https://www.kaigokensaku.mhlw.go.jp/24/index.php?action_kouhyou_detail_004_kani=true&JigyosyoCd=2472200506-00&ServiceCd=410&Type=search", "url2": "https://www.beauty-mate.jp/" }, "geometry": { "type": "Point", "coordinates": [ 136.5226887, 35.0511833 ] } },
{ "type": "Feature", "properties": { "内容": "福祉用具リバティ【特定福祉用具販売】三重県三重郡菰野町竹成12-5", "url": "https://www.kaigokensaku.mhlw.go.jp/24/index.php?action_kouhyou_detail_004_kani=true&JigyosyoCd=2472200845-00&ServiceCd=410&Type=search", "url2": null }, "geometry": { "type": "Point", "coordinates": [ 136.5054831, 35.0474438 ] } },
{ "type": "Feature", "properties": { "内容": "ユナイト【特定福祉用具販売】三重県三重郡川越町大字亀崎新田字南新田50-7", "url": "https://www.kaigokensaku.mhlw.go.jp/24/index.php?action_kouhyou_detail_004_kani=true&JigyosyoCd=2472200514-00&ServiceCd=410&Type=search", "url2": "https://unite-n.jp/" }, "geometry": { "type": "Point", "coordinates": [ 136.684185500000012, 35.0195629 ] } },
{ "type": "Feature", "properties": { "内容": "太陽福祉用具貸与・販売【特定福祉用具販売】三重県多気郡多気町河田406", "url": "https://www.kaigokensaku.mhlw.go.jp/24/index.php?action_kouhyou_detail_004_kani=true&JigyosyoCd=2472701255-00&ServiceCd=410&Type=search", "url2": "https://www.taiyou-tt.com" }, "geometry": { "type": "Point", "coordinates": [ 136.583891286508162, 34.521726698904963 ] } },
{ "type": "Feature", "properties": { "内容": "特定福祉用具販売【特定福祉用具販売】三重県多気郡明和町坂本１２５０－１", "url": "https://www.kaigokensaku.mhlw.go.jp/24/index.php?action_kouhyou_detail_004_kani=true&JigyosyoCd=2472701065-00&ServiceCd=410&Type=search", "url2": null }, "geometry": { "type": "Point", "coordinates": [ 136.617642600000011, 34.5470577 ] } },
{ "type": "Feature", "properties": { "内容": "有限会社オオヤ産業　介護事業部【特定福祉用具販売】紀北町東長島2664-79", "url": "https://www.kaigokensaku.mhlw.go.jp/24/index.php?action_kouhyou_detail_004_kani=true&JigyosyoCd=2473000343-00&ServiceCd=410&Type=search", "url2": null }, "geometry": { "type": "Point", "coordinates": [ 136.350328900000022, 34.210473100000023 ] } },
{ "type": "Feature", "properties": { "内容": "ライフサポート　たへや【特定福祉用具販売】三重県北牟婁郡紀北町相賀279-2", "url": "https://www.kaigokensaku.mhlw.go.jp/24/index.php?action_kouhyou_detail_004_kani=true&JigyosyoCd=2473000558-00&ServiceCd=410&Type=search", "url2": null }, "geometry": { "type": "Point", "coordinates": [ 136.2253953, 34.1120856 ] } },
{ "type": "Feature", "properties": { "内容": "株式会社　カマハラ【特定福祉用具販売】三重県南牟婁郡紀宝町鮒田1126", "url": "https://www.kaigokensaku.mhlw.go.jp/24/index.php?action_kouhyou_detail_004_kani=true&JigyosyoCd=2473100135-00&ServiceCd=410&Type=search", "url2": null }, "geometry": { "type": "Point", "coordinates": [ 135.974900599999955, 33.7419916 ] } }
]
}
