{
"type": "FeatureCollection",
"name": "geo_24_認知症対応型通所介護",
"crs": { "type": "name", "properties": { "name": "urn:ogc:def:crs:OGC:1.3:CRS84" } },
"features": [
{ "type": "Feature", "properties": { "内容": "愛の家デイサービス一志【認知症対応型通所介護】三重県津市一志町井生220-1愛の家デイサービス一志", "url": "https://www.kaigokensaku.mhlw.go.jp/24/index.php?action_kouhyou_detail_004_kani=true&JigyosyoCd=2490500135-00&ServiceCd=720&Type=search", "url2": "gh180@mcsg.co.jp" }, "geometry": { "type": "Point", "coordinates": [ 136.3953572, 34.6437953 ] } },
{ "type": "Feature", "properties": { "内容": "デイサービスセンター報徳園【認知症対応型通所介護】津市河辺町1317番地1", "url": "https://www.kaigokensaku.mhlw.go.jp/24/index.php?action_kouhyou_detail_004_kani=true&JigyosyoCd=2470500634-00&ServiceCd=720&Type=search", "url2": "https://www.houtokuen.jp/" }, "geometry": { "type": "Point", "coordinates": [ 136.485998800000061, 34.7500239 ] } },
{ "type": "Feature", "properties": { "内容": "しおりの里認知症対応型デイサービスセンター【認知症対応型通所介護】三重県津市野田2035番地2", "url": "https://www.kaigokensaku.mhlw.go.jp/24/index.php?action_kouhyou_detail_004_kani=true&JigyosyoCd=2490500176-00&ServiceCd=720&Type=search", "url2": "http://www.pmc.or.jp/shiori/" }, "geometry": { "type": "Point", "coordinates": [ 136.462087099999962, 34.7089491 ] } },
{ "type": "Feature", "properties": { "内容": "認知症対応型通所介護　グループホーム美々　シルバーケア豊壽園【認知症対応型通所介護】津市高茶屋小森町字瓦ヶ野4159", "url": "https://www.kaigokensaku.mhlw.go.jp/24/index.php?action_kouhyou_detail_004_kani=true&JigyosyoCd=2490500085-00&ServiceCd=720&Type=search", "url2": "ｗｗｗ.sensin.or.jp" }, "geometry": { "type": "Point", "coordinates": [ 136.495409392898495, 34.672771501683513 ] } },
{ "type": "Feature", "properties": { "内容": "デイサービスセンター渚園【認知症対応型通所介護】三重県津市柳山津興369-14", "url": "https://www.kaigokensaku.mhlw.go.jp/24/index.php?action_kouhyou_detail_004_kani=true&JigyosyoCd=2490500119-00&ServiceCd=720&Type=search", "url2": null }, "geometry": { "type": "Point", "coordinates": [ 136.521105289302113, 34.70754986079146 ] } },
{ "type": "Feature", "properties": { "内容": "認知症・一般通所介護　織りがみの郷【認知症対応型通所介護】三重県四日市市茂福町１－２１", "url": "https://www.kaigokensaku.mhlw.go.jp/24/index.php?action_kouhyou_detail_004_kani=true&JigyosyoCd=2470201969-00&ServiceCd=720&Type=search", "url2": "http://www.origami-kaigo.com/" }, "geometry": { "type": "Point", "coordinates": [ 136.646062799999982, 34.997339 ] } },
{ "type": "Feature", "properties": { "内容": "みえ医療福祉生協デイサービスいくわ【認知症対応型通所介護】三重県四日市市生桑町1455番地", "url": "https://www.kaigokensaku.mhlw.go.jp/24/index.php?action_kouhyou_detail_004_kani=true&JigyosyoCd=2490200108-00&ServiceCd=720&Type=search", "url2": "http://www.mie-hewcoop.jp/" }, "geometry": { "type": "Point", "coordinates": [ 136.596532700000012, 34.9799374 ] } },
{ "type": "Feature", "properties": { "内容": "くぬぎの木デイサービスセンターさくら【認知症対応型通所介護】四日市市赤水町1245-7", "url": "https://www.kaigokensaku.mhlw.go.jp/24/index.php?action_kouhyou_detail_004_kani=true&JigyosyoCd=2490200066-00&ServiceCd=720&Type=search", "url2": "http://www.kunuginoki.jp" }, "geometry": { "type": "Point", "coordinates": [ 136.560220500000014, 35.0094456 ] } },
{ "type": "Feature", "properties": { "内容": "大矢知福祉サービスセンター【認知症対応型通所介護】三重県四日市市川北3丁目1番11号", "url": "https://www.kaigokensaku.mhlw.go.jp/24/index.php?action_kouhyou_detail_004_kani=true&JigyosyoCd=2490200025-00&ServiceCd=720&Type=search", "url2": "http://www.jcs-jcs.com" }, "geometry": { "type": "Point", "coordinates": [ 136.642423399999984, 35.0235747 ] } },
{ "type": "Feature", "properties": { "内容": "ピオーネささがわ【認知症対応型通所介護】笹川3丁目48番地", "url": "https://www.kaigokensaku.mhlw.go.jp/24/index.php?action_kouhyou_detail_004_kani=true&JigyosyoCd=2490200496-00&ServiceCd=720&Type=search", "url2": "https://www.kohbun.com" }, "geometry": { "type": "Point", "coordinates": [ 136.5745171, 34.951886 ] } },
{ "type": "Feature", "properties": { "内容": "在宅総合センター宮川さくら苑こもれび【認知症対応型通所介護】三重県伊勢市中島2丁目20－8", "url": "https://www.kaigokensaku.mhlw.go.jp/24/index.php?action_kouhyou_detail_004_kani=true&JigyosyoCd=2490800162-00&ServiceCd=720&Type=search", "url2": "http://www.isewatarai-iryoseikyo.com" }, "geometry": { "type": "Point", "coordinates": [ 136.687998900000053, 34.490382500000017 ] } },
{ "type": "Feature", "properties": { "内容": "双寿園認知症対応型デイサービスセンター【認知症対応型通所介護】三重県伊勢市河崎3-15-33", "url": "https://www.kaigokensaku.mhlw.go.jp/24/index.php?action_kouhyou_detail_004_kani=true&JigyosyoCd=2490800014-00&ServiceCd=720&Type=search", "url2": "http://www.hoeikai.or.jp" }, "geometry": { "type": "Point", "coordinates": [ 136.718765599999983, 34.4957555 ] } },
{ "type": "Feature", "properties": { "内容": "デイホーム　みそのむら【認知症対応型通所介護】三重県伊勢市御薗町高向481", "url": "https://www.kaigokensaku.mhlw.go.jp/24/index.php?action_kouhyou_detail_004_kani=true&JigyosyoCd=2490800204-00&ServiceCd=720&Type=search", "url2": "ghmisono@amigo2.ne.jp" }, "geometry": { "type": "Point", "coordinates": [ 136.702417100000048, 34.5026953 ] } },
{ "type": "Feature", "properties": { "内容": "デイサービスセンター　なごやか【認知症対応型通所介護】松阪市垣鼻町１６３８－１７", "url": "https://www.kaigokensaku.mhlw.go.jp/24/index.php?action_kouhyou_detail_004_kani=true&JigyosyoCd=2490700065-00&ServiceCd=720&Type=search", "url2": "http://www.sawayaka-well.jp" }, "geometry": { "type": "Point", "coordinates": [ 136.538953200000037, 34.5639924 ] } },
{ "type": "Feature", "properties": { "内容": "にんちしょうたいおうがたつうしょかいご　さとり【認知症対応型通所介護】三重県松阪市殿町1446-53長谷川マンション１階", "url": "https://www.kaigokensaku.mhlw.go.jp/24/index.php?action_kouhyou_detail_004_kani=true&JigyosyoCd=2490700511-00&ServiceCd=720&Type=search", "url2": "https://www.big-advance.site/c/153/1446" }, "geometry": { "type": "Point", "coordinates": [ 136.5257712, 34.5731354 ] } },
{ "type": "Feature", "properties": { "内容": "すずらん太陽の家【認知症対応型通所介護】三重県桑名市大字下深谷部城之堀102-2", "url": "https://www.kaigokensaku.mhlw.go.jp/24/index.php?action_kouhyou_detail_004_kani=true&JigyosyoCd=2490100068-00&ServiceCd=720&Type=search", "url2": null }, "geometry": { "type": "Point", "coordinates": [ 136.672410338098217, 35.095848519687848 ] } },
{ "type": "Feature", "properties": { "内容": "アパティアデイサービスなないろ【認知症対応型通所介護】桑名市長島町西外面１０７０", "url": "https://www.kaigokensaku.mhlw.go.jp/24/index.php?action_kouhyou_detail_004_kani=true&JigyosyoCd=2490100027-00&ServiceCd=720&Type=search", "url2": "http://www.apatheia.jp" }, "geometry": { "type": "Point", "coordinates": [ 136.692095900000027, 35.0938962 ] } },
{ "type": "Feature", "properties": { "内容": "宅老所　ふるさとの家【認知症対応型通所介護】三重県桑名市大字北別所字蔵金坊１６０７番地", "url": "https://www.kaigokensaku.mhlw.go.jp/24/index.php?action_kouhyou_detail_004_kani=true&JigyosyoCd=2490100100-00&ServiceCd=720&Type=search", "url2": "http://www.takurousho-furusato.com/news/html/" }, "geometry": { "type": "Point", "coordinates": [ 136.683803, 35.0622161 ] } },
{ "type": "Feature", "properties": { "内容": "つきのこみちデイサービス【認知症対応型通所介護】三重県桑名市福島853番1ケアガーデンつきのこみち内", "url": "https://www.kaigokensaku.mhlw.go.jp/24/index.php?action_kouhyou_detail_004_kani=true&JigyosyoCd=2490100324-00&ServiceCd=720&Type=search", "url2": "https://www.kobayaku.com/" }, "geometry": { "type": "Point", "coordinates": [ 136.685519399999947, 35.0742566 ] } },
{ "type": "Feature", "properties": { "内容": "認知症対応型通所介護センター愛すみよし苑【認知症対応型通所介護】鈴鹿市住吉一丁目２３－８", "url": "https://www.kaigokensaku.mhlw.go.jp/24/index.php?action_kouhyou_detail_004_kani=true&JigyosyoCd=2490300098-00&ServiceCd=720&Type=search", "url2": null }, "geometry": { "type": "Point", "coordinates": [ 136.537473500000033, 34.8637421 ] } },
{ "type": "Feature", "properties": { "内容": "共用型デイサービスグループホームくすのき園【認知症対応型通所介護】三重県鈴鹿市上箕田町字近田2638-8", "url": "https://www.kaigokensaku.mhlw.go.jp/24/index.php?action_kouhyou_detail_004_kani=true&JigyosyoCd=2490300312-00&ServiceCd=720&Type=search", "url2": "http://jidoukai-kusunokien.com" }, "geometry": { "type": "Point", "coordinates": [ 136.6114203, 34.8850433 ] } },
{ "type": "Feature", "properties": { "内容": "デイハウス沙羅【認知症対応型通所介護】鈴鹿市安塚町638-16", "url": "https://www.kaigokensaku.mhlw.go.jp/24/index.php?action_kouhyou_detail_004_kani=true&JigyosyoCd=2470300043-00&ServiceCd=720&Type=search", "url2": "http://www.ito-pharmacy.jp/" }, "geometry": { "type": "Point", "coordinates": [ 136.5711212, 34.8671861 ] } },
{ "type": "Feature", "properties": { "内容": "グル―プホーム花しょうぶ苑【認知症対応型通所介護】三重県亀山市本町１丁目２番１２号", "url": "https://www.kaigokensaku.mhlw.go.jp/24/index.php?action_kouhyou_detail_004_kani=true&JigyosyoCd=2470400132-00&ServiceCd=720&Type=search", "url2": "https://www.hanashoubuen.com" }, "geometry": { "type": "Point", "coordinates": [ 136.4596889, 34.852573 ] } },
{ "type": "Feature", "properties": { "内容": "共用型デイサービスうさぎ亀山グループホーム【認知症対応型通所介護】三重県亀山市川合町1119番地38", "url": "https://www.kaigokensaku.mhlw.go.jp/24/index.php?action_kouhyou_detail_004_kani=true&JigyosyoCd=2490400021-00&ServiceCd=720&Type=search", "url2": null }, "geometry": { "type": "Point", "coordinates": [ 136.474668799999989, 34.8702525 ] } },
{ "type": "Feature", "properties": { "内容": "ラ・ケアとば【認知症対応型通所介護】三重県鳥羽市鳥羽１丁目2070", "url": "https://www.kaigokensaku.mhlw.go.jp/24/index.php?action_kouhyou_detail_004_kani=true&JigyosyoCd=2490900038-00&ServiceCd=720&Type=search", "url2": null }, "geometry": { "type": "Point", "coordinates": [ 136.8386049, 34.4873542 ] } },
{ "type": "Feature", "properties": { "内容": "モモ・いなべ【認知症対応型通所介護】三重県いなべ市北勢町阿下喜3514", "url": "https://www.kaigokensaku.mhlw.go.jp/24/index.php?action_kouhyou_detail_004_kani=true&JigyosyoCd=2491400020-00&ServiceCd=720&Type=search", "url2": "https://www.momo3.net/" }, "geometry": { "type": "Point", "coordinates": [ 136.511644, 35.1478436 ] } },
{ "type": "Feature", "properties": { "内容": "認知症対応型通所介護センター浜島シルバーケア豊壽園【認知症対応型通所介護】志摩市浜島町南張1816", "url": "https://www.kaigokensaku.mhlw.go.jp/24/index.php?action_kouhyou_detail_004_kani=true&JigyosyoCd=2492900200-00&ServiceCd=720&Type=search", "url2": null }, "geometry": { "type": "Point", "coordinates": [ 136.7220517, 34.3073518 ] } },
{ "type": "Feature", "properties": { "内容": "認知症対応型通所介護センター大王シルバーケア豊壽園【認知症対応型通所介護】志摩市大王町波切2981番地2", "url": "https://www.kaigokensaku.mhlw.go.jp/24/index.php?action_kouhyou_detail_004_kani=true&JigyosyoCd=2492900192-00&ServiceCd=720&Type=search", "url2": null }, "geometry": { "type": "Point", "coordinates": [ 136.8818047, 34.2822772 ] } },
{ "type": "Feature", "properties": { "内容": "デイサービス　はあとの杜　上野【認知症対応型通所介護】三重県伊賀市緑ヶ丘本町1606デイサービスはあとの杜上野", "url": "https://www.kaigokensaku.mhlw.go.jp/24/index.php?action_kouhyou_detail_004_kani=true&JigyosyoCd=2491200024-00&ServiceCd=720&Type=search", "url2": "http://www.heartland.or.jp/heart_mori/ueno/subwin.htm" }, "geometry": { "type": "Point", "coordinates": [ 136.141293840475441, 34.762243886803113 ] } },
{ "type": "Feature", "properties": { "内容": "宅老所　第２紫苑【認知症対応型通所介護】三重県員弁郡東員町大字山田１０５５番地", "url": "https://www.kaigokensaku.mhlw.go.jp/24/index.php?action_kouhyou_detail_004_kani=true&JigyosyoCd=2472100540-00&ServiceCd=720&Type=search", "url2": "http://www.sion-toin.com/" }, "geometry": { "type": "Point", "coordinates": [ 136.590995813322451, 35.071081586541823 ] } },
{ "type": "Feature", "properties": { "内容": "合同会社　さとちゃん家【認知症対応型通所介護】三重県員弁郡東員町長深2933-1", "url": "https://www.kaigokensaku.mhlw.go.jp/24/index.php?action_kouhyou_detail_004_kani=true&JigyosyoCd=2492100090-00&ServiceCd=720&Type=search", "url2": null }, "geometry": { "type": "Point", "coordinates": [ 136.577004404817558, 35.0559510981196 ] } },
{ "type": "Feature", "properties": { "内容": "認知症対応型通所介護　さんさん【認知症対応型通所介護】三重県三重郡菰野町千草字東江野7045番地73湯の山介護老人保健施設内", "url": "https://www.kaigokensaku.mhlw.go.jp/24/index.php?action_kouhyou_detail_004_kani=true&JigyosyoCd=2492200080-00&ServiceCd=720&Type=search", "url2": "http://www.yonaha.jp/yunoyama.htm" }, "geometry": { "type": "Point", "coordinates": [ 136.480068199999977, 35.0177553 ] } },
{ "type": "Feature", "properties": { "内容": "愛の家デイサービス大台【認知症対応型通所介護】三重県多気郡大台町栃原1147-2", "url": "https://www.kaigokensaku.mhlw.go.jp/24/index.php?action_kouhyou_detail_004_kani=true&JigyosyoCd=2492700055-00&ServiceCd=720&Type=search", "url2": "http:gh-181@mcsg.co.jp" }, "geometry": { "type": "Point", "coordinates": [ 136.5186688, 34.4469863 ] } },
{ "type": "Feature", "properties": { "内容": "なでしこ大紀【認知症対応型通所介護】三重県度会郡大紀町崎181-4", "url": "https://www.kaigokensaku.mhlw.go.jp/24/index.php?action_kouhyou_detail_004_kani=true&JigyosyoCd=2492800012-00&ServiceCd=720&Type=search", "url2": null }, "geometry": { "type": "Point", "coordinates": [ 136.395354699999984, 34.2993037 ] } }
]
}
