{
"type": "FeatureCollection",
"name": "geo_24_高等専門学校",
"crs": { "type": "name", "properties": { "name": "urn:ogc:def:crs:EPSG::6668" } },
"features": [
{ "type": "Feature", "properties": { "P29_001": "24207", "P29_002": "G124110107256", "P29_003": "16005", "P29_004": "鈴鹿工業高等専門学校", "P29_005": "三重県鈴鹿市白子町", "P29_006": "1", "P29_007": "0", "P29_008": "00", "P29_009": null }, "geometry": { "type": "Point", "coordinates": [ 136.581313561896962, 34.84971630512738 ] } },
{ "type": "Feature", "properties": { "P29_001": "24211", "P29_002": "G124110107265", "P29_003": "16005", "P29_004": "鳥羽商船高等専門学校", "P29_005": "三重県鳥羽市池上町1-1", "P29_006": "1", "P29_007": "0", "P29_008": "00", "P29_009": null }, "geometry": { "type": "Point", "coordinates": [ 136.825256769133858, 34.482545082481337 ] } },
{ "type": "Feature", "properties": { "P29_001": "24208", "P29_002": "G124310107270", "P29_003": "16005", "P29_004": "近畿大学工業高等専門学校", "P29_005": "三重県名張市春日丘7番町1", "P29_006": "4", "P29_007": "0", "P29_008": "00", "P29_009": null }, "geometry": { "type": "Point", "coordinates": [ 136.12126876488702, 34.6146679667931 ] } }
]
}
