{
"type": "FeatureCollection",
"name": "geo_24_高校",
"crs": { "type": "name", "properties": { "name": "urn:ogc:def:crs:EPSG::6668" } },
"features": [
{ "type": "Feature", "properties": { "P29_001": "24205", "P29_002": "D124210050016", "P29_003": "16004", "P29_004": "三重県立桑名高等学校", "P29_005": "三重県桑名市東方1795", "P29_006": "2", "P29_007": "0", "P29_008": "00", "P29_009": null }, "geometry": { "type": "Point", "coordinates": [ 136.67732050022633, 35.066143729367958 ] } },
{ "type": "Feature", "properties": { "P29_001": "24205", "P29_002": "D124210050025", "P29_003": "16004", "P29_004": "三重県立桑名西高等学校", "P29_005": "三重県桑名市大字志知字東山2839", "P29_006": "2", "P29_007": "0", "P29_008": "00", "P29_009": null }, "geometry": { "type": "Point", "coordinates": [ 136.607796668300267, 35.04742025763089 ] } },
{ "type": "Feature", "properties": { "P29_001": "24205", "P29_002": "D124210050034", "P29_003": "16004", "P29_004": "三重県立桑名北高等学校", "P29_005": "三重県桑名市下深谷部字山王2527", "P29_006": "2", "P29_007": "0", "P29_008": "00", "P29_009": null }, "geometry": { "type": "Point", "coordinates": [ 136.659468093461896, 35.093279495580717 ] } },
{ "type": "Feature", "properties": { "P29_001": "24205", "P29_002": "D124210050043", "P29_003": "16004", "P29_004": "三重県立桑名工業高等学校", "P29_005": "三重県桑名市芳ヶ崎1330-1", "P29_006": "2", "P29_007": "0", "P29_008": "00", "P29_009": null }, "geometry": { "type": "Point", "coordinates": [ 136.617019500206681, 35.076642764048181 ] } },
{ "type": "Feature", "properties": { "P29_001": "24214", "P29_002": "D124210050052", "P29_003": "16004", "P29_004": "三重県立いなべ総合学園高等学校", "P29_005": "三重県いなべ市員弁町御薗632", "P29_006": "2", "P29_007": "0", "P29_008": "00", "P29_009": null }, "geometry": { "type": "Point", "coordinates": [ 136.553017420695426, 35.106183702659408 ] } },
{ "type": "Feature", "properties": { "P29_001": "24344", "P29_002": "D124210050061", "P29_003": "16004", "P29_004": "三重県立川越高等学校", "P29_005": "三重県三重郡川越町豊田2302-1", "P29_006": "2", "P29_007": "0", "P29_008": "00", "P29_009": null }, "geometry": { "type": "Point", "coordinates": [ 136.666414578941954, 35.02765238044416 ] } },
{ "type": "Feature", "properties": { "P29_001": "24202", "P29_002": "D124210050070", "P29_003": "16004", "P29_004": "三重県立四日市高等学校", "P29_005": "三重県四日市市富田4-1-43", "P29_006": "2", "P29_007": "0", "P29_008": "00", "P29_009": null }, "geometry": { "type": "Point", "coordinates": [ 136.647726044462388, 35.0074069594611 ] } },
{ "type": "Feature", "properties": { "P29_001": "24202", "P29_002": "D124210050089", "P29_003": "16004", "P29_004": "三重県立四日市南高等学校", "P29_005": "三重県四日市市大字日永字岡山4917", "P29_006": "2", "P29_007": "0", "P29_008": "00", "P29_009": null }, "geometry": { "type": "Point", "coordinates": [ 136.591341576899765, 34.951502566923011 ] } },
{ "type": "Feature", "properties": { "P29_001": "24202", "P29_002": "D124210050098", "P29_003": "16004", "P29_004": "三重県立四日市西高等学校", "P29_005": "三重県四日市市桜町6100", "P29_006": "2", "P29_007": "0", "P29_008": "00", "P29_009": null }, "geometry": { "type": "Point", "coordinates": [ 136.532855890036956, 34.991451563511148 ] } },
{ "type": "Feature", "properties": { "P29_001": "24202", "P29_002": "D124210050105", "P29_003": "16004", "P29_004": "三重県立朝明高等学校", "P29_005": "三重県四日市市中野町2216", "P29_006": "2", "P29_007": "0", "P29_008": "00", "P29_009": null }, "geometry": { "type": "Point", "coordinates": [ 136.54680590637517, 35.040170199892366 ] } },
{ "type": "Feature", "properties": { "P29_001": "24202", "P29_002": "D124210050114", "P29_003": "16004", "P29_004": "三重県立四日市四郷高等学校", "P29_005": "三重県四日市市八王子町字高花1654", "P29_006": "2", "P29_007": "0", "P29_008": "00", "P29_009": null }, "geometry": { "type": "Point", "coordinates": [ 136.560063659014673, 34.952824420726103 ] } },
{ "type": "Feature", "properties": { "P29_001": "24202", "P29_002": "D124210050123", "P29_003": "16004", "P29_004": "三重県立四日市農芸高等学校", "P29_005": "三重県四日市市河原田町2847", "P29_006": "2", "P29_007": "0", "P29_008": "00", "P29_009": null }, "geometry": { "type": "Point", "coordinates": [ 136.592910068334305, 34.913000475567259 ] } },
{ "type": "Feature", "properties": { "P29_001": "24202", "P29_002": "D124210050132", "P29_003": "16004", "P29_004": "三重県立四日市工業高等学校", "P29_005": "三重県四日市市日永東3-4-63", "P29_006": "2", "P29_007": "0", "P29_008": "00", "P29_009": null }, "geometry": { "type": "Point", "coordinates": [ 136.607370990486146, 34.945252196671234 ] } },
{ "type": "Feature", "properties": { "P29_001": "24202", "P29_002": "D124210050141", "P29_003": "16004", "P29_004": "三重県立四日市中央工業高等学校", "P29_005": "三重県四日市市菅原町678", "P29_006": "2", "P29_007": "0", "P29_008": "00", "P29_009": null }, "geometry": { "type": "Point", "coordinates": [ 136.557946227640514, 34.996582518265363 ] } },
{ "type": "Feature", "properties": { "P29_001": "24202", "P29_002": "D124210050150", "P29_003": "16004", "P29_004": "三重県立四日市商業高等学校", "P29_005": "三重県四日市市尾平町字永代寺2745", "P29_006": "2", "P29_007": "0", "P29_008": "00", "P29_009": null }, "geometry": { "type": "Point", "coordinates": [ 136.59256041741304, 34.981156429103549 ] } },
{ "type": "Feature", "properties": { "P29_001": "24202", "P29_002": "D124210050169", "P29_003": "16004", "P29_004": "三重県立北星高等学校", "P29_005": "三重県四日市市大字茂福字横座668-1", "P29_006": "2", "P29_007": "0", "P29_008": "00", "P29_009": null }, "geometry": { "type": "Point", "coordinates": [ 136.641340637535052, 35.008460530639823 ] } },
{ "type": "Feature", "properties": { "P29_001": "24341", "P29_002": "D124210050178", "P29_003": "16004", "P29_004": "三重県立菰野高等学校", "P29_005": "三重県三重郡菰野町大字福村870", "P29_006": "2", "P29_007": "0", "P29_008": "00", "P29_009": null }, "geometry": { "type": "Point", "coordinates": [ 136.519151932170502, 35.015284657315419 ] } },
{ "type": "Feature", "properties": { "P29_001": "24207", "P29_002": "D124210050187", "P29_003": "16004", "P29_004": "三重県立神戸高等学校", "P29_005": "三重県鈴鹿市神戸4-1-80", "P29_006": "2", "P29_007": "0", "P29_008": "00", "P29_009": null }, "geometry": { "type": "Point", "coordinates": [ 136.579160534557559, 34.879180944957973 ] } },
{ "type": "Feature", "properties": { "P29_001": "24207", "P29_002": "D124210050196", "P29_003": "16004", "P29_004": "三重県立白子高等学校", "P29_005": "三重県鈴鹿市白子4-17-1", "P29_006": "2", "P29_007": "0", "P29_008": "00", "P29_009": null }, "geometry": { "type": "Point", "coordinates": [ 136.582393381138417, 34.834595609077901 ] } },
{ "type": "Feature", "properties": { "P29_001": "24207", "P29_002": "D124210050203", "P29_003": "16004", "P29_004": "三重県立石薬師高等学校", "P29_005": "三重県鈴鹿市石薬師町字寺東452", "P29_006": "2", "P29_007": "0", "P29_008": "00", "P29_009": null }, "geometry": { "type": "Point", "coordinates": [ 136.552323459681105, 34.903553327561404 ] } },
{ "type": "Feature", "properties": { "P29_001": "24207", "P29_002": "D124210050212", "P29_003": "16004", "P29_004": "三重県立稲生高等学校", "P29_005": "三重県鈴鹿市稲生町8232-1", "P29_006": "2", "P29_007": "0", "P29_008": "00", "P29_009": null }, "geometry": { "type": "Point", "coordinates": [ 136.553830185352496, 34.847558632714716 ] } },
{ "type": "Feature", "properties": { "P29_001": "24207", "P29_002": "D124210050221", "P29_003": "16004", "P29_004": "三重県立飯野高等学校", "P29_005": "三重県鈴鹿市三日市町字東新田場1695", "P29_006": "2", "P29_007": "0", "P29_008": "00", "P29_009": null }, "geometry": { "type": "Point", "coordinates": [ 136.550871701020611, 34.867319180622182 ] } },
{ "type": "Feature", "properties": { "P29_001": "24210", "P29_002": "D124210050230", "P29_003": "16004", "P29_004": "三重県立亀山高等学校", "P29_005": "三重県亀山市本町1-10-1", "P29_006": "2", "P29_007": "0", "P29_008": "00", "P29_009": null }, "geometry": { "type": "Point", "coordinates": [ 136.462929003727709, 34.852530996774256 ] } },
{ "type": "Feature", "properties": { "P29_001": "24201", "P29_002": "D124210050249", "P29_003": "16004", "P29_004": "三重県立津高等学校", "P29_005": "三重県津市新町3-1-1", "P29_006": "2", "P29_007": "0", "P29_008": "00", "P29_009": null }, "geometry": { "type": "Point", "coordinates": [ 136.490995855270683, 34.719090344045519 ] } },
{ "type": "Feature", "properties": { "P29_001": "24201", "P29_002": "D124210050258", "P29_003": "16004", "P29_004": "三重県立津西高等学校", "P29_005": "三重県津市河辺町2210-2", "P29_006": "2", "P29_007": "0", "P29_008": "00", "P29_009": null }, "geometry": { "type": "Point", "coordinates": [ 136.486031614996051, 34.747007700335125 ] } },
{ "type": "Feature", "properties": { "P29_001": "24201", "P29_002": "D124210050267", "P29_003": "16004", "P29_004": "三重県立津東高等学校", "P29_005": "三重県津市一身田上津部田1470", "P29_006": "2", "P29_007": "0", "P29_008": "00", "P29_009": null }, "geometry": { "type": "Point", "coordinates": [ 136.495926633874745, 34.741650339497589 ] } },
{ "type": "Feature", "properties": { "P29_001": "24201", "P29_002": "D124210050276", "P29_003": "16004", "P29_004": "三重県立津工業高等学校", "P29_005": "三重県津市半田534", "P29_006": "2", "P29_007": "0", "P29_008": "00", "P29_009": null }, "geometry": { "type": "Point", "coordinates": [ 136.497698862493394, 34.709729276737725 ] } },
{ "type": "Feature", "properties": { "P29_001": "24201", "P29_002": "D124210050285", "P29_003": "16004", "P29_004": "三重県立津商業高等学校", "P29_005": "三重県津市渋見町699", "P29_006": "2", "P29_007": "0", "P29_008": "00", "P29_009": null }, "geometry": { "type": "Point", "coordinates": [ 136.49826795725707, 34.735732291789184 ] } },
{ "type": "Feature", "properties": { "P29_001": "24201", "P29_002": "D124210050294", "P29_003": "16004", "P29_004": "三重県立みえ夢学園高等学校", "P29_005": "三重県津市柳山津興1239", "P29_006": "2", "P29_007": "0", "P29_008": "00", "P29_009": null }, "geometry": { "type": "Point", "coordinates": [ 136.513617935842944, 34.705727294991853 ] } },
{ "type": "Feature", "properties": { "P29_001": "24201", "P29_002": "D124210050301", "P29_003": "16004", "P29_004": "三重県立久居高等学校", "P29_005": "三重県津市戸木町3569-1", "P29_006": "2", "P29_007": "0", "P29_008": "00", "P29_009": null }, "geometry": { "type": "Point", "coordinates": [ 136.46178179492361, 34.694888938098636 ] } },
{ "type": "Feature", "properties": { "P29_001": "24201", "P29_002": "D124210050310", "P29_003": "16004", "P29_004": "三重県立久居農林高等学校", "P29_005": "三重県津市久居東鷹跡町105", "P29_006": "2", "P29_007": "0", "P29_008": "00", "P29_009": null }, "geometry": { "type": "Point", "coordinates": [ 136.465909184305787, 34.672805318381542 ] } },
{ "type": "Feature", "properties": { "P29_001": "24201", "P29_002": "D124210050329", "P29_003": "16004", "P29_004": "三重県立白山高等学校", "P29_005": "三重県津市白山町大字南家城678", "P29_006": "2", "P29_007": "0", "P29_008": "00", "P29_009": null }, "geometry": { "type": "Point", "coordinates": [ 136.314744092367789, 34.624972178012108 ] } },
{ "type": "Feature", "properties": { "P29_001": "24204", "P29_002": "D124210050338", "P29_003": "16004", "P29_004": "三重県立松阪高等学校", "P29_005": "三重県松阪市垣鼻町1664", "P29_006": "2", "P29_007": "0", "P29_008": "00", "P29_009": null }, "geometry": { "type": "Point", "coordinates": [ 136.538360858331316, 34.562802500816787 ] } },
{ "type": "Feature", "properties": { "P29_001": "24204", "P29_002": "D124210050347", "P29_003": "16004", "P29_004": "三重県立松阪工業高等学校", "P29_005": "三重県松阪市殿町1417", "P29_006": "2", "P29_007": "0", "P29_008": "00", "P29_009": null }, "geometry": { "type": "Point", "coordinates": [ 136.527191619713733, 34.572823859761712 ] } },
{ "type": "Feature", "properties": { "P29_001": "24204", "P29_002": "D124210050356", "P29_003": "16004", "P29_004": "三重県立松阪商業高等学校", "P29_005": "三重県松阪市豊原町1600", "P29_006": "2", "P29_007": "0", "P29_008": "00", "P29_009": null }, "geometry": { "type": "Point", "coordinates": [ 136.569375421680945, 34.546728917752063 ] } },
{ "type": "Feature", "properties": { "P29_001": "24204", "P29_002": "D124210050365", "P29_003": "16004", "P29_004": "三重県立飯南高等学校", "P29_005": "三重県松阪市飯南町粥見5480-1", "P29_006": "2", "P29_007": "0", "P29_008": "00", "P29_009": null }, "geometry": { "type": "Point", "coordinates": [ 136.37316902576049, 34.448052405072346 ] } },
{ "type": "Feature", "properties": { "P29_001": "24441", "P29_002": "D124210050374", "P29_003": "16004", "P29_004": "三重県立相可高等学校", "P29_005": "三重県多気郡多気町相可50", "P29_006": "2", "P29_007": "0", "P29_008": "00", "P29_009": null }, "geometry": { "type": "Point", "coordinates": [ 136.535544975862081, 34.504425708248945 ] } },
{ "type": "Feature", "properties": { "P29_001": "24443", "P29_002": "D124210050383", "P29_003": "16004", "P29_004": "三重県立昴学園高等学校", "P29_005": "三重県多気郡大台町茂原48", "P29_006": "2", "P29_007": "0", "P29_008": "00", "P29_009": null }, "geometry": { "type": "Point", "coordinates": [ 136.336803669011289, 34.360349616635744 ] } },
{ "type": "Feature", "properties": { "P29_001": "24203", "P29_002": "D124210050392", "P29_003": "16004", "P29_004": "三重県立宇治山田高等学校", "P29_005": "三重県伊勢市浦口3-13-1", "P29_006": "2", "P29_007": "0", "P29_008": "00", "P29_009": null }, "geometry": { "type": "Point", "coordinates": [ 136.693943497054192, 34.487860841863842 ] } },
{ "type": "Feature", "properties": { "P29_001": "24203", "P29_002": "D124210050409", "P29_003": "16004", "P29_004": "三重県立伊勢高等学校", "P29_005": "三重県伊勢市神田久志本町1703-1", "P29_006": "2", "P29_007": "0", "P29_008": "00", "P29_009": null }, "geometry": { "type": "Point", "coordinates": [ 136.728069892316995, 34.488238571397652 ] } },
{ "type": "Feature", "properties": { "P29_001": "24203", "P29_002": "D124210050418", "P29_003": "16004", "P29_004": "三重県立伊勢工業高等学校", "P29_005": "三重県伊勢市神久2-7-18", "P29_006": "2", "P29_007": "0", "P29_008": "00", "P29_009": null }, "geometry": { "type": "Point", "coordinates": [ 136.721490996623771, 34.493365339863225 ] } },
{ "type": "Feature", "properties": { "P29_001": "24203", "P29_002": "D124210050427", "P29_003": "16004", "P29_004": "三重県立宇治山田商業高等学校", "P29_005": "三重県伊勢市黒瀬町1193", "P29_006": "2", "P29_007": "0", "P29_008": "00", "P29_009": null }, "geometry": { "type": "Point", "coordinates": [ 136.740168250464109, 34.493154662091968 ] } },
{ "type": "Feature", "properties": { "P29_001": "24203", "P29_002": "D124210050436", "P29_003": "16004", "P29_004": "三重県立伊勢まなび高等学校", "P29_005": "三重県伊勢市神田久志本町1560", "P29_006": "2", "P29_007": "0", "P29_008": "00", "P29_009": null }, "geometry": { "type": "Point", "coordinates": [ 136.730113948255109, 34.490150612315169 ] } },
{ "type": "Feature", "properties": { "P29_001": "24203", "P29_002": "D124210050445", "P29_003": "16004", "P29_004": "三重県立明野高等学校", "P29_005": "三重県伊勢市小俣町明野1481", "P29_006": "2", "P29_007": "0", "P29_008": "00", "P29_009": null }, "geometry": { "type": "Point", "coordinates": [ 136.666481421609518, 34.526715838662213 ] } },
{ "type": "Feature", "properties": { "P29_001": "24472", "P29_002": "D124210050454", "P29_003": "16004", "P29_004": "三重県立南伊勢高等学校　南勢校舎", "P29_005": "三重県度会郡南伊勢町船越2926-1", "P29_006": "2", "P29_007": "0", "P29_008": "00", "P29_009": null }, "geometry": { "type": "Point", "coordinates": [ 136.692435494029866, 34.345520409402283 ] } },
{ "type": "Feature", "properties": { "P29_001": "24470", "P29_002": "D124210050463", "P29_003": "16004", "P29_004": "三重県立南伊勢高等学校　度会校舎", "P29_005": "三重県度会郡度会町大野木2831", "P29_006": "2", "P29_007": "0", "P29_008": "00", "P29_009": null }, "geometry": { "type": "Point", "coordinates": [ 136.628617743584272, 34.441047880958401 ] } },
{ "type": "Feature", "properties": { "P29_001": "24211", "P29_002": "D124210050472", "P29_003": "16004", "P29_004": "三重県立鳥羽高等学校", "P29_005": "三重県鳥羽市安楽島町1459", "P29_006": "2", "P29_007": "0", "P29_008": "00", "P29_009": null }, "geometry": { "type": "Point", "coordinates": [ 136.847801251023213, 34.465714083029809 ] } },
{ "type": "Feature", "properties": { "P29_001": "24215", "P29_002": "D124210050481", "P29_003": "16004", "P29_004": "三重県立志摩高等学校", "P29_005": "三重県志摩市磯部町恵利原1308", "P29_006": "2", "P29_007": "0", "P29_008": "00", "P29_009": null }, "geometry": { "type": "Point", "coordinates": [ 136.800776574458041, 34.376179908372769 ] } },
{ "type": "Feature", "properties": { "P29_001": "24215", "P29_002": "D124210050490", "P29_003": "16004", "P29_004": "三重県立水産高等学校", "P29_005": "三重県志摩市志摩町和具2578", "P29_006": "2", "P29_007": "0", "P29_008": "00", "P29_009": null }, "geometry": { "type": "Point", "coordinates": [ 136.81039003305608, 34.265803277303569 ] } },
{ "type": "Feature", "properties": { "P29_001": "24216", "P29_002": "D124210050506", "P29_003": "16004", "P29_004": "三重県立上野高等学校", "P29_005": "三重県伊賀市上野丸之内107", "P29_006": "2", "P29_007": "0", "P29_008": "00", "P29_009": null }, "geometry": { "type": "Point", "coordinates": [ 136.126735645431268, 34.768597489878005 ] } },
{ "type": "Feature", "properties": { "P29_001": "24216", "P29_002": "D124210050515", "P29_003": "16004", "P29_004": "三重県立伊賀白鳳高等学校", "P29_005": "三重県伊賀市緑ヶ丘西町2270-1", "P29_006": "2", "P29_007": "0", "P29_008": "00", "P29_009": null }, "geometry": { "type": "Point", "coordinates": [ 136.141630832188582, 34.756134860973084 ] } },
{ "type": "Feature", "properties": { "P29_001": "24216", "P29_002": "D124210050524", "P29_003": "16004", "P29_004": "三重県立あけぼの学園高等学校", "P29_005": "三重県伊賀市川東412", "P29_006": "2", "P29_007": "0", "P29_008": "00", "P29_009": null }, "geometry": { "type": "Point", "coordinates": [ 136.205361855219053, 34.811127712935374 ] } },
{ "type": "Feature", "properties": { "P29_001": "24208", "P29_002": "D124210050533", "P29_003": "16004", "P29_004": "三重県立名張青峰高等学校", "P29_005": "三重県名張市百合が丘東6-1", "P29_006": "2", "P29_007": "0", "P29_008": "00", "P29_009": null }, "geometry": { "type": "Point", "coordinates": [ 136.107939331712942, 34.609537790145232 ] } },
{ "type": "Feature", "properties": { "P29_001": "24208", "P29_002": "D124210050542", "P29_003": "16004", "P29_004": "三重県立名張高等学校", "P29_005": "三重県名張市東町2067-2", "P29_006": "2", "P29_007": "0", "P29_008": "00", "P29_009": null }, "geometry": { "type": "Point", "coordinates": [ 136.099054836136247, 34.629174785910244 ] } },
{ "type": "Feature", "properties": { "P29_001": "24209", "P29_002": "D124210050551", "P29_003": "16004", "P29_004": "三重県立尾鷲高等学校", "P29_005": "三重県尾鷲市古戸野町3-12", "P29_006": "2", "P29_007": "0", "P29_008": "00", "P29_009": null }, "geometry": { "type": "Point", "coordinates": [ 136.186968123994347, 34.069238971214382 ] } },
{ "type": "Feature", "properties": { "P29_001": "24212", "P29_002": "D124210050560", "P29_003": "16004", "P29_004": "三重県立木本高等学校", "P29_005": "三重県熊野市木本町1101-4", "P29_006": "2", "P29_007": "0", "P29_008": "00", "P29_009": null }, "geometry": { "type": "Point", "coordinates": [ 136.105683668190352, 33.896003149115145 ] } },
{ "type": "Feature", "properties": { "P29_001": "24561", "P29_002": "D124210050579", "P29_003": "16004", "P29_004": "三重県立紀南高等学校", "P29_005": "三重県南牟婁郡御浜町阿田和1960", "P29_006": "2", "P29_007": "0", "P29_008": "00", "P29_009": null }, "geometry": { "type": "Point", "coordinates": [ 136.033017735620888, 33.796370926739691 ] } },
{ "type": "Feature", "properties": { "P29_001": "24205", "P29_002": "D124310055019", "P29_003": "16004", "P29_004": "津田学園高等学校", "P29_005": "三重県桑名市野田5-3-12", "P29_006": "4", "P29_007": "0", "P29_008": "00", "P29_009": null }, "geometry": { "type": "Point", "coordinates": [ 136.624034137438088, 35.081245353007283 ] } },
{ "type": "Feature", "properties": { "P29_001": "24202", "P29_002": "D124310055028", "P29_003": "16004", "P29_004": "暁高等学校", "P29_005": "三重県四日市市萱生町238", "P29_006": "4", "P29_007": "0", "P29_008": "00", "P29_009": null }, "geometry": { "type": "Point", "coordinates": [ 136.602113628833706, 35.032657140345705 ] } },
{ "type": "Feature", "properties": { "P29_001": "24202", "P29_002": "D124310055037", "P29_003": "16004", "P29_004": "海星高等学校", "P29_005": "三重県四日市市追分1-9-34", "P29_006": "4", "P29_007": "0", "P29_008": "00", "P29_009": null }, "geometry": { "type": "Point", "coordinates": [ 136.600495289669595, 34.934718923482905 ] } },
{ "type": "Feature", "properties": { "P29_001": "24202", "P29_002": "D124310055046", "P29_003": "16004", "P29_004": "四日市メリノール学院高等学校", "P29_005": "三重県四日市市平尾町2800", "P29_006": "4", "P29_007": "0", "P29_008": "00", "P29_009": null }, "geometry": { "type": "Point", "coordinates": [ 136.569018382662961, 35.001715406376881 ] } },
{ "type": "Feature", "properties": { "P29_001": "24207", "P29_002": "D124310055055", "P29_003": "16004", "P29_004": "鈴鹿高等学校", "P29_005": "三重県鈴鹿市庄野町1260", "P29_006": "4", "P29_007": "0", "P29_008": "00", "P29_009": null }, "geometry": { "type": "Point", "coordinates": [ 136.530513107225175, 34.881608715225951 ] } },
{ "type": "Feature", "properties": { "P29_001": "24201", "P29_002": "D124310055064", "P29_003": "16004", "P29_004": "高田高等学校", "P29_005": "三重県津市一身田町2843", "P29_006": "4", "P29_007": "0", "P29_008": "00", "P29_009": null }, "geometry": { "type": "Point", "coordinates": [ 136.503732166895276, 34.764682030998969 ] } },
{ "type": "Feature", "properties": { "P29_001": "24201", "P29_002": "D124310055073", "P29_003": "16004", "P29_004": "セントヨゼフ女子学園高等学校", "P29_005": "三重県津市半田1330", "P29_006": "4", "P29_007": "0", "P29_008": "00", "P29_009": null }, "geometry": { "type": "Point", "coordinates": [ 136.497688062813012, 34.703455912518194 ] } },
{ "type": "Feature", "properties": { "P29_001": "24201", "P29_002": "D124310055082", "P29_003": "16004", "P29_004": "青山高等学校", "P29_005": "三重県津市白山町八対野2739", "P29_006": "4", "P29_007": "0", "P29_008": "00", "P29_009": null }, "geometry": { "type": "Point", "coordinates": [ 136.303895620456956, 34.654993473364712 ] } },
{ "type": "Feature", "properties": { "P29_001": "24204", "P29_002": "D124310055091", "P29_003": "16004", "P29_004": "三重高等学校", "P29_005": "三重県松阪市久保町1232", "P29_006": "4", "P29_007": "0", "P29_008": "00", "P29_009": null }, "geometry": { "type": "Point", "coordinates": [ 136.539200874144967, 34.548442517107269 ] } },
{ "type": "Feature", "properties": { "P29_001": "24203", "P29_002": "D124310055108", "P29_003": "16004", "P29_004": "皇學館高等学校", "P29_005": "三重県伊勢市楠部町138", "P29_006": "4", "P29_007": "0", "P29_008": "00", "P29_009": null }, "geometry": { "type": "Point", "coordinates": [ 136.729035187996175, 34.485310233071502 ] } },
{ "type": "Feature", "properties": { "P29_001": "24203", "P29_002": "D124310055117", "P29_003": "16004", "P29_004": "伊勢学園高等学校", "P29_005": "三重県伊勢市黒瀬町562-13", "P29_006": "4", "P29_007": "0", "P29_008": "00", "P29_009": null }, "geometry": { "type": "Point", "coordinates": [ 136.734145376229179, 34.492293154672652 ] } },
{ "type": "Feature", "properties": { "P29_001": "24216", "P29_002": "D124310055126", "P29_003": "16004", "P29_004": "愛農学園農業高等学校", "P29_005": "三重県伊賀市別府690", "P29_006": "4", "P29_007": "0", "P29_008": "00", "P29_009": null }, "geometry": { "type": "Point", "coordinates": [ 136.186523208735309, 34.667741804162404 ] } },
{ "type": "Feature", "properties": { "P29_001": "24216", "P29_002": "D124310055135", "P29_003": "16004", "P29_004": "桜丘高等学校", "P29_005": "三重県伊賀市下神戸2756", "P29_006": "4", "P29_007": "0", "P29_008": "00", "P29_009": null }, "geometry": { "type": "Point", "coordinates": [ 136.179827476629612, 34.684458303861987 ] } },
{ "type": "Feature", "properties": { "P29_001": "24202", "P29_002": "D124310059015", "P29_003": "16004", "P29_004": "大橋学園高等学校", "P29_005": "三重県四日市市大字塩浜149-8", "P29_006": "4", "P29_007": "0", "P29_008": "00", "P29_009": null }, "geometry": { "type": "Point", "coordinates": [ 136.614196677540235, 34.927968818957368 ] } },
{ "type": "Feature", "properties": { "P29_001": "24210", "P29_002": "D124310059024", "P29_003": "16004", "P29_004": "徳風高等学校", "P29_005": "三重県亀山市和賀町1789-4", "P29_006": "4", "P29_007": "0", "P29_008": "00", "P29_009": null }, "geometry": { "type": "Point", "coordinates": [ 136.441784120804328, 34.844750913871962 ] } },
{ "type": "Feature", "properties": { "P29_001": "24201", "P29_002": "D124310059033", "P29_003": "16004", "P29_004": "一志学園高等学校", "P29_005": "三重県津市一志町大仰326", "P29_006": "4", "P29_007": "0", "P29_008": "00", "P29_009": null }, "geometry": { "type": "Point", "coordinates": [ 136.410597762515636, 34.64551315545566 ] } },
{ "type": "Feature", "properties": { "P29_001": "24203", "P29_002": "D124310059042", "P29_003": "16004", "P29_004": "英心高等学校", "P29_005": "三重県伊勢市河崎1-3-25", "P29_006": "4", "P29_007": "0", "P29_008": "00", "P29_009": null }, "geometry": { "type": "Point", "coordinates": [ 136.712761143224867, 34.492484703367815 ] } },
{ "type": "Feature", "properties": { "P29_001": "24215", "P29_002": "D124310059051", "P29_003": "16004", "P29_004": "代々木高等学校", "P29_005": "三重県志摩市磯部町山原785", "P29_006": "4", "P29_007": "0", "P29_008": "00", "P29_009": null }, "geometry": { "type": "Point", "coordinates": [ 136.768112992597537, 34.357563215426048 ] } },
{ "type": "Feature", "properties": { "P29_001": "24216", "P29_002": "D124310059060", "P29_003": "16004", "P29_004": "神村学園高等部伊賀分校", "P29_005": "三重県伊賀市北山1373", "P29_006": "4", "P29_007": "0", "P29_008": "00", "P29_009": null }, "geometry": { "type": "Point", "coordinates": [ 136.215520910009019, 34.688694690627784 ] } },
{ "type": "Feature", "properties": { "P29_001": "24208", "P29_002": "D124310059079", "P29_003": "16004", "P29_004": "英心高等学校桔梗が丘校", "P29_005": "三重県名張市桔梗が丘1番町5街区13", "P29_006": "4", "P29_007": "0", "P29_008": "00", "P29_009": null }, "geometry": { "type": "Point", "coordinates": [ 136.118837410195624, 34.647434681418396 ] } }
]
}
