{
"type": "FeatureCollection",
"name": "geo_24_通所リハビリテーション",
"crs": { "type": "name", "properties": { "name": "urn:ogc:def:crs:OGC:1.3:CRS84" } },
"features": [
{ "type": "Feature", "properties": { "内容": "第二岩崎病院通所リハビリ【通所リハビリテーション】三重県津市一身田町３８７番地", "url": "https://www.kaigokensaku.mhlw.go.jp/24/index.php?action_kouhyou_detail_004_kani=true&JigyosyoCd=2410505131-00&ServiceCd=160&Type=search", "url2": "http://www.iwasaki-hosp.or.jp/newpage18.html" }, "geometry": { "type": "Point", "coordinates": [ 136.507768, 34.758906 ] } },
{ "type": "Feature", "properties": { "内容": "医療法人緑の風　千里クリニック【通所リハビリテーション】三重県津市河芸町東千里６－１", "url": "https://www.kaigokensaku.mhlw.go.jp/24/index.php?action_kouhyou_detail_004_kani=true&JigyosyoCd=2410515049-00&ServiceCd=160&Type=search", "url2": null }, "geometry": { "type": "Point", "coordinates": [ 136.5521269, 34.802798 ] } },
{ "type": "Feature", "properties": { "内容": "介護老人保健施設　いこいの森【通所リハビリテーション】三重県津市河芸町東千里3番地の1", "url": "https://www.kaigokensaku.mhlw.go.jp/24/index.php?action_kouhyou_detail_004_kani=true&JigyosyoCd=2452480029-00&ServiceCd=160&Type=search", "url2": "https://www.mie-ikoinomori.or.jp" }, "geometry": { "type": "Point", "coordinates": [ 136.552071500000011, 34.8031044 ] } },
{ "type": "Feature", "properties": { "内容": "ゆり形成内科整形デイケア【通所リハビリテーション】三重県津市柳山津興3306番地", "url": "https://www.kaigokensaku.mhlw.go.jp/24/index.php?action_kouhyou_detail_004_kani=true&JigyosyoCd=2410515254-00&ServiceCd=160&Type=search", "url2": "http://www.yurikeisei.jp/" }, "geometry": { "type": "Point", "coordinates": [ 136.5118443, 34.7080368 ] } },
{ "type": "Feature", "properties": { "内容": "医療法人社団壽康会吉田クリニック【通所リハビリテーション】三重県津市栗真中山町79-5", "url": "https://www.kaigokensaku.mhlw.go.jp/24/index.php?action_kouhyou_detail_004_kani=true&JigyosyoCd=2410505297-00&ServiceCd=160&Type=search", "url2": "http://yoshida-clinic.or.jp" }, "geometry": { "type": "Point", "coordinates": [ 136.524355507409609, 34.757426187152518 ] } },
{ "type": "Feature", "properties": { "内容": "万葉の里　デイケアセンター【通所リハビリテーション】三重県津市一志町高野236-5", "url": "https://www.kaigokensaku.mhlw.go.jp/24/index.php?action_kouhyou_detail_004_kani=true&JigyosyoCd=2452580034-00&ServiceCd=160&Type=search", "url2": "http://www.pmc.or.jp/ymcg/manyo/index.html" }, "geometry": { "type": "Point", "coordinates": [ 136.43258620000006, 34.6596328 ] } },
{ "type": "Feature", "properties": { "内容": "三重県身体障害者総合福祉センター【通所リハビリテーション】三重県津市一身田大古曽６７０番地２", "url": "https://www.kaigokensaku.mhlw.go.jp/24/index.php?action_kouhyou_detail_004_kani=true&JigyosyoCd=2410505347-00&ServiceCd=160&Type=search", "url2": "https://www.mie-reha.jp/" }, "geometry": { "type": "Point", "coordinates": [ 136.49807480000004, 34.7562979 ] } },
{ "type": "Feature", "properties": { "内容": "地域総合ケアセンター津通所リハビリセンターシルバーケア豊壽園【通所リハビリテーション】三重県津市高茶屋小森上野町字野田737番地", "url": "https://www.kaigokensaku.mhlw.go.jp/24/index.php?action_kouhyou_detail_004_kani=true&JigyosyoCd=2450580036-00&ServiceCd=160&Type=search", "url2": "http//www.sensin.or.jp" }, "geometry": { "type": "Point", "coordinates": [ 136.494575823326983, 34.672930730508391 ] } },
{ "type": "Feature", "properties": { "内容": "介護老人保健施設ロマン【通所リハビリテーション】三重県津市芸濃町椋本6176", "url": "https://www.kaigokensaku.mhlw.go.jp/24/index.php?action_kouhyou_detail_004_kani=true&JigyosyoCd=2452480011-00&ServiceCd=160&Type=search", "url2": "http://www.roman.or.jp" }, "geometry": { "type": "Point", "coordinates": [ 136.44266970000001, 34.8105153 ] } },
{ "type": "Feature", "properties": { "内容": "介護老人保健施設つつじの里【通所リハビリテーション】三重県津市白山町二本木1163", "url": "https://www.kaigokensaku.mhlw.go.jp/24/index.php?action_kouhyou_detail_004_kani=true&JigyosyoCd=2450580044-00&ServiceCd=160&Type=search", "url2": "http://www.akeai.or.jp/" }, "geometry": { "type": "Point", "coordinates": [ 136.371187700000064, 34.6680964 ] } },
{ "type": "Feature", "properties": { "内容": "デイケアセンターあのう【通所リハビリテーション】三重県津市安濃町東観音寺353番地", "url": "https://www.kaigokensaku.mhlw.go.jp/24/index.php?action_kouhyou_detail_004_kani=true&JigyosyoCd=2452480037-00&ServiceCd=160&Type=search", "url2": "http://www.akeai.or.jp" }, "geometry": { "type": "Point", "coordinates": [ 136.4409935, 34.7642044 ] } },
{ "type": "Feature", "properties": { "内容": "藤田医科大学七栗記念病院デイケアセンター【通所リハビリテーション】三重県津市大鳥町424番地の16", "url": "https://www.kaigokensaku.mhlw.go.jp/24/index.php?action_kouhyou_detail_004_kani=true&JigyosyoCd=2410505883-00&ServiceCd=160&Type=search", "url2": "http://www.fujita-hu.ac.jp/HOSPITAL4/" }, "geometry": { "type": "Point", "coordinates": [ 136.394492500000069, 34.6875193 ] } },
{ "type": "Feature", "properties": { "内容": "介護老人保健施設トマト【通所リハビリテーション】三重県津市殿村860-2", "url": "https://www.kaigokensaku.mhlw.go.jp/24/index.php?action_kouhyou_detail_004_kani=true&JigyosyoCd=2450580010-00&ServiceCd=160&Type=search", "url2": "http://www.tomato.or.jp/" }, "geometry": { "type": "Point", "coordinates": [ 136.463139100000035, 34.7262632 ] } },
{ "type": "Feature", "properties": { "内容": "津老人保健施設アルカディア【通所リハビリテーション】津市乙部１１－５", "url": "https://www.kaigokensaku.mhlw.go.jp/24/index.php?action_kouhyou_detail_004_kani=true&JigyosyoCd=2450580028-00&ServiceCd=160&Type=search", "url2": "https://www.arcadia-mie.jp/" }, "geometry": { "type": "Point", "coordinates": [ 136.520026199999961, 34.7173659 ] } },
{ "type": "Feature", "properties": { "内容": "芹の里介護老人保健施設【通所リハビリテーション】三重県津市久居井戸山町　759番地の7", "url": "https://www.kaigokensaku.mhlw.go.jp/24/index.php?action_kouhyou_detail_004_kani=true&JigyosyoCd=2450680018-00&ServiceCd=160&Type=search", "url2": null }, "geometry": { "type": "Point", "coordinates": [ 136.483456, 34.6691686 ] } },
{ "type": "Feature", "properties": { "内容": "介護老人保健施設さくら苑【通所リハビリテーション】三重県津市榊原町5630番地", "url": "https://www.kaigokensaku.mhlw.go.jp/24/index.php?action_kouhyou_detail_004_kani=true&JigyosyoCd=2450680059-00&ServiceCd=160&Type=search", "url2": "http://www.ohrin-mc.jp/sakuraen/" }, "geometry": { "type": "Point", "coordinates": [ 136.368925399999966, 34.700816 ] } },
{ "type": "Feature", "properties": { "内容": "津生協病院　通所リハビリテーションきずな【通所リハビリテーション】三重県津市寿町16-24", "url": "https://www.kaigokensaku.mhlw.go.jp/24/index.php?action_kouhyou_detail_004_kani=true&JigyosyoCd=2410505263-00&ServiceCd=160&Type=search", "url2": "https://www.tsucoop.jp/" }, "geometry": { "type": "Point", "coordinates": [ 136.517409, 34.715746 ] } },
{ "type": "Feature", "properties": { "内容": "しおりの里デイケアセンター【通所リハビリテーション】三重県津市野田2033番地1", "url": "https://www.kaigokensaku.mhlw.go.jp/24/index.php?action_kouhyou_detail_004_kani=true&JigyosyoCd=2470502150-00&ServiceCd=160&Type=search", "url2": "http://www.pmc.or.jp/" }, "geometry": { "type": "Point", "coordinates": [ 136.462589799999932, 34.7093463 ] } },
{ "type": "Feature", "properties": { "内容": "永井病院デイケアセンター【通所リハビリテーション】三重県津市西丸之内29番29号", "url": "https://www.kaigokensaku.mhlw.go.jp/24/index.php?action_kouhyou_detail_004_kani=true&JigyosyoCd=2410505115-00&ServiceCd=160&Type=search", "url2": "https://www.nagai-hp.or.jp/" }, "geometry": { "type": "Point", "coordinates": [ 136.501579099999958, 34.719182 ] } },
{ "type": "Feature", "properties": { "内容": "みえロコモリウマチクリニック【通所リハビリテーション】三重県四日市市日永1丁目7番19号", "url": "https://www.kaigokensaku.mhlw.go.jp/24/index.php?action_kouhyou_detail_004_kani=true&JigyosyoCd=2410205476-00&ServiceCd=160&Type=search", "url2": "https://mie-locomo.com/" }, "geometry": { "type": "Point", "coordinates": [ 136.6072991, 34.9538436 ] } },
{ "type": "Feature", "properties": { "内容": "富田浜病院　指定通所リハビリテーション事業所【通所リハビリテーション】四日市市富田浜町26-14", "url": "https://www.kaigokensaku.mhlw.go.jp/24/index.php?action_kouhyou_detail_004_kani=true&JigyosyoCd=2410205112-00&ServiceCd=160&Type=search", "url2": "http://tomidahama.jp" }, "geometry": { "type": "Point", "coordinates": [ 136.6517569, 34.9981112 ] } },
{ "type": "Feature", "properties": { "内容": "通所リハビリテーション　かがやき【通所リハビリテーション】四日市市西大鐘町字東谷1610番地", "url": "https://www.kaigokensaku.mhlw.go.jp/24/index.php?action_kouhyou_detail_004_kani=true&JigyosyoCd=2410215327-00&ServiceCd=160&Type=search", "url2": "http://www.kaihouen.jp/" }, "geometry": { "type": "Point", "coordinates": [ 136.599271400000021, 35.0407219 ] } },
{ "type": "Feature", "properties": { "内容": "四日市徳新会病院【通所リハビリテーション】三重県四日市市久保田二丁目１番２号", "url": "https://www.kaigokensaku.mhlw.go.jp/24/index.php?action_kouhyou_detail_004_kani=true&JigyosyoCd=2410215756-00&ServiceCd=160&Type=search", "url2": "http://yok-toku.jp/" }, "geometry": { "type": "Point", "coordinates": [ 136.612238400000024, 34.9732499 ] } },
{ "type": "Feature", "properties": { "内容": "小山田老人保健施設【通所リハビリテーション】四日市市山田町5501-1", "url": "https://www.kaigokensaku.mhlw.go.jp/24/index.php?action_kouhyou_detail_004_kani=true&JigyosyoCd=2450280017-00&ServiceCd=160&Type=search", "url2": "http://www.seizanrikai.jp" }, "geometry": { "type": "Point", "coordinates": [ 136.527800500000012, 34.9461681 ] } },
{ "type": "Feature", "properties": { "内容": "みえ医療福祉生活協同組合　いくわ診療所　通所リハビリテーションいくわ【通所リハビリテーション】三重県四日市市生桑町１４５５", "url": "https://www.kaigokensaku.mhlw.go.jp/24/index.php?action_kouhyou_detail_004_kani=true&JigyosyoCd=2410215582-00&ServiceCd=160&Type=search", "url2": "http://www.y-medico.com" }, "geometry": { "type": "Point", "coordinates": [ 136.596250860713212, 34.980394748033454 ] } },
{ "type": "Feature", "properties": { "内容": "小山田記念温泉病院【通所リハビリテーション】三重県四日市市山田町5538番地1", "url": "https://www.kaigokensaku.mhlw.go.jp/24/index.php?action_kouhyou_detail_004_kani=true&JigyosyoCd=2410205419-00&ServiceCd=160&Type=search", "url2": "http://www.syutaikai.jp/n_oya/oya_top.htm" }, "geometry": { "type": "Point", "coordinates": [ 136.527192199999945, 34.945271 ] } },
{ "type": "Feature", "properties": { "内容": "介護老人保健施設ちゅうぶ【通所リハビリテーション】三重県四日市市中部８－１５", "url": "https://www.kaigokensaku.mhlw.go.jp/24/index.php?action_kouhyou_detail_004_kani=true&JigyosyoCd=2450280058-00&ServiceCd=160&Type=search", "url2": "http://www.rijinkai.jp/" }, "geometry": { "type": "Point", "coordinates": [ 136.62532842883607, 34.968646229493714 ] } },
{ "type": "Feature", "properties": { "内容": "四日市羽津医療センター附属介護老人保健施設【通所リハビリテーション】四日市市羽津山町10-8", "url": "https://www.kaigokensaku.mhlw.go.jp/24/index.php?action_kouhyou_detail_004_kani=true&JigyosyoCd=2450280041-00&ServiceCd=160&Type=search", "url2": "http://yokkaichi.jcho.go.jp/rouken/" }, "geometry": { "type": "Point", "coordinates": [ 136.626350399999978, 34.9896899 ] } },
{ "type": "Feature", "properties": { "内容": "富田浜老人保健施設　通所リハビリテーション【通所リハビリテーション】三重県四日市市富田浜町２６－１４", "url": "https://www.kaigokensaku.mhlw.go.jp/24/index.php?action_kouhyou_detail_004_kani=true&JigyosyoCd=2450280066-00&ServiceCd=160&Type=search", "url2": "http://www.tomidahama.jp/" }, "geometry": { "type": "Point", "coordinates": [ 136.6517569, 34.9981112 ] } },
{ "type": "Feature", "properties": { "内容": "医療法人　正和会　正和クリニック【通所リハビリテーション】三重県四日市市小古曽町２７１７－１", "url": "https://www.kaigokensaku.mhlw.go.jp/24/index.php?action_kouhyou_detail_004_kani=true&JigyosyoCd=2470202579-00&ServiceCd=160&Type=search", "url2": "http://shouwa-cl.or.jp" }, "geometry": { "type": "Point", "coordinates": [ 136.594908, 34.9193516 ] } },
{ "type": "Feature", "properties": { "内容": "みたき総合病院　通所リハビリテーション【通所リハビリテーション】四日市市生桑町菰池４５８－１", "url": "https://www.kaigokensaku.mhlw.go.jp/24/index.php?action_kouhyou_detail_004_kani=true&JigyosyoCd=2410205989-00&ServiceCd=160&Type=search", "url2": "https://mitaki.or.jp/" }, "geometry": { "type": "Point", "coordinates": [ 136.603377657979394, 34.980549798786456 ] } },
{ "type": "Feature", "properties": { "内容": "介護老人保健施設みえ川村老健【通所リハビリテーション】四日市市城東町３－２１", "url": "https://www.kaigokensaku.mhlw.go.jp/24/index.php?action_kouhyou_detail_004_kani=true&JigyosyoCd=2450280033-00&ServiceCd=160&Type=search", "url2": "http://www.syutaikai.jp" }, "geometry": { "type": "Point", "coordinates": [ 136.609597300000019, 34.9646841 ] } },
{ "type": "Feature", "properties": { "内容": "主体会病院通所リハビリテーション【通所リハビリテーション】四日市市城北町8番1号", "url": "https://www.kaigokensaku.mhlw.go.jp/24/index.php?action_kouhyou_detail_004_kani=true&JigyosyoCd=2410205336-00&ServiceCd=160&Type=search", "url2": "http://www.syutaikai.jp" }, "geometry": { "type": "Point", "coordinates": [ 136.611598892729177, 34.964958519550095 ] } },
{ "type": "Feature", "properties": { "内容": "ふたみ通所リハビリセンターシルバーケア豊壽園【通所リハビリテーション】伊勢市二見町三津855", "url": "https://www.kaigokensaku.mhlw.go.jp/24/index.php?action_kouhyou_detail_004_kani=true&JigyosyoCd=2452880061-00&ServiceCd=160&Type=search", "url2": "URL：ｈｔｔｐ：//ｗｗｗ．ｓｅｎｓｉｎ．ｏｒ．ｊｐ" }, "geometry": { "type": "Point", "coordinates": [ 136.773046900000054, 34.5002002 ] } },
{ "type": "Feature", "properties": { "内容": "医療法人社団愛敬会　山崎外科内科【通所リハビリテーション】伊勢市楠部町乙77", "url": "https://www.kaigokensaku.mhlw.go.jp/24/index.php?action_kouhyou_detail_004_kani=true&JigyosyoCd=2410805630-00&ServiceCd=160&Type=search", "url2": "http://yamazaki-gekanaika.com/" }, "geometry": { "type": "Point", "coordinates": [ 136.729321631282772, 34.476242783276646 ] } },
{ "type": "Feature", "properties": { "内容": "通所リハビリテーション　山咲苑【通所リハビリテーション】三重県伊勢市楠部町若ノ山２６０５－１３", "url": "https://www.kaigokensaku.mhlw.go.jp/24/index.php?action_kouhyou_detail_004_kani=true&JigyosyoCd=2450880014-00&ServiceCd=160&Type=search", "url2": "http://yamasakien.biz/" }, "geometry": { "type": "Point", "coordinates": [ 136.7389948, 34.476925 ] } },
{ "type": "Feature", "properties": { "内容": "医療法人　全心会　伊勢ひかり病院【通所リハビリテーション】三重県伊勢市御薗町高向810-1", "url": "https://www.kaigokensaku.mhlw.go.jp/24/index.php?action_kouhyou_detail_004_kani=true&JigyosyoCd=2410805465-00&ServiceCd=160&Type=search", "url2": "https://ise-hikari.com" }, "geometry": { "type": "Point", "coordinates": [ 136.698145299999965, 34.4931326 ] } },
{ "type": "Feature", "properties": { "内容": "医療法人全心会　伊勢老健ひかり【通所リハビリテーション】三重県伊勢市御薗町高向775-1", "url": "https://www.kaigokensaku.mhlw.go.jp/24/index.php?action_kouhyou_detail_004_kani=true&JigyosyoCd=2450880030-00&ServiceCd=160&Type=search", "url2": "https://ise-rouken-hikari.com/" }, "geometry": { "type": "Point", "coordinates": [ 136.69722040000002, 34.501057399999986 ] } },
{ "type": "Feature", "properties": { "内容": "伊勢志摩中央リハビリテーションセンター【通所リハビリテーション】三重県伊勢市御薗町高向字沖川原1746-2", "url": "https://www.kaigokensaku.mhlw.go.jp/24/index.php?action_kouhyou_detail_004_kani=true&JigyosyoCd=2472900972-00&ServiceCd=160&Type=search", "url2": "http://www.kyoeigakuen.ac.jp" }, "geometry": { "type": "Point", "coordinates": [ 136.695131078820822, 34.506527600240489 ] } },
{ "type": "Feature", "properties": { "内容": "上野の郷(介護予防）通所リハビリセンター【通所リハビリテーション】三重県伊勢市上野町２８５５－１", "url": "https://www.kaigokensaku.mhlw.go.jp/24/index.php?action_kouhyou_detail_004_kani=true&JigyosyoCd=2450880022-00&ServiceCd=160&Type=search", "url2": "uenonosato.jp/" }, "geometry": { "type": "Point", "coordinates": [ 136.653430800000024, 34.435099700000016 ] } },
{ "type": "Feature", "properties": { "内容": "西井医院　通所リハビリステーション【通所リハビリテーション】三重県松阪市曽原町811‐1", "url": "https://www.kaigokensaku.mhlw.go.jp/24/index.php?action_kouhyou_detail_004_kani=true&JigyosyoCd=2410705988-00&ServiceCd=160&Type=search", "url2": "http://nishii-hospital.com/" }, "geometry": { "type": "Point", "coordinates": [ 136.5173949, 34.6312518 ] } },
{ "type": "Feature", "properties": { "内容": "やまゆりの里デイケアセンター【通所リハビリテーション】三重県松阪市嬉野中川町1529-1", "url": "https://www.kaigokensaku.mhlw.go.jp/24/index.php?action_kouhyou_detail_004_kani=true&JigyosyoCd=2450780040-00&ServiceCd=160&Type=search", "url2": "http://www.akeai.or.jp" }, "geometry": { "type": "Point", "coordinates": [ 136.475372099999959, 34.6341892 ] } },
{ "type": "Feature", "properties": { "内容": "通所リハビリテーション　緑風苑【通所リハビリテーション】三重県松阪市久保町１９２７－６", "url": "https://www.kaigokensaku.mhlw.go.jp/24/index.php?action_kouhyou_detail_004_kani=true&JigyosyoCd=2450780024-00&ServiceCd=160&Type=search", "url2": "https://aikeikai.or.jp/" }, "geometry": { "type": "Point", "coordinates": [ 136.526649600000042, 34.5373837 ] } },
{ "type": "Feature", "properties": { "内容": "介護老人保健施設嘉祥苑【通所リハビリテーション】三重県松阪市鎌田町234番地の１０", "url": "https://www.kaigokensaku.mhlw.go.jp/24/index.php?action_kouhyou_detail_004_kani=true&JigyosyoCd=2450780016-00&ServiceCd=160&Type=search", "url2": "http://www.kashouen.or.jp" }, "geometry": { "type": "Point", "coordinates": [ 136.536150099999986, 34.5820793 ] } },
{ "type": "Feature", "properties": { "内容": "桜木記念病院　通所リハビリテーション【通所リハビリテーション】松阪市南町443番地の4", "url": "https://www.kaigokensaku.mhlw.go.jp/24/index.php?action_kouhyou_detail_004_kani=true&JigyosyoCd=2410705145-00&ServiceCd=160&Type=search", "url2": "http://www.sakuragi-hp.com" }, "geometry": { "type": "Point", "coordinates": [ 136.535050700000056, 34.5667697 ] } },
{ "type": "Feature", "properties": { "内容": "通所リハビリテーション「花の丘」【通所リハビリテーション】松阪市山室町707-3", "url": "https://www.kaigokensaku.mhlw.go.jp/24/index.php?action_kouhyou_detail_004_kani=true&JigyosyoCd=2410705624-00&ServiceCd=160&Type=search", "url2": "https://www.shoutoku.or.jp/" }, "geometry": { "type": "Point", "coordinates": [ 136.502568699999983, 34.5306588 ] } },
{ "type": "Feature", "properties": { "内容": "通所リハビリテーションさくらんぼ【通所リハビリテーション】三重県松阪市飯南町粥見5471-18", "url": "https://www.kaigokensaku.mhlw.go.jp/24/index.php?action_kouhyou_detail_004_kani=true&JigyosyoCd=2450780057-00&ServiceCd=160&Type=search", "url2": "http://www.sakuraen.com/sakuranbo/" }, "geometry": { "type": "Point", "coordinates": [ 136.375915099999929, 34.4456662 ] } },
{ "type": "Feature", "properties": { "内容": "医療法人　松徳会　通所リハビリテーションカトレア【通所リハビリテーション】松阪市山室町690番地1", "url": "https://www.kaigokensaku.mhlw.go.jp/24/index.php?action_kouhyou_detail_004_kani=true&JigyosyoCd=2450780032-00&ServiceCd=160&Type=search", "url2": "http://www.shoutoku.or.jp/" }, "geometry": { "type": "Point", "coordinates": [ 136.502012185844507, 34.530140532627925 ] } },
{ "type": "Feature", "properties": { "内容": "薬王堂医院通所リハビリテーションほのぼの倶楽部【通所リハビリテーション】三重県松阪市嬉野薬王寺町786", "url": "https://www.kaigokensaku.mhlw.go.jp/24/index.php?action_kouhyou_detail_004_kani=true&JigyosyoCd=2410702548-00&ServiceCd=160&Type=search", "url2": "http://yakuodo-iin.com" }, "geometry": { "type": "Point", "coordinates": [ 136.4517502, 34.6068694 ] } },
{ "type": "Feature", "properties": { "内容": "通所リハビリテーション田園くろべ【通所リハビリテーション】三重県松阪市東黒部町835", "url": "https://www.kaigokensaku.mhlw.go.jp/24/index.php?action_kouhyou_detail_004_kani=true&JigyosyoCd=2450780065-00&ServiceCd=160&Type=search", "url2": "http://www.matokata.com" }, "geometry": { "type": "Point", "coordinates": [ 136.5909643, 34.5913937 ] } },
{ "type": "Feature", "properties": { "内容": "通所リハビリテーションいいとも【通所リハビリテーション】三重県松阪市市場庄町1109", "url": "https://www.kaigokensaku.mhlw.go.jp/24/index.php?action_kouhyou_detail_004_kani=true&JigyosyoCd=2410705897-00&ServiceCd=160&Type=search", "url2": "https://iitomokai.jp" }, "geometry": { "type": "Point", "coordinates": [ 136.516835092686705, 34.602106535493647 ] } },
{ "type": "Feature", "properties": { "内容": "ヨナハ介護老人保健施設【通所リハビリテーション】三重県桑名市大字大福字雀塚４７１番地２", "url": "https://www.kaigokensaku.mhlw.go.jp/24/index.php?action_kouhyou_detail_004_kani=true&JigyosyoCd=2450180035-00&ServiceCd=160&Type=search", "url2": "https://yonaha.or.jp/ynr/" }, "geometry": { "type": "Point", "coordinates": [ 136.685632266548168, 35.045735275600883 ] } },
{ "type": "Feature", "properties": { "内容": "介護老人保健施設ハート【通所リハビリテーション】桑名市大字西方字斧峠1306-10", "url": "https://www.kaigokensaku.mhlw.go.jp/24/index.php?action_kouhyou_detail_004_kani=true&JigyosyoCd=2450180027-00&ServiceCd=160&Type=search", "url2": "https://www.aoki-naika.jp/heart/index.html" }, "geometry": { "type": "Point", "coordinates": [ 136.669154299999946, 35.0661209 ] } },
{ "type": "Feature", "properties": { "内容": "ウエルネスデイケアセンター【通所リハビリテーション】三重県桑名市新西方4丁目81番地　及び　三重県桑名市新西方3丁目218番地", "url": "https://www.kaigokensaku.mhlw.go.jp/24/index.php?action_kouhyou_detail_004_kani=true&JigyosyoCd=2410105429-00&ServiceCd=160&Type=search", "url2": "http://www.kuwana.ne.jp/wellness" }, "geometry": { "type": "Point", "coordinates": [ 136.657058099999972, 35.0727699 ] } },
{ "type": "Feature", "properties": { "内容": "通所リハビリテーションみらい【通所リハビリテーション】桑名市長島町福吉268-1シニアプラザながしま", "url": "https://www.kaigokensaku.mhlw.go.jp/24/index.php?action_kouhyou_detail_004_kani=true&JigyosyoCd=2410105643-00&ServiceCd=160&Type=search", "url2": "https://www.sato-group.jp" }, "geometry": { "type": "Point", "coordinates": [ 136.716961518385318, 35.057685112287032 ] } },
{ "type": "Feature", "properties": { "内容": "医療法人　桑名病院【通所リハビリテーション】三重県桑名市京橋町３０番地", "url": "https://www.kaigokensaku.mhlw.go.jp/24/index.php?action_kouhyou_detail_004_kani=true&JigyosyoCd=2410105080-00&ServiceCd=160&Type=search", "url2": "http://www.kuwana-hosp.or.jp" }, "geometry": { "type": "Point", "coordinates": [ 136.691455, 35.0632468 ] } },
{ "type": "Feature", "properties": { "内容": "医療法人　普照会　もりえい病院【通所リハビリテーション】桑名市内掘28-1", "url": "https://www.kaigokensaku.mhlw.go.jp/24/index.php?action_kouhyou_detail_004_kani=true&JigyosyoCd=2410105569-00&ServiceCd=160&Type=search", "url2": "http://www.moriei.jp" }, "geometry": { "type": "Point", "coordinates": [ 136.693638100000044, 35.0625997 ] } },
{ "type": "Feature", "properties": { "内容": "青木記念病院【通所リハビリテーション】三重県桑名市中央町５丁目７番地", "url": "https://www.kaigokensaku.mhlw.go.jp/24/index.php?action_kouhyou_detail_004_kani=true&JigyosyoCd=2410105171-00&ServiceCd=160&Type=search", "url2": "https://www.aoki-hp.com/" }, "geometry": { "type": "Point", "coordinates": [ 136.685786099999973, 35.0619539 ] } },
{ "type": "Feature", "properties": { "内容": "玉田クリニック　通所リハビリテーション【通所リハビリテーション】三重県鈴鹿市稲生四丁目4878番2", "url": "https://www.kaigokensaku.mhlw.go.jp/24/index.php?action_kouhyou_detail_004_kani=true&JigyosyoCd=2410305920-00&ServiceCd=160&Type=search", "url2": "https://tamada-group.jp/" }, "geometry": { "type": "Point", "coordinates": [ 136.559842, 34.8424304 ] } },
{ "type": "Feature", "properties": { "内容": "塩川病院通所リハビリテーションセンター【通所リハビリテーション】三重県鈴鹿市平田1丁目３番７号", "url": "https://www.kaigokensaku.mhlw.go.jp/24/index.php?action_kouhyou_detail_004_kani=true&JigyosyoCd=2410305201-00&ServiceCd=160&Type=search", "url2": null }, "geometry": { "type": "Point", "coordinates": [ 136.539353600000027, 34.8744244 ] } },
{ "type": "Feature", "properties": { "内容": "介護老人保健施設　アルテハイム鈴鹿【通所リハビリテーション】三重県鈴鹿市平田１丁目３番５号", "url": "https://www.kaigokensaku.mhlw.go.jp/24/index.php?action_kouhyou_detail_004_kani=true&JigyosyoCd=2450380015-00&ServiceCd=160&Type=search", "url2": "http://www.shiokawa-hp.jp" }, "geometry": { "type": "Point", "coordinates": [ 136.539811900000018, 34.8745216 ] } },
{ "type": "Feature", "properties": { "内容": "デイケアセンター　鈴の丘【通所リハビリテーション】三重県鈴鹿市庄野町2550番地", "url": "https://www.kaigokensaku.mhlw.go.jp/24/index.php?action_kouhyou_detail_004_kani=true&JigyosyoCd=2450380031-00&ServiceCd=160&Type=search", "url2": "http://www.mecha.ne.jp/~suzu-oka/" }, "geometry": { "type": "Point", "coordinates": [ 136.508759776721149, 34.887772474366443 ] } },
{ "type": "Feature", "properties": { "内容": "医療法人　博仁会　村瀬病院【通所リハビリテーション】三重県鈴鹿市神戸三丁目１２－１０", "url": "https://www.kaigokensaku.mhlw.go.jp/24/index.php?action_kouhyou_detail_004_kani=true&JigyosyoCd=2410305060-00&ServiceCd=160&Type=search", "url2": "http://www.murase.or.jp" }, "geometry": { "type": "Point", "coordinates": [ 136.584028699999976, 34.8784021 ] } },
{ "type": "Feature", "properties": { "内容": "介護老人保健施設ひまわり【通所リハビリテーション】三重県鈴鹿市神戸三丁目１２－１０", "url": "https://www.kaigokensaku.mhlw.go.jp/24/index.php?action_kouhyou_detail_004_kani=true&JigyosyoCd=2450380023-00&ServiceCd=160&Type=search", "url2": "http://www.murase.or.jp/" }, "geometry": { "type": "Point", "coordinates": [ 136.583626368647714, 34.877583548211881 ] } },
{ "type": "Feature", "properties": { "内容": "通所リハビリテーションセンターパークヒルズ高塚【通所リハビリテーション】三重県鈴鹿市高塚町2036", "url": "https://www.kaigokensaku.mhlw.go.jp/24/index.php?action_kouhyou_detail_004_kani=true&JigyosyoCd=2450380049-00&ServiceCd=160&Type=search", "url2": "www.siokawa-hp.jp" }, "geometry": { "type": "Point", "coordinates": [ 136.511788180212449, 34.91007400338399 ] } },
{ "type": "Feature", "properties": { "内容": "医療法人寺田病院　通所リハビリテーション事業所【通所リハビリテーション】三重県名張市夏見３２６０番地1", "url": "https://www.kaigokensaku.mhlw.go.jp/24/index.php?action_kouhyou_detail_004_kani=true&JigyosyoCd=2411305036-00&ServiceCd=160&Type=search", "url2": "http://terada-hp.or.jp" }, "geometry": { "type": "Point", "coordinates": [ 136.105689953967271, 34.620100414579447 ] } },
{ "type": "Feature", "properties": { "内容": "介護老人保健施設　憩いの街　通所リハビリ施設【通所リハビリテーション】名張市鴻之台１丁目７２番地", "url": "https://www.kaigokensaku.mhlw.go.jp/24/index.php?action_kouhyou_detail_004_kani=true&JigyosyoCd=2451380030-00&ServiceCd=160&Type=search", "url2": "http://www.keihoukai.net" }, "geometry": { "type": "Point", "coordinates": [ 136.111501595809131, 34.630105633784595 ] } },
{ "type": "Feature", "properties": { "内容": "尾鷲総合病院【通所リハビリテーション】三重県尾鷲市上野町5-25", "url": "https://www.kaigokensaku.mhlw.go.jp/24/index.php?action_kouhyou_detail_004_kani=true&JigyosyoCd=2411005065-00&ServiceCd=160&Type=search", "url2": "http://owasehp.jp/" }, "geometry": { "type": "Point", "coordinates": [ 136.1884552, 34.0698166 ] } },
{ "type": "Feature", "properties": { "内容": "デイケアみえ【通所リハビリテーション】亀山市アイリス町14-7", "url": "https://www.kaigokensaku.mhlw.go.jp/24/index.php?action_kouhyou_detail_004_kani=true&JigyosyoCd=2410400572-00&ServiceCd=160&Type=search", "url2": "http://www.mie-enge.jp/" }, "geometry": { "type": "Point", "coordinates": [ 136.460588, 34.8671154 ] } },
{ "type": "Feature", "properties": { "内容": "亀山老人保健施設【通所リハビリテーション】三重県亀山市羽若町字松本645-14", "url": "https://www.kaigokensaku.mhlw.go.jp/24/index.php?action_kouhyou_detail_004_kani=true&JigyosyoCd=2450480013-00&ServiceCd=160&Type=search", "url2": "http://www.seizanrikai.jp" }, "geometry": { "type": "Point", "coordinates": [ 136.452744700000039, 34.8646211 ] } },
{ "type": "Feature", "properties": { "内容": "介護老人保健施設　鳥羽豊和苑　通所リハビリテーション【通所リハビリテーション】三重県鳥羽市安楽島町字腰掛1045-77", "url": "https://www.kaigokensaku.mhlw.go.jp/24/index.php?action_kouhyou_detail_004_kani=true&JigyosyoCd=2450980012-00&ServiceCd=160&Type=search", "url2": "http://www.houwakai.or.jp" }, "geometry": { "type": "Point", "coordinates": [ 136.862118427447484, 34.474349250591686 ] } },
{ "type": "Feature", "properties": { "内容": "介護老人保健施設オレンジロードむつみ苑通所リハビリテーション【通所リハビリテーション】三重県熊野市久生屋町847番地２", "url": "https://www.kaigokensaku.mhlw.go.jp/24/index.php?action_kouhyou_detail_004_kani=true&JigyosyoCd=2451180018-00&ServiceCd=160&Type=search", "url2": "https://www.mutsumien-kumano.jp/" }, "geometry": { "type": "Point", "coordinates": [ 136.074300200000039, 33.8651833 ] } },
{ "type": "Feature", "properties": { "内容": "医療法人（社団）大和会　介護老人保健施設銀花【通所リハビリテーション】三重県いなべ市北勢町阿下喜６８０番地", "url": "https://www.kaigokensaku.mhlw.go.jp/24/index.php?action_kouhyou_detail_004_kani=true&JigyosyoCd=2452180025-00&ServiceCd=160&Type=search", "url2": "http://www.kusaka-hp.jp/ginka.html" }, "geometry": { "type": "Point", "coordinates": [ 136.517776799999979, 35.1450803 ] } },
{ "type": "Feature", "properties": { "内容": "日下病院【通所リハビリテーション】三重県いなべ市北勢町阿下喜680日下病院", "url": "https://www.kaigokensaku.mhlw.go.jp/24/index.php?action_kouhyou_detail_004_kani=true&JigyosyoCd=2411405034-00&ServiceCd=160&Type=search", "url2": "http://www.kusaka-hp.jp" }, "geometry": { "type": "Point", "coordinates": [ 136.517776799999979, 35.1450803 ] } },
{ "type": "Feature", "properties": { "内容": "志摩市介護老人保健施設　志摩の里【通所リハビリテーション】三重県志摩市志摩町片田4807番地1", "url": "https://www.kaigokensaku.mhlw.go.jp/24/index.php?action_kouhyou_detail_004_kani=true&JigyosyoCd=2472900899-00&ServiceCd=160&Type=search", "url2": "https://www.jadecom.or.jp/jadecomhp/shimanosato/html/" }, "geometry": { "type": "Point", "coordinates": [ 136.832087399999978, 34.2612293 ] } },
{ "type": "Feature", "properties": { "内容": "介護老人保健施設　志摩豊和苑【通所リハビリテーション】三重県志摩市阿児町国府1061-152", "url": "https://www.kaigokensaku.mhlw.go.jp/24/index.php?action_kouhyou_detail_004_kani=true&JigyosyoCd=2452980010-00&ServiceCd=160&Type=search", "url2": "http://houwakai.or.jp/" }, "geometry": { "type": "Point", "coordinates": [ 136.85636020000004, 34.3307793 ] } },
{ "type": "Feature", "properties": { "内容": "三重県立志摩病院【通所リハビリテーション】三重県志摩市阿児町鵜方1257番地", "url": "https://www.kaigokensaku.mhlw.go.jp/24/index.php?action_kouhyou_detail_004_kani=true&JigyosyoCd=2472901731-00&ServiceCd=160&Type=search", "url2": "https://kenritsushima.jadecom.or.jp/" }, "geometry": { "type": "Point", "coordinates": [ 136.8196163, 34.3350806 ] } },
{ "type": "Feature", "properties": { "内容": "介護老人保健施設おかなみ【通所リハビリテーション】三重県伊賀市上之庄2711番地1", "url": "https://www.kaigokensaku.mhlw.go.jp/24/index.php?action_kouhyou_detail_004_kani=true&JigyosyoCd=2451280016-00&ServiceCd=160&Type=search", "url2": "http://www.okanami.com/" }, "geometry": { "type": "Point", "coordinates": [ 136.114229900000026, 34.7297095 ] } },
{ "type": "Feature", "properties": { "内容": "医療法人アクアクリニック伊賀通所リハビリテーションセンター【通所リハビリテーション】三重県伊賀市上野丸之内１０番地の８", "url": "https://www.kaigokensaku.mhlw.go.jp/24/index.php?action_kouhyou_detail_004_kani=true&JigyosyoCd=2411205384-00&ServiceCd=160&Type=search", "url2": "https://aquaclinic-iga.com/" }, "geometry": { "type": "Point", "coordinates": [ 136.125913399999945, 34.766812 ] } },
{ "type": "Feature", "properties": { "内容": "介護老人保健施設伊賀ゆめが丘【通所リハビリテーション】三重県伊賀市ゆめが丘４四丁目１－５", "url": "https://www.kaigokensaku.mhlw.go.jp/24/index.php?action_kouhyou_detail_004_kani=true&JigyosyoCd=2451280032-00&ServiceCd=160&Type=search", "url2": "https://www.okanami.com/" }, "geometry": { "type": "Point", "coordinates": [ 136.1569541, 34.736976700000014 ] } },
{ "type": "Feature", "properties": { "内容": "介護老人保健施設　伊賀さくら苑【通所リハビリテーション】三重県伊賀市円徳院324番地1", "url": "https://www.kaigokensaku.mhlw.go.jp/24/index.php?action_kouhyou_detail_004_kani=true&JigyosyoCd=2451280040-00&ServiceCd=160&Type=search", "url2": "http://www.ohrin-mc.jp/iga/" }, "geometry": { "type": "Point", "coordinates": [ 136.1838755, 34.811718 ] } },
{ "type": "Feature", "properties": { "内容": "医療法人普照会もりえい病院附属伊勢湾岸クリニック【通所リハビリテーション】三重県桑名郡木曽岬町大字和富10番17", "url": "https://www.kaigokensaku.mhlw.go.jp/24/index.php?action_kouhyou_detail_004_kani=true&JigyosyoCd=2472000237-00&ServiceCd=160&Type=search", "url2": "http://wangansakuraclinic.jp/" }, "geometry": { "type": "Point", "coordinates": [ 136.751218200000039, 35.0668622 ] } },
{ "type": "Feature", "properties": { "内容": "介護老人保健施設友愛トピア【通所リハビリテーション】三重県三重郡菰野町大字宿野字神明田371", "url": "https://www.kaigokensaku.mhlw.go.jp/24/index.php?action_kouhyou_detail_004_kani=true&JigyosyoCd=2452280031-00&ServiceCd=160&Type=search", "url2": "http://www.yokkaichi-shoukaki.com/yuuaitopia.com" }, "geometry": { "type": "Point", "coordinates": [ 136.527662917175121, 35.005889619875134 ] } },
{ "type": "Feature", "properties": { "内容": "湯の山介護老人保健施設【通所リハビリテーション】三重県三重郡菰野町千草字東江野7045番地73", "url": "https://www.kaigokensaku.mhlw.go.jp/24/index.php?action_kouhyou_detail_004_kani=true&JigyosyoCd=2452280015-00&ServiceCd=160&Type=search", "url2": "http://www2.ocn.ne.jp/~yonaha/" }, "geometry": { "type": "Point", "coordinates": [ 136.48972040000001, 35.0339631 ] } },
{ "type": "Feature", "properties": { "内容": "菰野厚生病院通所リハビリセンターいきいき【通所リハビリテーション】三重県三重郡菰野町大字福村75番地", "url": "https://www.kaigokensaku.mhlw.go.jp/24/index.php?action_kouhyou_detail_004_kani=true&JigyosyoCd=2412205029-00&ServiceCd=160&Type=search", "url2": "http://www.miekosei.or.jp/3_kkh/" }, "geometry": { "type": "Point", "coordinates": [ 136.521167500000047, 35.0083947 ] } },
{ "type": "Feature", "properties": { "内容": "介護老人保健施設　聖十字ハイツ【通所リハビリテーション】三重県三重郡菰野町宿野1641-10", "url": "https://www.kaigokensaku.mhlw.go.jp/24/index.php?action_kouhyou_detail_004_kani=true&JigyosyoCd=2452280023-00&ServiceCd=160&Type=search", "url2": "http://suzukaseijujikai.jp/" }, "geometry": { "type": "Point", "coordinates": [ 136.518523400000049, 35.003937 ] } },
{ "type": "Feature", "properties": { "内容": "なごみの里　デイケアセンター【通所リハビリテーション】三重県多気郡多気町古江大字東山1512-1", "url": "https://www.kaigokensaku.mhlw.go.jp/24/index.php?action_kouhyou_detail_004_kani=true&JigyosyoCd=2452780022-00&ServiceCd=160&Type=search", "url2": "http://www.pmc.or.jp/nagomi/" }, "geometry": { "type": "Point", "coordinates": [ 136.480439100000012, 34.4610221 ] } },
{ "type": "Feature", "properties": { "内容": "介護老人保健施設みずほの里【通所リハビリテーション】三重県多気郡多気町仁田706番7号", "url": "https://www.kaigokensaku.mhlw.go.jp/24/index.php?action_kouhyou_detail_004_kani=true&JigyosyoCd=2452780014-00&ServiceCd=160&Type=search", "url2": "http://www.mizuhonosato.or.jp" }, "geometry": { "type": "Point", "coordinates": [ 136.546082709262123, 34.492695992075497 ] } },
{ "type": "Feature", "properties": { "内容": "介護老人保健施設第二嘉祥苑「アコラス」【通所リハビリテーション】三重県多気郡明和町大字南藤原字一水口７５１番地", "url": "https://www.kaigokensaku.mhlw.go.jp/24/index.php?action_kouhyou_detail_004_kani=true&JigyosyoCd=2452780030-00&ServiceCd=160&Type=search", "url2": "http://www.kashouen.or.jp" }, "geometry": { "type": "Point", "coordinates": [ 136.62029034310001, 34.583791801258201 ] } },
{ "type": "Feature", "properties": { "内容": "社会福祉法人恩賜財団　済生会支部三重県済生会明和病院　通所リハビリテーション【通所リハビリテーション】三重県多気郡明和町大字上野435", "url": "https://www.kaigokensaku.mhlw.go.jp/24/index.php?action_kouhyou_detail_004_kani=true&JigyosyoCd=2412705150-00&ServiceCd=160&Type=search", "url2": "http://www.meiwa-saiseikai.jp" }, "geometry": { "type": "Point", "coordinates": [ 136.631467899999961, 34.5315811 ] } },
{ "type": "Feature", "properties": { "内容": "大台町報徳診療所【通所リハビリテーション】三重県多気郡大台町江馬127", "url": "https://www.kaigokensaku.mhlw.go.jp/24/index.php?action_kouhyou_detail_004_kani=true&JigyosyoCd=2412705234-00&ServiceCd=160&Type=search", "url2": null }, "geometry": { "type": "Point", "coordinates": [ 136.338882900000044, 34.3633843 ] } },
{ "type": "Feature", "properties": { "内容": "デイケアセンターみやがわ【通所リハビリテーション】三重県多気郡大台町江馬114番地大台町介護老人保健施設みやがわ", "url": "https://www.kaigokensaku.mhlw.go.jp/24/index.php?action_kouhyou_detail_004_kani=true&JigyosyoCd=2472700976-00&ServiceCd=160&Type=search", "url2": "http://www.akeai.or.jp" }, "geometry": { "type": "Point", "coordinates": [ 136.339411914849848, 34.364023294073888 ] } },
{ "type": "Feature", "properties": { "内容": "玉城町介護老人保健施設ケアハイツ玉城【通所リハビリテーション】三重県度会郡玉城町佐田８８１", "url": "https://www.kaigokensaku.mhlw.go.jp/24/index.php?action_kouhyou_detail_004_kani=true&JigyosyoCd=2452880012-00&ServiceCd=160&Type=search", "url2": "http://www.tamaki-hsp.jp/care/index.html" }, "geometry": { "type": "Point", "coordinates": [ 136.639641799999907, 34.489512 ] } },
{ "type": "Feature", "properties": { "内容": "介護老人保健施設　弘樹苑【通所リハビリテーション】三重県度会郡玉城町原字風呂山2835", "url": "https://www.kaigokensaku.mhlw.go.jp/24/index.php?action_kouhyou_detail_004_kani=true&JigyosyoCd=2452880038-00&ServiceCd=160&Type=search", "url2": "http://www.amigo2.ne.jp/~a2880038/" }, "geometry": { "type": "Point", "coordinates": [ 136.590318848425056, 34.471624938785219 ] } },
{ "type": "Feature", "properties": { "内容": "介護老人保健施設暁　通所リハビリテーション【通所リハビリテーション】三重県度会郡大紀町大内山2951番1", "url": "https://www.kaigokensaku.mhlw.go.jp/24/index.php?action_kouhyou_detail_004_kani=true&JigyosyoCd=2452880020-00&ServiceCd=160&Type=search", "url2": "http://www.sw-jsk.or.jp/" }, "geometry": { "type": "Point", "coordinates": [ 136.351919458860777, 34.261721834892114 ] } },
{ "type": "Feature", "properties": { "内容": "あゆみ診療所【通所リハビリテーション】三重県度会郡大紀町滝原873番地", "url": "https://www.kaigokensaku.mhlw.go.jp/24/index.php?action_kouhyou_detail_004_kani=true&JigyosyoCd=2412805455-00&ServiceCd=160&Type=search", "url2": "http//kissoukai.com/" }, "geometry": { "type": "Point", "coordinates": [ 136.419043187033168, 34.36705928396389 ] } },
{ "type": "Feature", "properties": { "内容": "介護老人保健施設水脈の郷通所リハビリセンター【通所リハビリテーション】三重県度会郡南伊勢町慥柄浦1番地1", "url": "https://www.kaigokensaku.mhlw.go.jp/24/index.php?action_kouhyou_detail_004_kani=true&JigyosyoCd=2472801626-00&ServiceCd=160&Type=search", "url2": "http://www.miekosei.or.jp/6_nah/" }, "geometry": { "type": "Point", "coordinates": [ 136.569226599999979, 34.2895608 ] } },
{ "type": "Feature", "properties": { "内容": "介護老人保健施設　輝【通所リハビリテーション】三重県北牟婁郡紀北町東長島2482", "url": "https://www.kaigokensaku.mhlw.go.jp/24/index.php?action_kouhyou_detail_004_kani=true&JigyosyoCd=2453080026-00&ServiceCd=160&Type=search", "url2": "http://www.kaiseihp.com/kirari/index.html" }, "geometry": { "type": "Point", "coordinates": [ 136.339835200000039, 34.2082228 ] } },
{ "type": "Feature", "properties": { "内容": "介護老人保健施設　菖蒲園【通所リハビリテーション】三重県北牟婁郡紀北町上里239-8", "url": "https://www.kaigokensaku.mhlw.go.jp/24/index.php?action_kouhyou_detail_004_kani=true&JigyosyoCd=2453080034-00&ServiceCd=160&Type=search", "url2": "https://www.jitokukai-web.com/" }, "geometry": { "type": "Point", "coordinates": [ 136.233377, 34.1444799 ] } },
{ "type": "Feature", "properties": { "内容": "介護老人保健施設きなん苑【通所リハビリテーション】三重県南牟婁郡御浜町阿田和１７７", "url": "https://www.kaigokensaku.mhlw.go.jp/24/index.php?action_kouhyou_detail_004_kani=true&JigyosyoCd=2453180016-00&ServiceCd=160&Type=search", "url2": "http://www.kinan-hp-mie.jp/" }, "geometry": { "type": "Point", "coordinates": [ 136.035325300000068, 33.8017149 ] } },
{ "type": "Feature", "properties": { "内容": "医療法人とみむろクリニック【通所リハビリテーション】三重県南牟婁郡紀宝町成川44-1", "url": "https://www.kaigokensaku.mhlw.go.jp/24/index.php?action_kouhyou_detail_004_kani=true&JigyosyoCd=2413105228-00&ServiceCd=160&Type=search", "url2": null }, "geometry": { "type": "Point", "coordinates": [ 136.0042493, 33.74128 ] } }
]
}
