{
"type": "FeatureCollection",
"name": "geo_24_介護老人福祉施設",
"crs": { "type": "name", "properties": { "name": "urn:ogc:def:crs:OGC:1.3:CRS84" } },
"features": [
{ "type": "Feature", "properties": { "内容": "特別養護老人ホームときの音色【介護老人福祉施設】三重県津市中村町745-25ときの音色", "url": "https://www.kaigokensaku.mhlw.go.jp/24/index.php?action_kouhyou_detail_004_kani=true&JigyosyoCd=2470506045-00&ServiceCd=510&Type=search", "url2": "https://kaigo-momotaro.jp/" }, "geometry": { "type": "Point", "coordinates": [ 136.407143946597614, 34.672208407191768 ] } },
{ "type": "Feature", "properties": { "内容": "特別養護老人ホーム高田光寿園【介護老人福祉施設】三重県津市大里野田町1124-1", "url": "https://www.kaigokensaku.mhlw.go.jp/24/index.php?action_kouhyou_detail_004_kani=true&JigyosyoCd=2470500493-00&ServiceCd=510&Type=search", "url2": "http://www.takada-fukushi.jp/" }, "geometry": { "type": "Point", "coordinates": [ 136.481689798811288, 34.784230852480206 ] } },
{ "type": "Feature", "properties": { "内容": "特別養護老人ホーム　アガペホーム【介護老人福祉施設】三重県津市豊が丘５丁目47番8号", "url": "https://www.kaigokensaku.mhlw.go.jp/24/index.php?action_kouhyou_detail_004_kani=true&JigyosyoCd=2470504578-00&ServiceCd=510&Type=search", "url2": "http://betaniya.jp/" }, "geometry": { "type": "Point", "coordinates": [ 136.45949421804653, 34.806748498838161 ] } },
{ "type": "Feature", "properties": { "内容": "特別養護老人ホーム　明合乃里【介護老人福祉施設】三重県津市安濃町田端上野970-3", "url": "https://www.kaigokensaku.mhlw.go.jp/24/index.php?action_kouhyou_detail_004_kani=true&JigyosyoCd=2472400213-00&ServiceCd=510&Type=search", "url2": "http://www.akeai.or.jp/" }, "geometry": { "type": "Point", "coordinates": [ 136.436907799999972, 34.7635184 ] } },
{ "type": "Feature", "properties": { "内容": "特別養護老人ホームきずな【介護老人福祉施設】三重県津市白山町二本木1163", "url": "https://www.kaigokensaku.mhlw.go.jp/24/index.php?action_kouhyou_detail_004_kani=true&JigyosyoCd=2470502036-00&ServiceCd=510&Type=search", "url2": "http://www.akeai.or.jp" }, "geometry": { "type": "Point", "coordinates": [ 136.371187700000064, 34.6680964 ] } },
{ "type": "Feature", "properties": { "内容": "特別養護老人ホーム青松園【介護老人福祉施設】三重県津市高洲町１５番４３号", "url": "https://www.kaigokensaku.mhlw.go.jp/24/index.php?action_kouhyou_detail_004_kani=true&JigyosyoCd=2470500451-00&ServiceCd=510&Type=search", "url2": "https://seisyouen.org" }, "geometry": { "type": "Point", "coordinates": [ 136.526306, 34.725778400000017 ] } },
{ "type": "Feature", "properties": { "内容": "特別養護老人ホーム　報徳園【介護老人福祉施設】三重県津市河辺町1317番地1", "url": "https://www.kaigokensaku.mhlw.go.jp/24/index.php?action_kouhyou_detail_004_kani=true&JigyosyoCd=2470500485-00&ServiceCd=510&Type=search", "url2": "http://www.houtokuen.jp/" }, "geometry": { "type": "Point", "coordinates": [ 136.485998800000061, 34.7500239 ] } },
{ "type": "Feature", "properties": { "内容": "特別養護老人ホーム　泉園【介護老人福祉施設】津市野田２０５９", "url": "https://www.kaigokensaku.mhlw.go.jp/24/index.php?action_kouhyou_detail_004_kani=true&JigyosyoCd=2470500469-00&ServiceCd=510&Type=search", "url2": "http://www.pmc.or.jp" }, "geometry": { "type": "Point", "coordinates": [ 136.461545399999977, 34.7105433 ] } },
{ "type": "Feature", "properties": { "内容": "特別養護老人ホーム　カサデマドレ【介護老人福祉施設】三重県津市安濃町戸島569番3", "url": "https://www.kaigokensaku.mhlw.go.jp/24/index.php?action_kouhyou_detail_004_kani=true&JigyosyoCd=2470505211-00&ServiceCd=510&Type=search", "url2": "http://www.care-net.biz/24/st-francisco/" }, "geometry": { "type": "Point", "coordinates": [ 136.429461100000026, 34.7820741 ] } },
{ "type": "Feature", "properties": { "内容": "特別養護老人ホーム　フルハウス【介護老人福祉施設】三重県津市香良洲町1990", "url": "https://www.kaigokensaku.mhlw.go.jp/24/index.php?action_kouhyou_detail_004_kani=true&JigyosyoCd=2472500137-00&ServiceCd=510&Type=search", "url2": "https://hamayu-kai.or.jp" }, "geometry": { "type": "Point", "coordinates": [ 136.541545600000063, 34.6409231 ] } },
{ "type": "Feature", "properties": { "内容": "特別養護老人ホーム豊野みかんの里【介護老人福祉施設】三重県津市一身田豊野１６５９番地", "url": "https://www.kaigokensaku.mhlw.go.jp/24/index.php?action_kouhyou_detail_004_kani=true&JigyosyoCd=2470502044-00&ServiceCd=510&Type=search", "url2": "http://care-net.biz/24/toyono-mikan/" }, "geometry": { "type": "Point", "coordinates": [ 136.519255199999947, 34.7706767 ] } },
{ "type": "Feature", "properties": { "内容": "特別養護老人ホーム　安濃聖母の家【介護老人福祉施設】三重県津市安濃町今徳81の2", "url": "https://www.kaigokensaku.mhlw.go.jp/24/index.php?action_kouhyou_detail_004_kani=true&JigyosyoCd=2470503935-00&ServiceCd=510&Type=search", "url2": "http://care-net.biz/24/st-francisco/" }, "geometry": { "type": "Point", "coordinates": [ 136.445496910450743, 34.74298850084292 ] } },
{ "type": "Feature", "properties": { "内容": "特別養護老人ホーム榊原陽光苑【介護老人福祉施設】三重県津市榊原町５６８４番地", "url": "https://www.kaigokensaku.mhlw.go.jp/24/index.php?action_kouhyou_detail_004_kani=true&JigyosyoCd=2470600160-00&ServiceCd=510&Type=search", "url2": "http://www.miefukushikai.jp/" }, "geometry": { "type": "Point", "coordinates": [ 136.3725693, 34.7022326 ] } },
{ "type": "Feature", "properties": { "内容": "特別養護老人ホーム　みえ愛の里【介護老人福祉施設】三重県津市雲出本郷町字連方前２１２８番", "url": "https://www.kaigokensaku.mhlw.go.jp/24/index.php?action_kouhyou_detail_004_kani=true&JigyosyoCd=2470502648-00&ServiceCd=510&Type=search", "url2": "http://www.ainosato-mie.jp" }, "geometry": { "type": "Point", "coordinates": [ 136.5205868, 34.658453500000014 ] } },
{ "type": "Feature", "properties": { "内容": "特別養護老人ホームシルバーケア豊壽園【介護老人福祉施設】津市高茶屋小森町字瓦ｹ野4152番地", "url": "https://www.kaigokensaku.mhlw.go.jp/24/index.php?action_kouhyou_detail_004_kani=true&JigyosyoCd=2470500477-00&ServiceCd=510&Type=search", "url2": "http://www.sensin.or.jp" }, "geometry": { "type": "Point", "coordinates": [ 136.494793986691889, 34.672727155099494 ] } },
{ "type": "Feature", "properties": { "内容": "しおりの里広域型特別養護老人ホーム【介護老人福祉施設】三重県津市野田2035番地2", "url": "https://www.kaigokensaku.mhlw.go.jp/24/index.php?action_kouhyou_detail_004_kani=true&JigyosyoCd=2470503604-00&ServiceCd=510&Type=search", "url2": "https://www.pmc.or.jp/ymcg/shiori/" }, "geometry": { "type": "Point", "coordinates": [ 136.462087099999962, 34.7089491 ] } },
{ "type": "Feature", "properties": { "内容": "特別養護老人ホーム　げいのう逢春園【介護老人福祉施設】三重県津市芸濃町椋本5310番地１", "url": "https://www.kaigokensaku.mhlw.go.jp/24/index.php?action_kouhyou_detail_004_kani=true&JigyosyoCd=2472400205-00&ServiceCd=510&Type=search", "url2": null }, "geometry": { "type": "Point", "coordinates": [ 136.43020439999998, 34.8166838 ] } },
{ "type": "Feature", "properties": { "内容": "特別養護老人ホーム美里ヒルズ【介護老人福祉施設】三重県津市美里町三郷430番地", "url": "https://www.kaigokensaku.mhlw.go.jp/24/index.php?action_kouhyou_detail_004_kani=true&JigyosyoCd=2472400445-00&ServiceCd=510&Type=search", "url2": "https://www.misatohills.jp" }, "geometry": { "type": "Point", "coordinates": [ 136.386703, 34.7243686 ] } },
{ "type": "Feature", "properties": { "内容": "特別養護老人ホーム津の街【介護老人福祉施設】三重県津市一身田平野726番地6", "url": "https://www.kaigokensaku.mhlw.go.jp/24/index.php?action_kouhyou_detail_004_kani=true&JigyosyoCd=2470504727-00&ServiceCd=510&Type=search", "url2": "http://www.keihoukai.net/" }, "geometry": { "type": "Point", "coordinates": [ 136.51207772324824, 34.751964896277997 ] } },
{ "type": "Feature", "properties": { "内容": "特別養護老人ホーム　　ハートヒルかわげ【介護老人福祉施設】三重県津市河芸町浜田８６０", "url": "https://www.kaigokensaku.mhlw.go.jp/24/index.php?action_kouhyou_detail_004_kani=true&JigyosyoCd=2472400221-00&ServiceCd=510&Type=search", "url2": "http://www.heart-hill.or.jp" }, "geometry": { "type": "Point", "coordinates": [ 136.531970399999977, 34.7869755 ] } },
{ "type": "Feature", "properties": { "内容": "特別養護老人ホーム　グリーンヒル【介護老人福祉施設】三重県津市緑が丘一丁目1-2", "url": "https://www.kaigokensaku.mhlw.go.jp/24/index.php?action_kouhyou_detail_004_kani=true&JigyosyoCd=2470505567-00&ServiceCd=510&Type=search", "url2": "http://www.akeai.or.jp" }, "geometry": { "type": "Point", "coordinates": [ 136.472203797949078, 34.714265597850897 ] } },
{ "type": "Feature", "properties": { "内容": "特別養護老人ホーム　ライフかざはや【介護老人福祉施設】三重県津市戸木町４１６９－４", "url": "https://www.kaigokensaku.mhlw.go.jp/24/index.php?action_kouhyou_detail_004_kani=true&JigyosyoCd=2470502374-00&ServiceCd=510&Type=search", "url2": "http://seiju-kai.or.jp/main/life/" }, "geometry": { "type": "Point", "coordinates": [ 136.450833500000044, 34.6849991 ] } },
{ "type": "Feature", "properties": { "内容": "特別養護老人ホーム慈宗院【介護老人福祉施設】三重県津市片田長谷町167-1", "url": "https://www.kaigokensaku.mhlw.go.jp/24/index.php?action_kouhyou_detail_004_kani=true&JigyosyoCd=2470500238-00&ServiceCd=510&Type=search", "url2": "http://www.mie-keiaikai.or.jp" }, "geometry": { "type": "Point", "coordinates": [ 136.42567889999998, 34.7272064 ] } },
{ "type": "Feature", "properties": { "内容": "特別養護老人ホーム　優美【介護老人福祉施設】三重県津市白山町二本木4009-3", "url": "https://www.kaigokensaku.mhlw.go.jp/24/index.php?action_kouhyou_detail_004_kani=true&JigyosyoCd=2470504958-00&ServiceCd=510&Type=search", "url2": null }, "geometry": { "type": "Point", "coordinates": [ 136.367191553550697, 34.654177554940517 ] } },
{ "type": "Feature", "properties": { "内容": "特別養護老人ホーム千年希望の杜美杉【介護老人福祉施設】美杉町八知729番地1特別養護老人ホーム千年希望の杜美杉", "url": "https://www.kaigokensaku.mhlw.go.jp/24/index.php?action_kouhyou_detail_004_kani=true&JigyosyoCd=2470506516-00&ServiceCd=510&Type=search", "url2": "https://keishukai.or.jp/overview/" }, "geometry": { "type": "Point", "coordinates": [ 136.2803915, 34.5825619 ] } },
{ "type": "Feature", "properties": { "内容": "特別養護老人ホーム　第二フルハウス【介護老人福祉施設】三重県津市香良洲町3952-1", "url": "https://www.kaigokensaku.mhlw.go.jp/24/index.php?action_kouhyou_detail_004_kani=true&JigyosyoCd=2470503596-00&ServiceCd=510&Type=search", "url2": "https://hamayu-kai.or.jp" }, "geometry": { "type": "Point", "coordinates": [ 136.546261700000059, 34.645142 ] } },
{ "type": "Feature", "properties": { "内容": "特別養護老人ホーム　かすみの里【介護老人福祉施設】白須賀１丁目１２番８号", "url": "https://www.kaigokensaku.mhlw.go.jp/24/index.php?action_kouhyou_detail_004_kani=true&JigyosyoCd=2470204328-00&ServiceCd=510&Type=search", "url2": "http://www.eiko-kai.jp" }, "geometry": { "type": "Point", "coordinates": [ 136.642693799999961, 34.9898678 ] } },
{ "type": "Feature", "properties": { "内容": "富田浜特別養護老人ホーム浜風【介護老人福祉施設】三重県四日市市富田浜町25－10", "url": "https://www.kaigokensaku.mhlw.go.jp/24/index.php?action_kouhyou_detail_004_kani=true&JigyosyoCd=2470203825-00&ServiceCd=510&Type=search", "url2": "https://tomidahama.jp/stay-hamakaze/" }, "geometry": { "type": "Point", "coordinates": [ 136.6532568, 34.9975168 ] } },
{ "type": "Feature", "properties": { "内容": "特別養護老人ホームさくらスマイル【介護老人福祉施設】三重県四日市市浜一色町15番14-1号特別養護老人ホームさくらスマイル", "url": "https://www.kaigokensaku.mhlw.go.jp/24/index.php?action_kouhyou_detail_004_kani=true&JigyosyoCd=2470205549-00&ServiceCd=510&Type=search", "url2": "sakuracom.or.jp" }, "geometry": { "type": "Point", "coordinates": [ 136.634578912303141, 34.978806161735072 ] } },
{ "type": "Feature", "properties": { "内容": "特別養護老人ホームうねめの里【介護老人福祉施設】四日市市釆女町字森ヶ山４１８番の１特別養護老人ホーム　うねめの里", "url": "https://www.kaigokensaku.mhlw.go.jp/24/index.php?action_kouhyou_detail_004_kani=true&JigyosyoCd=2470202009-00&ServiceCd=510&Type=search", "url2": "https://www.eiko-kai.jp" }, "geometry": { "type": "Point", "coordinates": [ 136.580823542358416, 34.933032383437386 ] } },
{ "type": "Feature", "properties": { "内容": "特別養護老人ホーム南部陽光苑【介護老人福祉施設】三重県四日市市河原田町２１４６番地", "url": "https://www.kaigokensaku.mhlw.go.jp/24/index.php?action_kouhyou_detail_004_kani=true&JigyosyoCd=2470200409-00&ServiceCd=510&Type=search", "url2": "http://www.miefukushikai.or.jp/" }, "geometry": { "type": "Point", "coordinates": [ 136.599071800000047, 34.9102136 ] } },
{ "type": "Feature", "properties": { "内容": "介護総合センターかんざき【介護老人福祉施設】三重県四日市市寺方町字東谷986-4", "url": "https://www.kaigokensaku.mhlw.go.jp/24/index.php?action_kouhyou_detail_004_kani=true&JigyosyoCd=2470200169-00&ServiceCd=510&Type=search", "url2": "info@seizanrikai.jp" }, "geometry": { "type": "Point", "coordinates": [ 136.558798600000046, 34.9916281 ] } },
{ "type": "Feature", "properties": { "内容": "特別養護老人ホーム　英水苑（ユニット型小規模）【介護老人福祉施設】三重県四日市市智積町中須34-1", "url": "https://www.kaigokensaku.mhlw.go.jp/24/index.php?action_kouhyou_detail_004_kani=true&JigyosyoCd=2470204567-00&ServiceCd=510&Type=search", "url2": "http://www.eisuikai.jp/" }, "geometry": { "type": "Point", "coordinates": [ 136.543005200000039, 34.9996771 ] } },
{ "type": "Feature", "properties": { "内容": "特別養護老人ホーム　日永英水苑　（従来型）【介護老人福祉施設】三重県四日市市大字日永5530番地の23", "url": "https://www.kaigokensaku.mhlw.go.jp/24/index.php?action_kouhyou_detail_004_kani=true&JigyosyoCd=2470204633-00&ServiceCd=510&Type=search", "url2": "http://www.eisuikai.jp" }, "geometry": { "type": "Point", "coordinates": [ 136.585489847885128, 34.941177203697883 ] } },
{ "type": "Feature", "properties": { "内容": "特別養護老人ホーム　日永英水苑　（ユニット型）【介護老人福祉施設】三重県四日市市大字日永5530番地の23", "url": "https://www.kaigokensaku.mhlw.go.jp/24/index.php?action_kouhyou_detail_004_kani=true&JigyosyoCd=2470204641-00&ServiceCd=510&Type=search", "url2": "http://www.eisuikai.jp" }, "geometry": { "type": "Point", "coordinates": [ 136.58544693254089, 34.94120358827719 ] } },
{ "type": "Feature", "properties": { "内容": "第二小山田特別養護老人ホーム【介護老人福祉施設】三重県四日市市山田町5513", "url": "https://www.kaigokensaku.mhlw.go.jp/24/index.php?action_kouhyou_detail_004_kani=true&JigyosyoCd=2470200441-00&ServiceCd=510&Type=search", "url2": "http://seizanrikai.jp" }, "geometry": { "type": "Point", "coordinates": [ 136.5392554, 34.9419353 ] } },
{ "type": "Feature", "properties": { "内容": "特別養護老人ホーム　英水苑【介護老人福祉施設】三重県四日市市智積町中須34-1", "url": "https://www.kaigokensaku.mhlw.go.jp/24/index.php?action_kouhyou_detail_004_kani=true&JigyosyoCd=2470200391-00&ServiceCd=510&Type=search", "url2": "http://www.eisuikai.jp" }, "geometry": { "type": "Point", "coordinates": [ 136.543005200000039, 34.9996771 ] } },
{ "type": "Feature", "properties": { "内容": "特別養護老人ホーム　高浜楽々館【介護老人福祉施設】三重県四日市市高浜町8番26号", "url": "https://www.kaigokensaku.mhlw.go.jp/24/index.php?action_kouhyou_detail_004_kani=true&JigyosyoCd=2470205556-00&ServiceCd=510&Type=search", "url2": "http://www.suzuranfukushikai.jp/" }, "geometry": { "type": "Point", "coordinates": [ 136.638391700000057, 34.9773306 ] } },
{ "type": "Feature", "properties": { "内容": "特別養護老人ホーム　よっかいち諧朋苑【介護老人福祉施設】四日市市西大鐘町字山添１５８０番地", "url": "https://www.kaigokensaku.mhlw.go.jp/24/index.php?action_kouhyou_detail_004_kani=true&JigyosyoCd=2470200425-00&ServiceCd=510&Type=search", "url2": "http://www.kaihouen.jp" }, "geometry": { "type": "Point", "coordinates": [ 136.60357366325988, 35.043238526538346 ] } },
{ "type": "Feature", "properties": { "内容": "特別養護老人ホーム　よっかいち諧朋苑（ユニット型）【介護老人福祉施設】三重県四日市市西大鐘町字山添1580番地", "url": "https://www.kaigokensaku.mhlw.go.jp/24/index.php?action_kouhyou_detail_004_kani=true&JigyosyoCd=2470204559-00&ServiceCd=510&Type=search", "url2": "http://www.kaihouen.jp/" }, "geometry": { "type": "Point", "coordinates": [ 136.60356293442382, 35.043220958735432 ] } },
{ "type": "Feature", "properties": { "内容": "介護老人福祉施設　みのりの里【介護老人福祉施設】三重県四日市市楠町本郷1139番地１", "url": "https://www.kaigokensaku.mhlw.go.jp/24/index.php?action_kouhyou_detail_004_kani=true&JigyosyoCd=2472200175-00&ServiceCd=510&Type=search", "url2": "ｔｏｋｕｊｕｋａｉ．ｃｏｍ" }, "geometry": { "type": "Point", "coordinates": [ 136.618520200000034, 34.9103254 ] } },
{ "type": "Feature", "properties": { "内容": "特別養護老人ホーム陽光苑【介護老人福祉施設】三重県四日市市西坂部町1127番地", "url": "https://www.kaigokensaku.mhlw.go.jp/24/index.php?action_kouhyou_detail_004_kani=true&JigyosyoCd=2470200417-00&ServiceCd=510&Type=search", "url2": "http://www.miefukushikai.jp/" }, "geometry": { "type": "Point", "coordinates": [ 136.586632, 35.0074542 ] } },
{ "type": "Feature", "properties": { "内容": "特別養護老人ホーム　風の路【介護老人福祉施設】四日市市塩浜栄町471", "url": "https://www.kaigokensaku.mhlw.go.jp/24/index.php?action_kouhyou_detail_004_kani=true&JigyosyoCd=2470202314-00&ServiceCd=510&Type=search", "url2": "http://kazekaorukai.com/" }, "geometry": { "type": "Point", "coordinates": [ 136.616474688004814, 34.929572567462301 ] } },
{ "type": "Feature", "properties": { "内容": "くぬぎの木特別養護老人ホーム【介護老人福祉施設】1245-7", "url": "https://www.kaigokensaku.mhlw.go.jp/24/index.php?action_kouhyou_detail_004_kani=true&JigyosyoCd=2470203791-00&ServiceCd=510&Type=search", "url2": "http://www.kunuginoki.jp" }, "geometry": { "type": "Point", "coordinates": [ -77.257958499999972, 44.2503223 ] } },
{ "type": "Feature", "properties": { "内容": "小山田特別養護老人ホーム【介護老人福祉施設】三重県四日市市山田町5500-1", "url": "https://www.kaigokensaku.mhlw.go.jp/24/index.php?action_kouhyou_detail_004_kani=true&JigyosyoCd=2470200433-00&ServiceCd=510&Type=search", "url2": "https://seizanrikai.jp/" }, "geometry": { "type": "Point", "coordinates": [ 136.528372699999977, 34.9468736 ] } },
{ "type": "Feature", "properties": { "内容": "小山田特別養護老人ホーム【介護老人福祉施設】四日市市山田町5500-1", "url": "https://www.kaigokensaku.mhlw.go.jp/24/index.php?action_kouhyou_detail_004_kani=true&JigyosyoCd=2470204716-00&ServiceCd=510&Type=search", "url2": "https://seizanrikai.jp/" }, "geometry": { "type": "Point", "coordinates": [ 136.528361971163918, 34.94683402586454 ] } },
{ "type": "Feature", "properties": { "内容": "介護老人福祉施設　ヴィラ四日市ユニット【介護老人福祉施設】四日市市垂坂町8番地の2", "url": "https://www.kaigokensaku.mhlw.go.jp/24/index.php?action_kouhyou_detail_004_kani=true&JigyosyoCd=2470204724-00&ServiceCd=510&Type=search", "url2": "http//yokkaichi.tokuyou.jp/index.html" }, "geometry": { "type": "Point", "coordinates": [ 136.627655399999981, 35.0053741 ] } },
{ "type": "Feature", "properties": { "内容": "特別養護老人ホームアリビオ【介護老人福祉施設】三重県四日市市大字塩浜字八幡149-1", "url": "https://www.kaigokensaku.mhlw.go.jp/24/index.php?action_kouhyou_detail_004_kani=true&JigyosyoCd=2470205127-00&ServiceCd=510&Type=search", "url2": "http://kazekaorukai.jimdo.com/" }, "geometry": { "type": "Point", "coordinates": [ 136.614806128836108, 34.927936130347554 ] } },
{ "type": "Feature", "properties": { "内容": "特別養護老人ホーム　ふたみ苑【介護老人福祉施設】三重県伊勢市二見町三津字南浦1201番地68特別養護老人ホーム　ふたみ苑", "url": "https://www.kaigokensaku.mhlw.go.jp/24/index.php?action_kouhyou_detail_004_kani=true&JigyosyoCd=2470802493-00&ServiceCd=510&Type=search", "url2": "http://www.koushin.or.jp/" }, "geometry": { "type": "Point", "coordinates": [ 136.783122286183101, 34.496616903691326 ] } },
{ "type": "Feature", "properties": { "内容": "特別養護老人ホーム　正邦苑【介護老人福祉施設】三重県伊勢市村松町３２９４番地１", "url": "https://www.kaigokensaku.mhlw.go.jp/24/index.php?action_kouhyou_detail_004_kani=true&JigyosyoCd=2470800216-00&ServiceCd=510&Type=search", "url2": "http://www.jikeikai-ise.or.jp/" }, "geometry": { "type": "Point", "coordinates": [ 136.689518, 34.5442729 ] } },
{ "type": "Feature", "properties": { "内容": "特別養護老人ホーム　正邦苑靜乾【介護老人福祉施設】三重県伊勢市村松町3355番1", "url": "https://www.kaigokensaku.mhlw.go.jp/24/index.php?action_kouhyou_detail_004_kani=true&JigyosyoCd=2470800935-00&ServiceCd=510&Type=search", "url2": "http://www.jikeikai-ise.or.jp/shisetsu/seikan.html" }, "geometry": { "type": "Point", "coordinates": [ 136.691092799999979, 34.5440646 ] } },
{ "type": "Feature", "properties": { "内容": "特別養護老人ホーム　神路園【介護老人福祉施設】三重県伊勢市二俣町577番地9", "url": "https://www.kaigokensaku.mhlw.go.jp/24/index.php?action_kouhyou_detail_004_kani=true&JigyosyoCd=2470800182-00&ServiceCd=510&Type=search", "url2": "http://www.amigo2.ne.jp/~kamizien/" }, "geometry": { "type": "Point", "coordinates": [ 136.681602099999964, 34.4748179 ] } },
{ "type": "Feature", "properties": { "内容": "特別養護老人ホーム　高砂寮【介護老人福祉施設】三重県伊勢市小俣町宮前38", "url": "https://www.kaigokensaku.mhlw.go.jp/24/index.php?action_kouhyou_detail_004_kani=true&JigyosyoCd=2472800289-00&ServiceCd=510&Type=search", "url2": "http://takasago-ise.jp" }, "geometry": { "type": "Point", "coordinates": [ 136.681316199999969, 34.4950954 ] } },
{ "type": "Feature", "properties": { "内容": "特別養護老人ホーム　雅之園【介護老人福祉施設】三重県伊勢市小俣町本町341番104", "url": "https://www.kaigokensaku.mhlw.go.jp/24/index.php?action_kouhyou_detail_004_kani=true&JigyosyoCd=2470802022-00&ServiceCd=510&Type=search", "url2": "http://www.hoeikai.or.jp" }, "geometry": { "type": "Point", "coordinates": [ 136.66454269999997, 34.5029604 ] } },
{ "type": "Feature", "properties": { "内容": "特別養護老人ホーム白百合園【介護老人福祉施設】三重県伊勢市上地町3130番地", "url": "https://www.kaigokensaku.mhlw.go.jp/24/index.php?action_kouhyou_detail_004_kani=true&JigyosyoCd=2470800208-00&ServiceCd=510&Type=search", "url2": "https://fukutokukai.jp/" }, "geometry": { "type": "Point", "coordinates": [ 136.656523900000025, 34.5008105 ] } },
{ "type": "Feature", "properties": { "内容": "特別養護老人ホーム賀集楽【介護老人福祉施設】三重県伊勢市宇治浦田三丁目23番15号", "url": "https://www.kaigokensaku.mhlw.go.jp/24/index.php?action_kouhyou_detail_004_kani=true&JigyosyoCd=2470802725-00&ServiceCd=510&Type=search", "url2": "https://www.kashuraku.jp/" }, "geometry": { "type": "Point", "coordinates": [ 136.715085400000021, 34.4686226 ] } },
{ "type": "Feature", "properties": { "内容": "特別養護老人ホーム　双寿園【介護老人福祉施設】三重県伊勢市河崎3丁目15番33号", "url": "https://www.kaigokensaku.mhlw.go.jp/24/index.php?action_kouhyou_detail_004_kani=true&JigyosyoCd=2470800190-00&ServiceCd=510&Type=search", "url2": "http://www.hoeikai.or.jp/main/" }, "geometry": { "type": "Point", "coordinates": [ 136.718765599999983, 34.4957555 ] } },
{ "type": "Feature", "properties": { "内容": "特別養護老人ホーム　伊勢あさま苑【介護老人福祉施設】三重県伊勢市朝熊町3074-11", "url": "https://www.kaigokensaku.mhlw.go.jp/24/index.php?action_kouhyou_detail_004_kani=true&JigyosyoCd=2470800315-00&ServiceCd=510&Type=search", "url2": "http://www.asamaen.jp" }, "geometry": { "type": "Point", "coordinates": [ 136.759001300000023, 34.490104 ] } },
{ "type": "Feature", "properties": { "内容": "特別養護老人ホームいすず苑【介護老人福祉施設】三重県伊勢市楠部町若ノ山2605-33", "url": "https://www.kaigokensaku.mhlw.go.jp/24/index.php?action_kouhyou_detail_004_kani=true&JigyosyoCd=2470800620-00&ServiceCd=510&Type=search", "url2": "https://isuzukai.or.jp" }, "geometry": { "type": "Point", "coordinates": [ 136.7389948, 34.476925 ] } },
{ "type": "Feature", "properties": { "内容": "南勢カトリック特別養護老人ホーム【介護老人福祉施設】三重県松阪市小阿坂町1986番地", "url": "https://www.kaigokensaku.mhlw.go.jp/24/index.php?action_kouhyou_detail_004_kani=true&JigyosyoCd=2470700218-00&ServiceCd=510&Type=search", "url2": "http://nankato.or.jp" }, "geometry": { "type": "Point", "coordinates": [ 136.473378799999978, 34.5787248 ] } },
{ "type": "Feature", "properties": { "内容": "特別養護老人ホーム　飯高有徳園【介護老人福祉施設】三重県松阪市飯高町下滝野1350番地2", "url": "https://www.kaigokensaku.mhlw.go.jp/24/index.php?action_kouhyou_detail_004_kani=true&JigyosyoCd=2470702735-00&ServiceCd=510&Type=search", "url2": "http://www.yu-toku.jp" }, "geometry": { "type": "Point", "coordinates": [ 136.3413825, 34.4376856 ] } },
{ "type": "Feature", "properties": { "内容": "特別養護老人ホーム　飯高有徳園【介護老人福祉施設】三重県松阪市飯高町下滝野1350番地2", "url": "https://www.kaigokensaku.mhlw.go.jp/24/index.php?action_kouhyou_detail_004_kani=true&JigyosyoCd=2472600051-00&ServiceCd=510&Type=search", "url2": "http://www.yu-toku.jp" }, "geometry": { "type": "Point", "coordinates": [ 136.3413825, 34.4376856 ] } },
{ "type": "Feature", "properties": { "内容": "特別養護老人ホーム　吉祥苑【介護老人福祉施設】三重県松阪市鎌田町275-1", "url": "https://www.kaigokensaku.mhlw.go.jp/24/index.php?action_kouhyou_detail_004_kani=true&JigyosyoCd=2470700234-00&ServiceCd=510&Type=search", "url2": "http://www.sumire-kai.or.jp/" }, "geometry": { "type": "Point", "coordinates": [ 136.536339, 34.5822543 ] } },
{ "type": "Feature", "properties": { "内容": "特別養護老人ホーム第二吉祥苑【介護老人福祉施設】三重県松阪市五主町391-1", "url": "https://www.kaigokensaku.mhlw.go.jp/24/index.php?action_kouhyou_detail_004_kani=true&JigyosyoCd=2472500392-00&ServiceCd=510&Type=search", "url2": "http://www.sumire-kai.or.jp/" }, "geometry": { "type": "Point", "coordinates": [ 136.537599, 34.6270802 ] } },
{ "type": "Feature", "properties": { "内容": "特別養護老人ホーム　第2まごころ苑【介護老人福祉施設】三重県松阪市川井町1354‐1", "url": "https://www.kaigokensaku.mhlw.go.jp/24/index.php?action_kouhyou_detail_004_kani=true&JigyosyoCd=2470700432-00&ServiceCd=510&Type=search", "url2": "http://www.sawayaka-well.jp/" }, "geometry": { "type": "Point", "coordinates": [ 136.525945299999989, 34.5876699 ] } },
{ "type": "Feature", "properties": { "内容": "特別養護老人ホーム　愛生苑【介護老人福祉施設】三重県松阪市上川町3461番地36", "url": "https://www.kaigokensaku.mhlw.go.jp/24/index.php?action_kouhyou_detail_004_kani=true&JigyosyoCd=2470703030-00&ServiceCd=510&Type=search", "url2": "http://miekf.com" }, "geometry": { "type": "Point", "coordinates": [ 136.564615499999945, 34.5408401 ] } },
{ "type": "Feature", "properties": { "内容": "特別養護老人ホームやまゆりの里【介護老人福祉施設】松阪市嬉野中川町1528－101", "url": "https://www.kaigokensaku.mhlw.go.jp/24/index.php?action_kouhyou_detail_004_kani=true&JigyosyoCd=2470701158-00&ServiceCd=510&Type=search", "url2": "http://www.akeai.or.jp/" }, "geometry": { "type": "Point", "coordinates": [ 136.47637229999998, 34.6249485 ] } },
{ "type": "Feature", "properties": { "内容": "特別養護老人ホームなでしこ苑（従来型）【介護老人福祉施設】三重県松阪市曲町字小紋1481番地", "url": "https://www.kaigokensaku.mhlw.go.jp/24/index.php?action_kouhyou_detail_004_kani=true&JigyosyoCd=2470703949-00&ServiceCd=510&Type=search", "url2": "http://www.nadesicoen.com/" }, "geometry": { "type": "Point", "coordinates": [ 136.51133387957421, 34.583644272537477 ] } },
{ "type": "Feature", "properties": { "内容": "特別養護老人ホームなでしこ苑（ユニット型）【介護老人福祉施設】三重県松阪市曲町字小紋1481番地", "url": "https://www.kaigokensaku.mhlw.go.jp/24/index.php?action_kouhyou_detail_004_kani=true&JigyosyoCd=2470703956-00&ServiceCd=510&Type=search", "url2": "https://www.nadesicoen.net" }, "geometry": { "type": "Point", "coordinates": [ 136.511181885766604, 34.583742904791222 ] } },
{ "type": "Feature", "properties": { "内容": "特別養護老人ホームさくらの郷【介護老人福祉施設】三重県松阪市桜町35番地", "url": "https://www.kaigokensaku.mhlw.go.jp/24/index.php?action_kouhyou_detail_004_kani=true&JigyosyoCd=2470703022-00&ServiceCd=510&Type=search", "url2": "http://www.sakuraen.com/sakuranosato/" }, "geometry": { "type": "Point", "coordinates": [ 136.511208533423797, 34.568616191338926 ] } },
{ "type": "Feature", "properties": { "内容": "特別養護老人ホーム　松阪天啓苑【介護老人福祉施設】松阪市高須町3460番17", "url": "https://www.kaigokensaku.mhlw.go.jp/24/index.php?action_kouhyou_detail_004_kani=true&JigyosyoCd=2470701414-00&ServiceCd=510&Type=search", "url2": "ikushinkai-tm.jp" }, "geometry": { "type": "Point", "coordinates": [ 136.56564979999996, 34.5970592 ] } },
{ "type": "Feature", "properties": { "内容": "介護老人福祉施設　花みずき【介護老人福祉施設】三重県松阪市久保町1926-1", "url": "https://www.kaigokensaku.mhlw.go.jp/24/index.php?action_kouhyou_detail_004_kani=true&JigyosyoCd=2470701448-00&ServiceCd=510&Type=search", "url2": null }, "geometry": { "type": "Point", "coordinates": [ 136.527455, 34.5391308 ] } },
{ "type": "Feature", "properties": { "内容": "特別養護老人ホームさくら園【介護老人福祉施設】三重県松阪市下蛸路町409-1", "url": "https://www.kaigokensaku.mhlw.go.jp/24/index.php?action_kouhyou_detail_004_kani=true&JigyosyoCd=2470702073-00&ServiceCd=510&Type=search", "url2": "http://www.sakuraen.com" }, "geometry": { "type": "Point", "coordinates": [ 136.54243740000004, 34.524333 ] } },
{ "type": "Feature", "properties": { "内容": "特別養護老人ホーム松阪有徳園【介護老人福祉施設】三重県松阪市久保町1855番地113", "url": "https://www.kaigokensaku.mhlw.go.jp/24/index.php?action_kouhyou_detail_004_kani=true&JigyosyoCd=2470702289-00&ServiceCd=510&Type=search", "url2": "http://www.yu-toku.jp" }, "geometry": { "type": "Point", "coordinates": [ 136.532912700000054, 34.5424139 ] } },
{ "type": "Feature", "properties": { "内容": "特別養護老人ホームほほえみ桑名【介護老人福祉施設】三重県桑名市大字桑部字中貝戸681-4", "url": "https://www.kaigokensaku.mhlw.go.jp/24/index.php?action_kouhyou_detail_004_kani=true&JigyosyoCd=2470102142-00&ServiceCd=510&Type=search", "url2": "https://hohoemi-g.com" }, "geometry": { "type": "Point", "coordinates": [ 136.651825705587726, 35.049749448540354 ] } },
{ "type": "Feature", "properties": { "内容": "特別養護老人ホーム長寿苑【介護老人福祉施設】三重県桑名市額田1256番地2", "url": "https://www.kaigokensaku.mhlw.go.jp/24/index.php?action_kouhyou_detail_004_kani=true&JigyosyoCd=2470100195-00&ServiceCd=510&Type=search", "url2": "https://www.chojuen.org/" }, "geometry": { "type": "Point", "coordinates": [ 136.639282700199828, 35.073642517310049 ] } },
{ "type": "Feature", "properties": { "内容": "特別養護老人ホームアパティア長島苑【介護老人福祉施設】三重県桑名市長島町西外面１０７０番地", "url": "https://www.kaigokensaku.mhlw.go.jp/24/index.php?action_kouhyou_detail_004_kani=true&JigyosyoCd=2470100872-00&ServiceCd=510&Type=search", "url2": "http://www/apatheia.jp" }, "geometry": { "type": "Point", "coordinates": [ 136.692095900000027, 35.0938962 ] } },
{ "type": "Feature", "properties": { "内容": "特別養護老人ホーム　いこい【介護老人福祉施設】三重県桑名市大字西金井字村中１７０番地", "url": "https://www.kaigokensaku.mhlw.go.jp/24/index.php?action_kouhyou_detail_004_kani=true&JigyosyoCd=2470100518-00&ServiceCd=510&Type=search", "url2": "http://www.ikoi-mie.com" }, "geometry": { "type": "Point", "coordinates": [ 136.666118500000039, 35.0508638 ] } },
{ "type": "Feature", "properties": { "内容": "特別養護老人ホーム　ソフトハウス【介護老人福祉施設】三重県桑名市多度町福永字西福永４４０番地４８", "url": "https://www.kaigokensaku.mhlw.go.jp/24/index.php?action_kouhyou_detail_004_kani=true&JigyosyoCd=2472000161-00&ServiceCd=510&Type=search", "url2": "http://softhouse.jp/" }, "geometry": { "type": "Point", "coordinates": [ 136.648613916008031, 35.145004079391271 ] } },
{ "type": "Feature", "properties": { "内容": "特別養護老人ホーム　鈴鹿聖十字の家【介護老人福祉施設】三重県鈴鹿市木田町1961番地", "url": "https://www.kaigokensaku.mhlw.go.jp/24/index.php?action_kouhyou_detail_004_kani=true&JigyosyoCd=2470300035-00&ServiceCd=510&Type=search", "url2": "http://www.suzukaseijujikai.jp/" }, "geometry": { "type": "Point", "coordinates": [ 136.563073600000052, 34.9049943 ] } },
{ "type": "Feature", "properties": { "内容": "特別養護老人ホーム　伊勢マリンホーム【介護老人福祉施設】三重県鈴鹿市南若松町字南新田1", "url": "https://www.kaigokensaku.mhlw.go.jp/24/index.php?action_kouhyou_detail_004_kani=true&JigyosyoCd=2470300290-00&ServiceCd=510&Type=search", "url2": "http://isemarin,jp/" }, "geometry": { "type": "Point", "coordinates": [ 136.599608297283908, 34.838324383591846 ] } },
{ "type": "Feature", "properties": { "内容": "特別養護老人ホーム　伊勢マリンホーム　ユニット【介護老人福祉施設】三重県鈴鹿市南若松町1番地", "url": "https://www.kaigokensaku.mhlw.go.jp/24/index.php?action_kouhyou_detail_004_kani=true&JigyosyoCd=2470302817-00&ServiceCd=510&Type=search", "url2": "http://isemarin.jp/" }, "geometry": { "type": "Point", "coordinates": [ 136.599619399999938, 34.8383342 ] } },
{ "type": "Feature", "properties": { "内容": "特別養護老人ホーム鈴鹿グリーンホーム【介護老人福祉施設】三重県鈴鹿市深溝町字北林2956番地", "url": "https://www.kaigokensaku.mhlw.go.jp/24/index.php?action_kouhyou_detail_004_kani=true&JigyosyoCd=2470300274-00&ServiceCd=510&Type=search", "url2": "https://suzuka-greenhome.jp/" }, "geometry": { "type": "Point", "coordinates": [ 136.505925499999989, 34.935340600000025 ] } },
{ "type": "Feature", "properties": { "内容": "特別養護老人ホームルーエハイム【介護老人福祉施設】三重県鈴鹿市長法寺町字権現763番地", "url": "https://www.kaigokensaku.mhlw.go.jp/24/index.php?action_kouhyou_detail_004_kani=true&JigyosyoCd=2470300167-00&ServiceCd=510&Type=search", "url2": "https://www.ruheheim.com" }, "geometry": { "type": "Point", "coordinates": [ 136.508463302852533, 34.826478416385079 ] } },
{ "type": "Feature", "properties": { "内容": "介護老人福祉施設　かなしょうず園【介護老人福祉施設】鈴鹿市地子町字金生水８１４番地の３０", "url": "https://www.kaigokensaku.mhlw.go.jp/24/index.php?action_kouhyou_detail_004_kani=true&JigyosyoCd=2470300308-00&ServiceCd=510&Type=search", "url2": "http://tennenkai.or.jp/" }, "geometry": { "type": "Point", "coordinates": [ 136.561982899999947, 34.8664498 ] } },
{ "type": "Feature", "properties": { "内容": "特別養護老人ホーム　ルーエハイム【介護老人福祉施設】三重県鈴鹿市長法寺町字権現763番地", "url": "https://www.kaigokensaku.mhlw.go.jp/24/index.php?action_kouhyou_detail_004_kani=true&JigyosyoCd=2470302833-00&ServiceCd=510&Type=search", "url2": "https://www.ruheheim.com" }, "geometry": { "type": "Point", "coordinates": [ 136.508437666916279, 34.826499201719578 ] } },
{ "type": "Feature", "properties": { "内容": "特別養護老人ホーム　鈴鹿香寿苑【介護老人福祉施設】鈴鹿市稲生西3丁目17番17号鈴鹿香寿苑", "url": "https://www.kaigokensaku.mhlw.go.jp/24/index.php?action_kouhyou_detail_004_kani=true&JigyosyoCd=2470303237-00&ServiceCd=510&Type=search", "url2": "http://www.keyakien.jp/" }, "geometry": { "type": "Point", "coordinates": [ 136.556858760049437, 34.841722761990738 ] } },
{ "type": "Feature", "properties": { "内容": "特別養護老人ホームひまわり苑【介護老人福祉施設】鈴鹿市須賀一丁目２８－２３", "url": "https://www.kaigokensaku.mhlw.go.jp/24/index.php?action_kouhyou_detail_004_kani=true&JigyosyoCd=2470300902-00&ServiceCd=510&Type=search", "url2": "http://www.murase.or.jp/nyusho_yougo.php" }, "geometry": { "type": "Point", "coordinates": [ 136.591381, 34.8857738 ] } },
{ "type": "Feature", "properties": { "内容": "特別養護老人ホームひまわり苑（従来型）【介護老人福祉施設】須賀一丁目28-23", "url": "https://www.kaigokensaku.mhlw.go.jp/24/index.php?action_kouhyou_detail_004_kani=true&JigyosyoCd=2470302460-00&ServiceCd=510&Type=search", "url2": "http://www.murase.or.jp/youkoukai-web/" }, "geometry": { "type": "Point", "coordinates": [ 136.591381, 34.8857738 ] } },
{ "type": "Feature", "properties": { "内容": "介護老人福祉施設　くすのき園【介護老人福祉施設】三重県鈴鹿市若松西六丁目28番18号", "url": "https://www.kaigokensaku.mhlw.go.jp/24/index.php?action_kouhyou_detail_004_kani=true&JigyosyoCd=2470300282-00&ServiceCd=510&Type=search", "url2": "https://jidoukai-kusunokien.com/" }, "geometry": { "type": "Point", "coordinates": [ 136.612354099999948, 34.876572 ] } },
{ "type": "Feature", "properties": { "内容": "特別養護老人ホーム　ルーエハイム庄野【介護老人福祉施設】三重県鈴鹿市庄野町８５６番地", "url": "https://www.kaigokensaku.mhlw.go.jp/24/index.php?action_kouhyou_detail_004_kani=true&JigyosyoCd=2470303856-00&ServiceCd=510&Type=search", "url2": "http://hakuaikai.ruheheim.com/" }, "geometry": { "type": "Point", "coordinates": [ 136.533541353442359, 34.881413357142563 ] } },
{ "type": "Feature", "properties": { "内容": "特別養護老人ホーム桜の森白子ホーム【介護老人福祉施設】三重県鈴鹿市南玉垣町７３００－２特別養護老人ホーム桜の森白子ホーム", "url": "https://www.kaigokensaku.mhlw.go.jp/24/index.php?action_kouhyou_detail_004_kani=true&JigyosyoCd=2470303013-00&ServiceCd=510&Type=search", "url2": "http://www.shiroko-home.com/" }, "geometry": { "type": "Point", "coordinates": [ 136.585187, 34.8582043 ] } },
{ "type": "Feature", "properties": { "内容": "名張特別養護老人ホーム【介護老人福祉施設】三重県名張市新田2230-2", "url": "https://www.kaigokensaku.mhlw.go.jp/24/index.php?action_kouhyou_detail_004_kani=true&JigyosyoCd=2471300067-00&ServiceCd=510&Type=search", "url2": "https://www.nabari-kosei.or.jp/koureisha-fukushi/tokuyou/" }, "geometry": { "type": "Point", "coordinates": [ 136.126730834020606, 34.662558085847031 ] } },
{ "type": "Feature", "properties": { "内容": "特別養護老人ホーム　第２はなの里【介護老人福祉施設】三重県名張市百合が丘西５番町１番地", "url": "https://www.kaigokensaku.mhlw.go.jp/24/index.php?action_kouhyou_detail_004_kani=true&JigyosyoCd=2471300638-00&ServiceCd=510&Type=search", "url2": "http://www.hananosato-nabari.com" }, "geometry": { "type": "Point", "coordinates": [ 136.096261799999979, 34.6040027 ] } },
{ "type": "Feature", "properties": { "内容": "特別養護老人ホーム　はなの里【介護老人福祉施設】三重県名張市西田原2000番地", "url": "https://www.kaigokensaku.mhlw.go.jp/24/index.php?action_kouhyou_detail_004_kani=true&JigyosyoCd=2471300141-00&ServiceCd=510&Type=search", "url2": "http://www.hananosato-nabari.com" }, "geometry": { "type": "Point", "coordinates": [ 136.10661719999996, 34.6556786 ] } },
{ "type": "Feature", "properties": { "内容": "特別養護老人ホーム第３はなの里【介護老人福祉施設】西田原２１００番地", "url": "https://www.kaigokensaku.mhlw.go.jp/24/index.php?action_kouhyou_detail_004_kani=true&JigyosyoCd=2471300778-00&ServiceCd=510&Type=search", "url2": "http://www.hananosato-nabari.com" }, "geometry": { "type": "Point", "coordinates": [ 136.106845, 34.6548065 ] } },
{ "type": "Feature", "properties": { "内容": "特別養護老人ホーム　グランツァ【介護老人福祉施設】三重県名張市美旗中村１４１７番地２", "url": "https://www.kaigokensaku.mhlw.go.jp/24/index.php?action_kouhyou_detail_004_kani=true&JigyosyoCd=2471301248-00&ServiceCd=510&Type=search", "url2": "https://www.n-ikuseien.jp" }, "geometry": { "type": "Point", "coordinates": [ 136.132581437803651, 34.645883955806262 ] } },
{ "type": "Feature", "properties": { "内容": "特別養護老人ホーム　第5はなの里【介護老人福祉施設】三重県名張市百合が丘西5番町27番地", "url": "https://www.kaigokensaku.mhlw.go.jp/24/index.php?action_kouhyou_detail_004_kani=true&JigyosyoCd=2471301446-00&ServiceCd=510&Type=search", "url2": "https://hananosato-nabari.com" }, "geometry": { "type": "Point", "coordinates": [ 136.0938879, 34.606209 ] } },
{ "type": "Feature", "properties": { "内容": "特別養護老人ホーム　名張もみじ山荘【介護老人福祉施設】三重県名張市赤目町長坂日之谷250番3特別養護老人ホーム名張もみじ山荘", "url": "https://www.kaigokensaku.mhlw.go.jp/24/index.php?action_kouhyou_detail_004_kani=true&JigyosyoCd=2471300794-00&ServiceCd=510&Type=search", "url2": "http://nabari-momiji.jp@rice.ocn.ne.jp" }, "geometry": { "type": "Point", "coordinates": [ 136.078737734609945, 34.57263396357132 ] } },
{ "type": "Feature", "properties": { "内容": "特別養護老人ホーム国津園【介護老人福祉施設】三重県名張市神屋７６５番地", "url": "https://www.kaigokensaku.mhlw.go.jp/24/index.php?action_kouhyou_detail_004_kani=true&JigyosyoCd=2471300125-00&ServiceCd=510&Type=search", "url2": "https://www.kunitsuen.jp" }, "geometry": { "type": "Point", "coordinates": [ 136.145918400000028, 34.5881776 ] } },
{ "type": "Feature", "properties": { "内容": "特別養護老人ホーム　あさひ【介護老人福祉施設】三重県尾鷲市三木里町字木場967番8", "url": "https://www.kaigokensaku.mhlw.go.jp/24/index.php?action_kouhyou_detail_004_kani=true&JigyosyoCd=2471000204-00&ServiceCd=510&Type=search", "url2": null }, "geometry": { "type": "Point", "coordinates": [ 136.20296529999996, 33.9995239 ] } },
{ "type": "Feature", "properties": { "内容": "特別養護老人ホームスバル台【介護老人福祉施設】三重県尾鷲市大字南浦4587番地4", "url": "https://www.kaigokensaku.mhlw.go.jp/24/index.php?action_kouhyou_detail_004_kani=true&JigyosyoCd=2471000063-00&ServiceCd=510&Type=search", "url2": "http://www.owasechojuen.or.jp/" }, "geometry": { "type": "Point", "coordinates": [ 136.206438, 34.0821872 ] } },
{ "type": "Feature", "properties": { "内容": "特別養護老人ホ－ム　亀山愛の里【介護老人福祉施設】亀山市川合町1288-4", "url": "https://www.kaigokensaku.mhlw.go.jp/24/index.php?action_kouhyou_detail_004_kani=true&JigyosyoCd=2470400660-00&ServiceCd=510&Type=search", "url2": "https://kameyama-ainosato.com" }, "geometry": { "type": "Point", "coordinates": [ 136.475424800000042, 34.8626441 ] } },
{ "type": "Feature", "properties": { "内容": "特別養護老人ホーム安全の里【介護老人福祉施設】三重県亀山市住山町590番地1", "url": "https://www.kaigokensaku.mhlw.go.jp/24/index.php?action_kouhyou_detail_004_kani=true&JigyosyoCd=2470400017-00&ServiceCd=510&Type=search", "url2": "http://www.anzenfukushikai.or.jp/" }, "geometry": { "type": "Point", "coordinates": [ 136.429888799999958, 34.87527260000001 ] } },
{ "type": "Feature", "properties": { "内容": "ユニット型特別養護老人ホーム安全の里【介護老人福祉施設】三重県亀山市住山町590番地1", "url": "https://www.kaigokensaku.mhlw.go.jp/24/index.php?action_kouhyou_detail_004_kani=true&JigyosyoCd=2470400991-00&ServiceCd=510&Type=search", "url2": "https://www.anzenfukushikai.or.jp/" }, "geometry": { "type": "Point", "coordinates": [ 136.429919500000011, 34.8753086 ] } },
{ "type": "Feature", "properties": { "内容": "特別養護老人ホーム　亀寿苑【介護老人福祉施設】三重県亀山市阿野田町字二本松2443番地の1", "url": "https://www.kaigokensaku.mhlw.go.jp/24/index.php?action_kouhyou_detail_004_kani=true&JigyosyoCd=2470400199-00&ServiceCd=510&Type=search", "url2": "https://www.kijuen.jp/" }, "geometry": { "type": "Point", "coordinates": [ 136.464527099999941, 34.8380106 ] } },
{ "type": "Feature", "properties": { "内容": "特別養護老人ホーム　華旺寿【介護老人福祉施設】三重県亀山市関町坂下252番地", "url": "https://www.kaigokensaku.mhlw.go.jp/24/index.php?action_kouhyou_detail_004_kani=true&JigyosyoCd=2472300041-00&ServiceCd=510&Type=search", "url2": "https://www.hiragikaikaosu.com/" }, "geometry": { "type": "Point", "coordinates": [ 136.35596860370481, 34.891028102901416 ] } },
{ "type": "Feature", "properties": { "内容": "特別養護老人ホーム鳥羽陽光苑【介護老人福祉施設】三重県鳥羽市岩倉町６０９番地", "url": "https://www.kaigokensaku.mhlw.go.jp/24/index.php?action_kouhyou_detail_004_kani=true&JigyosyoCd=2470900040-00&ServiceCd=510&Type=search", "url2": "http://www.miefukushikai.jp/" }, "geometry": { "type": "Point", "coordinates": [ 136.848354, 34.4428947 ] } },
{ "type": "Feature", "properties": { "内容": "特別養護老人ホーム鳥羽陽光苑ユニット【介護老人福祉施設】三重県鳥羽市岩倉町６０９番地", "url": "https://www.kaigokensaku.mhlw.go.jp/24/index.php?action_kouhyou_detail_004_kani=true&JigyosyoCd=2470900321-00&ServiceCd=510&Type=search", "url2": "ｈｔｔｐ//ｗｗｗ．ｍｉｅｆｕｋｕｓｉｋａｉ．ｊｐ/" }, "geometry": { "type": "Point", "coordinates": [ 136.848354, 34.4428947 ] } },
{ "type": "Feature", "properties": { "内容": "特別養護老人ホームあらしま苑【介護老人福祉施設】三重県鳥羽市安楽島町字高山1075番地58", "url": "https://www.kaigokensaku.mhlw.go.jp/24/index.php?action_kouhyou_detail_004_kani=true&JigyosyoCd=2470900339-00&ServiceCd=510&Type=search", "url2": "http://www.koushin.or.jp/" }, "geometry": { "type": "Point", "coordinates": [ 136.857961003474401, 34.475636134981457 ] } },
{ "type": "Feature", "properties": { "内容": "特別養護老人ホーム　たちばな園あすか【介護老人福祉施設】三重県熊野市飛鳥町大又250特別養護老人ホームたちばな園あすか", "url": "https://www.kaigokensaku.mhlw.go.jp/24/index.php?action_kouhyou_detail_004_kani=true&JigyosyoCd=2471100392-00&ServiceCd=510&Type=search", "url2": "http://www.za.ztv.ne.jp/tachibanaen/" }, "geometry": { "type": "Point", "coordinates": [ 136.105375900000013, 33.9628925 ] } },
{ "type": "Feature", "properties": { "内容": "特別養護老人ホームたちばな園【介護老人福祉施設】三重県熊野市有馬町字中曽3466-1", "url": "https://www.kaigokensaku.mhlw.go.jp/24/index.php?action_kouhyou_detail_004_kani=true&JigyosyoCd=2471100012-00&ServiceCd=510&Type=search", "url2": "http://www.za.ztv.ne.jp/tachibanaen/" }, "geometry": { "type": "Point", "coordinates": [ 136.06365376199642, 33.873143632202002 ] } },
{ "type": "Feature", "properties": { "内容": "ケアホーム　熊南【介護老人福祉施設】三重県熊野市紀和町板屋１３２－２", "url": "https://www.kaigokensaku.mhlw.go.jp/24/index.php?action_kouhyou_detail_004_kani=true&JigyosyoCd=2473100069-00&ServiceCd=510&Type=search", "url2": "https://yuunan3.wixsite.com/kiwakai" }, "geometry": { "type": "Point", "coordinates": [ 135.913829599999985, 33.873145 ] } },
{ "type": "Feature", "properties": { "内容": "特別養護老人ホーム翠明院【介護老人福祉施設】三重県いなべ市藤原町上之山田1433番地3", "url": "https://www.kaigokensaku.mhlw.go.jp/24/index.php?action_kouhyou_detail_004_kani=true&JigyosyoCd=2472100136-00&ServiceCd=510&Type=search", "url2": "http://suimeiin.or.jp/" }, "geometry": { "type": "Point", "coordinates": [ 136.473469900000026, 35.2173818 ] } },
{ "type": "Feature", "properties": { "内容": "特別養護老人ホームアイリス【介護老人福祉施設】三重県いなべ市阿下喜３７２８番地２", "url": "https://www.kaigokensaku.mhlw.go.jp/24/index.php?action_kouhyou_detail_004_kani=true&JigyosyoCd=2472100193-00&ServiceCd=510&Type=search", "url2": "http://hokusei-you.net/iris/index.php" }, "geometry": { "type": "Point", "coordinates": [ 136.516811311721341, 35.145084901698887 ] } },
{ "type": "Feature", "properties": { "内容": "特別養護老人ホーム百楽【介護老人福祉施設】志摩市阿児町鵜方3195番地55", "url": "https://www.kaigokensaku.mhlw.go.jp/24/index.php?action_kouhyou_detail_004_kani=true&JigyosyoCd=2472901251-00&ServiceCd=510&Type=search", "url2": "http://www.100rakunokai.com/" }, "geometry": { "type": "Point", "coordinates": [ 136.829461347885172, 34.324867592933515 ] } },
{ "type": "Feature", "properties": { "内容": "志摩シルバーケア豊壽園【介護老人福祉施設】三重県志摩市阿児町神明878-39", "url": "https://www.kaigokensaku.mhlw.go.jp/24/index.php?action_kouhyou_detail_004_kani=true&JigyosyoCd=2472900667-00&ServiceCd=510&Type=search", "url2": "http://www.sensin.or.jp" }, "geometry": { "type": "Point", "coordinates": [ 136.816974092993178, 34.318510819678444 ] } },
{ "type": "Feature", "properties": { "内容": "特別養護老人ホーム　うがた苑【介護老人福祉施設】三重県志摩市阿児町鵜方2824番地85", "url": "https://www.kaigokensaku.mhlw.go.jp/24/index.php?action_kouhyou_detail_004_kani=true&JigyosyoCd=2472901558-00&ServiceCd=510&Type=search", "url2": "https://koushin.or.jp/" }, "geometry": { "type": "Point", "coordinates": [ 136.8483721, 34.3291265 ] } },
{ "type": "Feature", "properties": { "内容": "特別養護老人ホーム　うがた苑【介護老人福祉施設】三重県志摩市阿児町鵜方2824番地85", "url": "https://www.kaigokensaku.mhlw.go.jp/24/index.php?action_kouhyou_detail_004_kani=true&JigyosyoCd=2472901566-00&ServiceCd=510&Type=search", "url2": "https://koushin.or.jp/" }, "geometry": { "type": "Point", "coordinates": [ 136.847792742852789, 34.330109954073151 ] } },
{ "type": "Feature", "properties": { "内容": "志摩特別養護老人ホーム才庭寮【介護老人福祉施設】志摩市阿児町神明1537番地１", "url": "https://www.kaigokensaku.mhlw.go.jp/24/index.php?action_kouhyou_detail_004_kani=true&JigyosyoCd=2472900097-00&ServiceCd=510&Type=search", "url2": "http://www.shima.mctv.ne.jp/~sikouiki/" }, "geometry": { "type": "Point", "coordinates": [ 136.85052769999993, 34.3215192 ] } },
{ "type": "Feature", "properties": { "内容": "志摩特別養護老人ホームともやま苑【介護老人福祉施設】三重県志摩市大王町波切２２３３番地２", "url": "https://www.kaigokensaku.mhlw.go.jp/24/index.php?action_kouhyou_detail_004_kani=true&JigyosyoCd=2472900071-00&ServiceCd=510&Type=search", "url2": "http://www.shima.mctv.ne.jp/~sikouiki/" }, "geometry": { "type": "Point", "coordinates": [ 136.850120599999968, 34.2838159 ] } },
{ "type": "Feature", "properties": { "内容": "特別養護老人ホームビビアン【介護老人福祉施設】三重県志摩市大王町船越540番地14", "url": "https://www.kaigokensaku.mhlw.go.jp/24/index.php?action_kouhyou_detail_004_kani=true&JigyosyoCd=2472901053-00&ServiceCd=510&Type=search", "url2": "www.magocoro.or.jp/kizyun.htm" }, "geometry": { "type": "Point", "coordinates": [ 136.866130699999985, 34.2656102 ] } },
{ "type": "Feature", "properties": { "内容": "特別養護老人ホーム　おおやまだ鶴寿園【介護老人福祉施設】三重県伊賀市真泥２０６６番地", "url": "https://www.kaigokensaku.mhlw.go.jp/24/index.php?action_kouhyou_detail_004_kani=true&JigyosyoCd=2473200083-00&ServiceCd=510&Type=search", "url2": "http://www.green-center.or.jp" }, "geometry": { "type": "Point", "coordinates": [ 136.197044399999982, 34.7602119 ] } },
{ "type": "Feature", "properties": { "内容": "特別養護老人ホームゆめが丘鶴寿園【介護老人福祉施設】ゆめが丘2-1-3", "url": "https://www.kaigokensaku.mhlw.go.jp/24/index.php?action_kouhyou_detail_004_kani=true&JigyosyoCd=2471201075-00&ServiceCd=510&Type=search", "url2": "http://www.green-center.or.jp" }, "geometry": { "type": "Point", "coordinates": [ 136.161305199999987, 34.7396892 ] } },
{ "type": "Feature", "properties": { "内容": "特別養護老人ホーム福寿園【介護老人福祉施設】三重県伊賀市西山宇治田東1650番地", "url": "https://www.kaigokensaku.mhlw.go.jp/24/index.php?action_kouhyou_detail_004_kani=true&JigyosyoCd=2471200093-00&ServiceCd=510&Type=search", "url2": "http://www.fukujyukai.or.jp/" }, "geometry": { "type": "Point", "coordinates": [ 136.081695, 34.7922059 ] } },
{ "type": "Feature", "properties": { "内容": "特別養護老人ホーム第二梨ノ木園【介護老人福祉施設】三重県伊賀市朝屋731番地", "url": "https://www.kaigokensaku.mhlw.go.jp/24/index.php?action_kouhyou_detail_004_kani=true&JigyosyoCd=2471200101-00&ServiceCd=510&Type=search", "url2": "http://www.iga-sjk.or.jp/" }, "geometry": { "type": "Point", "coordinates": [ 136.10717939999995, 34.7556547 ] } },
{ "type": "Feature", "properties": { "内容": "特別養護老人ホーム伊賀シルバーケア豊壽園【介護老人福祉施設】伊賀市久米町字大木872番地1", "url": "https://www.kaigokensaku.mhlw.go.jp/24/index.php?action_kouhyou_detail_004_kani=true&JigyosyoCd=2471200994-00&ServiceCd=510&Type=search", "url2": "http：//www．sensin．or．jp/" }, "geometry": { "type": "Point", "coordinates": [ 136.141678490443383, 34.754009634576384 ] } },
{ "type": "Feature", "properties": { "内容": "特別養護老人ホーム伊賀の街(ユニット型)【介護老人福祉施設】三重県伊賀市小田町346-1", "url": "https://www.kaigokensaku.mhlw.go.jp/24/index.php?action_kouhyou_detail_004_kani=true&JigyosyoCd=2471201364-00&ServiceCd=510&Type=search", "url2": "http://www.keihokai.net/" }, "geometry": { "type": "Point", "coordinates": [ 136.1300711, 34.7783416 ] } },
{ "type": "Feature", "properties": { "内容": "特別養護老人ホームいがの里【介護老人福祉施設】三重県伊賀市愛田550番地", "url": "https://www.kaigokensaku.mhlw.go.jp/24/index.php?action_kouhyou_detail_004_kani=true&JigyosyoCd=2471200424-00&ServiceCd=510&Type=search", "url2": "https://aoyama-fukushikai.or.jp" }, "geometry": { "type": "Point", "coordinates": [ 136.223060900000064, 34.8071001 ] } },
{ "type": "Feature", "properties": { "内容": "特別養護老人ホーム　彩四季【介護老人福祉施設】三重県伊賀市市部奥山2611番5", "url": "https://www.kaigokensaku.mhlw.go.jp/24/index.php?action_kouhyou_detail_004_kani=true&JigyosyoCd=2471200085-00&ServiceCd=510&Type=search", "url2": "https://www.jaiga.or.jp/?p=188" }, "geometry": { "type": "Point", "coordinates": [ 136.178812362748658, 34.738765686147154 ] } },
{ "type": "Feature", "properties": { "内容": "特別養護老人ホームぬくもり園【介護老人福祉施設】伊賀市馬場600番地", "url": "https://www.kaigokensaku.mhlw.go.jp/24/index.php?action_kouhyou_detail_004_kani=true&JigyosyoCd=2471201208-00&ServiceCd=510&Type=search", "url2": "https://nukumorien.com/" }, "geometry": { "type": "Point", "coordinates": [ 136.168804200000068, 34.8263245 ] } },
{ "type": "Feature", "properties": { "内容": "従来型特養　さわやか園【介護老人福祉施設】三重県伊賀市山出字金坪２２２０番地の１０", "url": "https://www.kaigokensaku.mhlw.go.jp/24/index.php?action_kouhyou_detail_004_kani=true&JigyosyoCd=2471200176-00&ServiceCd=510&Type=search", "url2": "https://www.sawayakaen.or.jp/" }, "geometry": { "type": "Point", "coordinates": [ 136.120401455680849, 34.714033071572324 ] } },
{ "type": "Feature", "properties": { "内容": "ユニット型特養　さわやか園【介護老人福祉施設】三重県伊賀市山出字金坪２２２０番地の１０", "url": "https://www.kaigokensaku.mhlw.go.jp/24/index.php?action_kouhyou_detail_004_kani=true&JigyosyoCd=2471201174-00&ServiceCd=510&Type=search", "url2": "https://www.sawayakaen.or.jp/" }, "geometry": { "type": "Point", "coordinates": [ 136.120409108320558, 34.71402575064247 ] } },
{ "type": "Feature", "properties": { "内容": "特別養護老人ホーム　伊賀の街【介護老人福祉施設】三重県伊賀市小田町３４６－１", "url": "https://www.kaigokensaku.mhlw.go.jp/24/index.php?action_kouhyou_detail_004_kani=true&JigyosyoCd=2471201372-00&ServiceCd=510&Type=search", "url2": "http://www.keihoukai.net" }, "geometry": { "type": "Point", "coordinates": [ 136.1300711, 34.7783416 ] } },
{ "type": "Feature", "properties": { "内容": "特別養護老人ホーム　森の里【介護老人福祉施設】三重県伊賀市腰山1135番地", "url": "https://www.kaigokensaku.mhlw.go.jp/24/index.php?action_kouhyou_detail_004_kani=true&JigyosyoCd=2473300032-00&ServiceCd=510&Type=search", "url2": "http://www.nava21.ne.jp/~tokuyo-m/" }, "geometry": { "type": "Point", "coordinates": [ 136.20888130000003, 34.6319609 ] } },
{ "type": "Feature", "properties": { "内容": "特別養護老人ホーム　ぬくもり園【介護老人福祉施設】三重県伊賀市馬場600番地", "url": "https://www.kaigokensaku.mhlw.go.jp/24/index.php?action_kouhyou_detail_004_kani=true&JigyosyoCd=2473200109-00&ServiceCd=510&Type=search", "url2": "https://nukumorien.com/" }, "geometry": { "type": "Point", "coordinates": [ 136.169071780426094, 34.826277353292717 ] } },
{ "type": "Feature", "properties": { "内容": "特別養護老人ホーム　森の里　木精館【介護老人福祉施設】三重県伊賀市腰山1135番地", "url": "https://www.kaigokensaku.mhlw.go.jp/24/index.php?action_kouhyou_detail_004_kani=true&JigyosyoCd=2471201216-00&ServiceCd=510&Type=search", "url2": "https://aoyama-fukushikai.or.jp/" }, "geometry": { "type": "Point", "coordinates": [ 136.20888130000003, 34.6319609 ] } },
{ "type": "Feature", "properties": { "内容": "特別養護老人ホームすいせんの里【介護老人福祉施設】桑名郡木曽岬町和富10-8番地", "url": "https://www.kaigokensaku.mhlw.go.jp/24/index.php?action_kouhyou_detail_004_kani=true&JigyosyoCd=2472000203-00&ServiceCd=510&Type=search", "url2": "http://suisen-no-sato.com/" }, "geometry": { "type": "Point", "coordinates": [ 136.751196, 35.0663678 ] } },
{ "type": "Feature", "properties": { "内容": "北部陽光苑【介護老人福祉施設】三重県員弁郡東員町山田3600番１", "url": "https://www.kaigokensaku.mhlw.go.jp/24/index.php?action_kouhyou_detail_004_kani=true&JigyosyoCd=2472100847-00&ServiceCd=510&Type=search", "url2": "https://miefukushikai.jp/?page_id=277" }, "geometry": { "type": "Point", "coordinates": [ 136.598592364805711, 35.090814156919564 ] } },
{ "type": "Feature", "properties": { "内容": "特別養護老人ホーム　パークレジデンス【介護老人福祉施設】三重県員弁郡東員町長深３１４０番２", "url": "https://www.kaigokensaku.mhlw.go.jp/24/index.php?action_kouhyou_detail_004_kani=true&JigyosyoCd=2472100250-00&ServiceCd=510&Type=search", "url2": "http://www.kenwakai.com/" }, "geometry": { "type": "Point", "coordinates": [ 136.5702073, 35.055261500000015 ] } },
{ "type": "Feature", "properties": { "内容": "特別養護老人ホーム　菰野聖十字の家（ユニット）【介護老人福祉施設】三重県三重郡菰野町宿野1433-69菰野聖十字の家", "url": "https://www.kaigokensaku.mhlw.go.jp/24/index.php?action_kouhyou_detail_004_kani=true&JigyosyoCd=2472200761-00&ServiceCd=510&Type=search", "url2": "https://www.suzukaseijujikai.jp/" }, "geometry": { "type": "Point", "coordinates": [ 136.5189368, 35.0031422 ] } },
{ "type": "Feature", "properties": { "内容": "特別養護老人ホーム菰野聖十字の家【介護老人福祉施設】三重県三重郡菰野町宿野1433-69", "url": "https://www.kaigokensaku.mhlw.go.jp/24/index.php?action_kouhyou_detail_004_kani=true&JigyosyoCd=2472200076-00&ServiceCd=510&Type=search", "url2": "http://www.suzukaseijujikai.jp" }, "geometry": { "type": "Point", "coordinates": [ 136.519401099999982, 35.003151 ] } },
{ "type": "Feature", "properties": { "内容": "三重県三重郡老人福祉施設組合　特別養護老人ホームみずほ寮【介護老人福祉施設】三重県三重郡菰野町菰野5833-1", "url": "https://www.kaigokensaku.mhlw.go.jp/24/index.php?action_kouhyou_detail_004_kani=true&JigyosyoCd=2472200027-00&ServiceCd=510&Type=search", "url2": "http://www.mizuho-ryo.net" }, "geometry": { "type": "Point", "coordinates": [ 136.475844300000063, 35.0101433 ] } },
{ "type": "Feature", "properties": { "内容": "特別養護老人ホーム往還【介護老人福祉施設】三重県三重郡朝日町大字柿字熊之田564番地", "url": "https://www.kaigokensaku.mhlw.go.jp/24/index.php?action_kouhyou_detail_004_kani=true&JigyosyoCd=2472200365-00&ServiceCd=510&Type=search", "url2": "https：//miekenjukai.com" }, "geometry": { "type": "Point", "coordinates": [ 136.666500449420937, 35.031823574267335 ] } },
{ "type": "Feature", "properties": { "内容": "特別養護老人ホーム多気天啓苑【介護老人福祉施設】三重県多気郡多気町四疋田字コウボシ５８０番", "url": "https://www.kaigokensaku.mhlw.go.jp/24/index.php?action_kouhyou_detail_004_kani=true&JigyosyoCd=2472700232-00&ServiceCd=510&Type=search", "url2": "https://ikushinkai-tm.jp" }, "geometry": { "type": "Point", "coordinates": [ 136.5307613, 34.5033268 ] } },
{ "type": "Feature", "properties": { "内容": "特別養護老人ホーム　多気彩幸【介護老人福祉施設】三重県多気郡多気町五佐奈字八重谷４３２－４８", "url": "https://www.kaigokensaku.mhlw.go.jp/24/index.php?action_kouhyou_detail_004_kani=true&JigyosyoCd=2472700521-00&ServiceCd=510&Type=search", "url2": "https://www.taki-saiko.jp/" }, "geometry": { "type": "Point", "coordinates": [ 136.561169699999937, 34.4954981 ] } },
{ "type": "Feature", "properties": { "内容": "特別養護老人ホーム　ウェルハート明和【介護老人福祉施設】三重県多気郡明和町大字志貴1334番地", "url": "https://www.kaigokensaku.mhlw.go.jp/24/index.php?action_kouhyou_detail_004_kani=true&JigyosyoCd=2472700752-00&ServiceCd=510&Type=search", "url2": "http://www.wellheart.jp" }, "geometry": { "type": "Point", "coordinates": [ 136.617007459138478, 34.576495741625322 ] } },
{ "type": "Feature", "properties": { "内容": "三重県済生会介護老人福祉施設明和苑【介護老人福祉施設】三重県多気郡明和町大字上野４３５", "url": "https://www.kaigokensaku.mhlw.go.jp/24/index.php?action_kouhyou_detail_004_kani=true&JigyosyoCd=2472700299-00&ServiceCd=510&Type=search", "url2": "https://www.meiwa-saiseikai.jp/meiwaen/" }, "geometry": { "type": "Point", "coordinates": [ 136.631467899999961, 34.5315811 ] } },
{ "type": "Feature", "properties": { "内容": "特別養護老人ホームやまびこ荘【介護老人福祉施設】三重県多気郡大台町江馬260", "url": "https://www.kaigokensaku.mhlw.go.jp/24/index.php?action_kouhyou_detail_004_kani=true&JigyosyoCd=2472701396-00&ServiceCd=510&Type=search", "url2": "https://www.jitokukai-web.com" }, "geometry": { "type": "Point", "coordinates": [ 136.3364583, 34.3649744 ] } },
{ "type": "Feature", "properties": { "内容": "特別養護老人ホーム大台共生園【介護老人福祉施設】三重県多気郡大台町千代997", "url": "https://www.kaigokensaku.mhlw.go.jp/24/index.php?action_kouhyou_detail_004_kani=true&JigyosyoCd=2472700372-00&ServiceCd=510&Type=search", "url2": "https://kg-m.com/" }, "geometry": { "type": "Point", "coordinates": [ 136.548198599999978, 34.4454232 ] } },
{ "type": "Feature", "properties": { "内容": "介護老人福祉施設　はなのその【介護老人福祉施設】三重県度会郡玉城町勝田字濱塚3086番地42", "url": "https://www.kaigokensaku.mhlw.go.jp/24/index.php?action_kouhyou_detail_004_kani=true&JigyosyoCd=2472800479-00&ServiceCd=510&Type=search", "url2": "https://yurihananosono.jp/" }, "geometry": { "type": "Point", "coordinates": [ 136.631561516949432, 34.476470166387614 ] } },
{ "type": "Feature", "properties": { "内容": "介護老人福祉施設　はなのその【介護老人福祉施設】三重県度会郡玉城町勝田３０８６－４２", "url": "https://www.kaigokensaku.mhlw.go.jp/24/index.php?action_kouhyou_detail_004_kani=true&JigyosyoCd=2472801535-00&ServiceCd=510&Type=search", "url2": "https://yurihananosono.jp/" }, "geometry": { "type": "Point", "coordinates": [ 136.631706, 34.476824600000015 ] } },
{ "type": "Feature", "properties": { "内容": "特別養護老人ホームかりん【介護老人福祉施設】三重県度会郡度会町田間字前山319番地18", "url": "https://www.kaigokensaku.mhlw.go.jp/24/index.php?action_kouhyou_detail_004_kani=true&JigyosyoCd=2472801063-00&ServiceCd=510&Type=search", "url2": "http://karin0502.com" }, "geometry": { "type": "Point", "coordinates": [ 136.600906303938245, 34.435591015617611 ] } },
{ "type": "Feature", "properties": { "内容": "指定介護老人福祉施設特別養護老人ホームわたらい緑清苑【介護老人福祉施設】三重県度会郡度会町棚橋1202番地", "url": "https://www.kaigokensaku.mhlw.go.jp/24/index.php?action_kouhyou_detail_004_kani=true&JigyosyoCd=2472800271-00&ServiceCd=510&Type=search", "url2": null }, "geometry": { "type": "Point", "coordinates": [ 136.6216882, 34.438428 ] } },
{ "type": "Feature", "properties": { "内容": "特別養護老人ホーム　大宮園【介護老人福祉施設】三重県度会郡大紀町野原５１９番地１", "url": "https://www.kaigokensaku.mhlw.go.jp/24/index.php?action_kouhyou_detail_004_kani=true&JigyosyoCd=2472800446-00&ServiceCd=510&Type=search", "url2": "http://www.ma.mctv.ne.jp/~oomiyaen/" }, "geometry": { "type": "Point", "coordinates": [ 136.50858889999995, 34.4320597 ] } },
{ "type": "Feature", "properties": { "内容": "特別養護老人ホーム大宮園【介護老人福祉施設】三重県度会郡大紀町野原５１９番地１", "url": "https://www.kaigokensaku.mhlw.go.jp/24/index.php?action_kouhyou_detail_004_kani=true&JigyosyoCd=2472801337-00&ServiceCd=510&Type=search", "url2": "http://www.ma.mctv.ne.jp/~oomiyaen/" }, "geometry": { "type": "Point", "coordinates": [ 136.50858889999995, 34.4320597 ] } },
{ "type": "Feature", "properties": { "内容": "特別養護老人ホーム共生園【介護老人福祉施設】三重県度会郡大紀町崎1785", "url": "https://www.kaigokensaku.mhlw.go.jp/24/index.php?action_kouhyou_detail_004_kani=true&JigyosyoCd=2472800255-00&ServiceCd=510&Type=search", "url2": "http://www.kg-mie.com/" }, "geometry": { "type": "Point", "coordinates": [ 136.401060499999971, 34.2834694 ] } },
{ "type": "Feature", "properties": { "内容": "特別養護老人ホーム柑洋苑【介護老人福祉施設】三重県度会郡南伊勢町五ヶ所浦　2870", "url": "https://www.kaigokensaku.mhlw.go.jp/24/index.php?action_kouhyou_detail_004_kani=true&JigyosyoCd=2472800263-00&ServiceCd=510&Type=search", "url2": "http://www.kanyoen.jp/" }, "geometry": { "type": "Point", "coordinates": [ 136.707452200000034, 34.3511567 ] } },
{ "type": "Feature", "properties": { "内容": "特別養護老人ホーム　メディカルケア伊勢志摩【介護老人福祉施設】三重県度会郡南伊勢町下津浦７６７番地８", "url": "https://www.kaigokensaku.mhlw.go.jp/24/index.php?action_kouhyou_detail_004_kani=true&JigyosyoCd=2472801667-00&ServiceCd=510&Type=search", "url2": "http://www.seichokai.org" }, "geometry": { "type": "Point", "coordinates": [ 136.723475900000039, 34.3346953 ] } },
{ "type": "Feature", "properties": { "内容": "特別養護老人ホーム　メディカルケア伊勢志摩【介護老人福祉施設】三重県度会郡南伊勢町下津浦767番地8", "url": "https://www.kaigokensaku.mhlw.go.jp/24/index.php?action_kouhyou_detail_004_kani=true&JigyosyoCd=2472801659-00&ServiceCd=510&Type=search", "url2": "http://www.seichokai.org/" }, "geometry": { "type": "Point", "coordinates": [ 136.731758561438056, 34.334021982105895 ] } },
{ "type": "Feature", "properties": { "内容": "特別養護老人ホーム真砂寮【介護老人福祉施設】三重県度会郡南伊勢町小方竈17番地", "url": "https://www.kaigokensaku.mhlw.go.jp/24/index.php?action_kouhyou_detail_004_kani=true&JigyosyoCd=2472800297-00&ServiceCd=510&Type=search", "url2": null }, "geometry": { "type": "Point", "coordinates": [ 136.552980899999966, 34.275515 ] } },
{ "type": "Feature", "properties": { "内容": "特別養護老人ホーム　みやま園【介護老人福祉施設】三重県北牟婁郡紀北町矢口浦842番地", "url": "https://www.kaigokensaku.mhlw.go.jp/24/index.php?action_kouhyou_detail_004_kani=true&JigyosyoCd=2473000103-00&ServiceCd=510&Type=search", "url2": "http://www.zd.ztv.ne.jp/miyamaen/" }, "geometry": { "type": "Point", "coordinates": [ 136.267201699999987, 34.1372244 ] } },
{ "type": "Feature", "properties": { "内容": "特別養護老人ホーム　どじょっこ【介護老人福祉施設】北牟婁郡紀北町馬瀬字広田1635番地1", "url": "https://www.kaigokensaku.mhlw.go.jp/24/index.php?action_kouhyou_detail_004_kani=true&JigyosyoCd=2473000400-00&ServiceCd=510&Type=search", "url2": "http://www.owasechojuen.or.jp" }, "geometry": { "type": "Point", "coordinates": [ 136.251125555075532, 34.151608351347519 ] } },
{ "type": "Feature", "properties": { "内容": "紀北町立老人ホーム赤羽寮【介護老人福祉施設】三重県北牟婁郡紀北町島原1402番地1", "url": "https://www.kaigokensaku.mhlw.go.jp/24/index.php?action_kouhyou_detail_004_kani=true&JigyosyoCd=2473000095-00&ServiceCd=510&Type=search", "url2": null }, "geometry": { "type": "Point", "coordinates": [ 136.302526599999965, 34.2152007 ] } },
{ "type": "Feature", "properties": { "内容": "特別養護老人ホームエイジハウス【介護老人福祉施設】三重県南牟婁郡御浜町神木23", "url": "https://www.kaigokensaku.mhlw.go.jp/24/index.php?action_kouhyou_detail_004_kani=true&JigyosyoCd=2473100077-00&ServiceCd=510&Type=search", "url2": "http://www.zc.ztv.ne.jp/agehouse/" }, "geometry": { "type": "Point", "coordinates": [ 136.0286195, 33.8540339 ] } },
{ "type": "Feature", "properties": { "内容": "宝寿園【介護老人福祉施設】三重県南牟婁郡紀宝町北桧杖90番地", "url": "https://www.kaigokensaku.mhlw.go.jp/24/index.php?action_kouhyou_detail_004_kani=true&JigyosyoCd=2473100028-00&ServiceCd=510&Type=search", "url2": null }, "geometry": { "type": "Point", "coordinates": [ 135.972192700000051, 33.7289154 ] } }
]
}
